<?xml version="1.0" encoding="UTF-8"?>
<gpx creator="daengrun-naver-route" version="1.1" xmlns="http://www.topografix.com/GPX/1/1" xmlns:xsi="http://www.w3.org/2001/XMLSchema-instance" xsi:schemaLocation="http://www.topografix.com/GPX/1/1 http://www.topografix.com/GPX/1/1/gpx.xsd">
 <metadata>
  <name>강남 식물 연못·솔밭공원 루프 2.98km</name>
  <desc>daengrun candidate geometry — measured 2.98km via Naver pedestrian router (o=flat, 계단회피). Elevation NOT available from this source. stairs=0 crosswalk=10 steppingstone=0 underpass=0 overpass=0</desc>
  <link href="naver:n2m2x8"><text>daengrun route id</text></link>
  <copyright author="NAVER Corp."><license>https://map.naver.com/</license></copyright>
 </metadata>
 <trk>
  <name>강남 식물 연못·솔밭공원 루프 2.98km</name>
  <trkseg>
   <trkpt lat="37.4746988" lon="127.1015101"></trkpt>
   <trkpt lat="37.4746911" lon="127.101638"></trkpt>
   <trkpt lat="37.4746911" lon="127.101638"></trkpt>
   <trkpt lat="37.4745749" lon="127.1016556"></trkpt>
   <trkpt lat="37.4745425" lon="127.1016772"></trkpt>
   <trkpt lat="37.4745166" lon="127.1017429"></trkpt>
   <trkpt lat="37.4745069" lon="127.1017905"></trkpt>
   <trkpt lat="37.47441" lon="127.1019324"></trkpt>
   <trkpt lat="37.4743569" lon="127.1019632"></trkpt>
   <trkpt lat="37.4742903" lon="127.1019783"></trkpt>
   <trkpt lat="37.4741866" lon="127.1019788"></trkpt>
   <trkpt lat="37.4740801" lon="127.1019454"></trkpt>
   <trkpt lat="37.4740801" lon="127.1019454"></trkpt>
   <trkpt lat="37.4737937" lon="127.1022704"></trkpt>
   <trkpt lat="37.4737937" lon="127.1022704"></trkpt>
   <trkpt lat="37.4738544" lon="127.1023707"></trkpt>
   <trkpt lat="37.4738544" lon="127.1023707"></trkpt>
   <trkpt lat="37.4737764" lon="127.1024763"></trkpt>
   <trkpt lat="37.4737764" lon="127.1024763"></trkpt>
   <trkpt lat="37.4736596" lon="127.1023401"></trkpt>
   <trkpt lat="37.4735618" lon="127.102206"></trkpt>
   <trkpt lat="37.4733986" lon="127.1019083"></trkpt>
   <trkpt lat="37.4733595" lon="127.1018249"></trkpt>
   <trkpt lat="37.473217" lon="127.1015203"></trkpt>
   <trkpt lat="37.4731413" lon="127.1012719"></trkpt>
   <trkpt lat="37.4730683" lon="127.100994"></trkpt>
   <trkpt lat="37.4729739" lon="127.1002764"></trkpt>
   <trkpt lat="37.4729692" lon="127.100212"></trkpt>
   <trkpt lat="37.4729681" lon="127.1001373"></trkpt>
   <trkpt lat="37.4729681" lon="127.1001373"></trkpt>
   <trkpt lat="37.4729459" lon="127.0999848"></trkpt>
   <trkpt lat="37.4729459" lon="127.0999848"></trkpt>
   <trkpt lat="37.4729357" lon="127.0999124"></trkpt>
   <trkpt lat="37.4728252" lon="127.0991949"></trkpt>
   <trkpt lat="37.4726585" lon="127.0979076"></trkpt>
   <trkpt lat="37.4726585" lon="127.0979076"></trkpt>
   <trkpt lat="37.4728216" lon="127.0978842"></trkpt>
   <trkpt lat="37.4729027" lon="127.0978724"></trkpt>
   <trkpt lat="37.4729027" lon="127.0978724"></trkpt>
   <trkpt lat="37.4728216" lon="127.0978842"></trkpt>
   <trkpt lat="37.4726585" lon="127.0979076"></trkpt>
   <trkpt lat="37.4726585" lon="127.0979076"></trkpt>
   <trkpt lat="37.4728252" lon="127.0991949"></trkpt>
   <trkpt lat="37.4729357" lon="127.0999124"></trkpt>
   <trkpt lat="37.4729459" lon="127.0999848"></trkpt>
   <trkpt lat="37.4729459" lon="127.0999848"></trkpt>
   <trkpt lat="37.4729681" lon="127.1001373"></trkpt>
   <trkpt lat="37.4729681" lon="127.1001373"></trkpt>
   <trkpt lat="37.4729692" lon="127.100212"></trkpt>
   <trkpt lat="37.4729739" lon="127.1002764"></trkpt>
   <trkpt lat="37.4730683" lon="127.100994"></trkpt>
   <trkpt lat="37.4731413" lon="127.1012719"></trkpt>
   <trkpt lat="37.473217" lon="127.1015203"></trkpt>
   <trkpt lat="37.4733595" lon="127.1018249"></trkpt>
   <trkpt lat="37.4733986" lon="127.1019083"></trkpt>
   <trkpt lat="37.4735618" lon="127.102206"></trkpt>
   <trkpt lat="37.4736596" lon="127.1023401"></trkpt>
   <trkpt lat="37.4737764" lon="127.1024763"></trkpt>
   <trkpt lat="37.4738506" lon="127.1025687"></trkpt>
   <trkpt lat="37.4738506" lon="127.1025687"></trkpt>
   <trkpt lat="37.4736872" lon="127.1027742"></trkpt>
   <trkpt lat="37.4736872" lon="127.1027742"></trkpt>
   <trkpt lat="37.4738012" lon="127.1029082"></trkpt>
   <trkpt lat="37.4740065" lon="127.1031118"></trkpt>
   <trkpt lat="37.4740807" lon="127.1031951"></trkpt>
   <trkpt lat="37.4741495" lon="127.1032807"></trkpt>
   <trkpt lat="37.4742201" lon="127.1033754"></trkpt>
   <trkpt lat="37.4743487" lon="127.1035522"></trkpt>
   <trkpt lat="37.4743732" lon="127.1035906"></trkpt>
   <trkpt lat="37.474423" lon="127.1036706"></trkpt>
   <trkpt lat="37.4745055" lon="127.1038081"></trkpt>
   <trkpt lat="37.4746325" lon="127.1040427"></trkpt>
   <trkpt lat="37.4746934" lon="127.104177"></trkpt>
   <trkpt lat="37.4748097" lon="127.1044693"></trkpt>
   <trkpt lat="37.4748179" lon="127.1044907"></trkpt>
   <trkpt lat="37.4748306" lon="127.1045291"></trkpt>
   <trkpt lat="37.4749062" lon="127.1047447"></trkpt>
   <trkpt lat="37.4749926" lon="127.1049965"></trkpt>
   <trkpt lat="37.4750709" lon="127.1052121"></trkpt>
   <trkpt lat="37.4750955" lon="127.1053069"></trkpt>
   <trkpt lat="37.4750955" lon="127.1053069"></trkpt>
   <trkpt lat="37.4751392" lon="127.1054221"></trkpt>
   <trkpt lat="37.4751392" lon="127.1054221"></trkpt>
   <trkpt lat="37.4751983" lon="127.1055744"></trkpt>
   <trkpt lat="37.4752829" lon="127.1058194"></trkpt>
   <trkpt lat="37.4753421" lon="127.1059967"></trkpt>
   <trkpt lat="37.4753558" lon="127.1060373"></trkpt>
   <trkpt lat="37.4753604" lon="127.1060893"></trkpt>
   <trkpt lat="37.4753569" lon="127.1061199"></trkpt>
   <trkpt lat="37.4753569" lon="127.1061199"></trkpt>
   <trkpt lat="37.4753444" lon="127.1061369"></trkpt>
   <trkpt lat="37.4753291" lon="127.1061505"></trkpt>
   <trkpt lat="37.4752868" lon="127.1061723"></trkpt>
   <trkpt lat="37.4733884" lon="127.1066663"></trkpt>
   <trkpt lat="37.4731443" lon="127.1067263"></trkpt>
   <trkpt lat="37.4730975" lon="127.1067379"></trkpt>
   <trkpt lat="37.4730768" lon="127.1067437"></trkpt>
   <trkpt lat="37.4730768" lon="127.1067437"></trkpt>
   <trkpt lat="37.4731338" lon="127.1071053"></trkpt>
   <trkpt lat="37.4731338" lon="127.1071053"></trkpt>
   <trkpt lat="37.4732311" lon="127.1070844"></trkpt>
   <trkpt lat="37.4732735" lon="127.1070978"></trkpt>
   <trkpt lat="37.4732735" lon="127.1070978"></trkpt>
   <trkpt lat="37.4733115" lon="127.1071315"></trkpt>
   <trkpt lat="37.4736295" lon="127.1076105"></trkpt>
   <trkpt lat="37.4737291" lon="127.1077683"></trkpt>
   <trkpt lat="37.4737681" lon="127.1078348"></trkpt>
   <trkpt lat="37.4737681" lon="127.1078348"></trkpt>
   <trkpt lat="37.4738163" lon="127.1079409"></trkpt>
   <trkpt lat="37.4738163" lon="127.1079409"></trkpt>
   <trkpt lat="37.4738598" lon="127.1080255"></trkpt>
   <trkpt lat="37.4739551" lon="127.1082285"></trkpt>
   <trkpt lat="37.473998" lon="127.1083866"></trkpt>
   <trkpt lat="37.4740255" lon="127.1085358"></trkpt>
   <trkpt lat="37.4740255" lon="127.1085358"></trkpt>
   <trkpt lat="37.4739868" lon="127.1085428"></trkpt>
   <trkpt lat="37.473957" lon="127.1085316"></trkpt>
   <trkpt lat="37.4739037" lon="127.1084855"></trkpt>
   <trkpt lat="37.4739037" lon="127.1084855"></trkpt>
   <trkpt lat="37.473957" lon="127.1085316"></trkpt>
   <trkpt lat="37.4739868" lon="127.1085428"></trkpt>
   <trkpt lat="37.4740255" lon="127.1085358"></trkpt>
   <trkpt lat="37.4740255" lon="127.1085358"></trkpt>
   <trkpt lat="37.473998" lon="127.1083866"></trkpt>
   <trkpt lat="37.4739551" lon="127.1082285"></trkpt>
   <trkpt lat="37.4738598" lon="127.1080255"></trkpt>
   <trkpt lat="37.4738163" lon="127.1079409"></trkpt>
   <trkpt lat="37.4738163" lon="127.1079409"></trkpt>
   <trkpt lat="37.4737681" lon="127.1078348"></trkpt>
   <trkpt lat="37.4737681" lon="127.1078348"></trkpt>
   <trkpt lat="37.4737291" lon="127.1077683"></trkpt>
   <trkpt lat="37.4736295" lon="127.1076105"></trkpt>
   <trkpt lat="37.4733115" lon="127.1071315"></trkpt>
   <trkpt lat="37.4732735" lon="127.1070978"></trkpt>
   <trkpt lat="37.4732735" lon="127.1070978"></trkpt>
   <trkpt lat="37.4732311" lon="127.1070844"></trkpt>
   <trkpt lat="37.4731338" lon="127.1071053"></trkpt>
   <trkpt lat="37.4731338" lon="127.1071053"></trkpt>
   <trkpt lat="37.4730768" lon="127.1067437"></trkpt>
   <trkpt lat="37.4730768" lon="127.1067437"></trkpt>
   <trkpt lat="37.4730975" lon="127.1067379"></trkpt>
   <trkpt lat="37.4731443" lon="127.1067263"></trkpt>
   <trkpt lat="37.4733884" lon="127.1066663"></trkpt>
   <trkpt lat="37.4752868" lon="127.1061723"></trkpt>
   <trkpt lat="37.4753291" lon="127.1061505"></trkpt>
   <trkpt lat="37.4753444" lon="127.1061369"></trkpt>
   <trkpt lat="37.4753569" lon="127.1061199"></trkpt>
   <trkpt lat="37.4753569" lon="127.1061199"></trkpt>
   <trkpt lat="37.4753604" lon="127.1060893"></trkpt>
   <trkpt lat="37.4753558" lon="127.1060373"></trkpt>
   <trkpt lat="37.4753421" lon="127.1059967"></trkpt>
   <trkpt lat="37.4752829" lon="127.1058194"></trkpt>
   <trkpt lat="37.4751983" lon="127.1055744"></trkpt>
   <trkpt lat="37.4751392" lon="127.1054221"></trkpt>
   <trkpt lat="37.4751392" lon="127.1054221"></trkpt>
   <trkpt lat="37.4750955" lon="127.1053069"></trkpt>
   <trkpt lat="37.4750955" lon="127.1053069"></trkpt>
   <trkpt lat="37.4750709" lon="127.1052121"></trkpt>
   <trkpt lat="37.4749926" lon="127.1049965"></trkpt>
   <trkpt lat="37.4749062" lon="127.1047447"></trkpt>
   <trkpt lat="37.4748306" lon="127.1045291"></trkpt>
   <trkpt lat="37.4748179" lon="127.1044907"></trkpt>
   <trkpt lat="37.4748097" lon="127.1044693"></trkpt>
   <trkpt lat="37.4746934" lon="127.104177"></trkpt>
   <trkpt lat="37.4746325" lon="127.1040427"></trkpt>
   <trkpt lat="37.4745055" lon="127.1038081"></trkpt>
   <trkpt lat="37.474423" lon="127.1036706"></trkpt>
   <trkpt lat="37.4743732" lon="127.1035906"></trkpt>
   <trkpt lat="37.4743487" lon="127.1035522"></trkpt>
   <trkpt lat="37.4742201" lon="127.1033754"></trkpt>
   <trkpt lat="37.4741495" lon="127.1032807"></trkpt>
   <trkpt lat="37.4740807" lon="127.1031951"></trkpt>
   <trkpt lat="37.4740065" lon="127.1031118"></trkpt>
   <trkpt lat="37.4738012" lon="127.1029082"></trkpt>
   <trkpt lat="37.4736872" lon="127.1027742"></trkpt>
   <trkpt lat="37.4736872" lon="127.1027742"></trkpt>
   <trkpt lat="37.4738506" lon="127.1025687"></trkpt>
   <trkpt lat="37.4738506" lon="127.1025687"></trkpt>
   <trkpt lat="37.4737764" lon="127.1024763"></trkpt>
   <trkpt lat="37.4738544" lon="127.1023707"></trkpt>
   <trkpt lat="37.4738544" lon="127.1023707"></trkpt>
   <trkpt lat="37.4737937" lon="127.1022704"></trkpt>
   <trkpt lat="37.4737937" lon="127.1022704"></trkpt>
   <trkpt lat="37.4740801" lon="127.1019454"></trkpt>
   <trkpt lat="37.4740801" lon="127.1019454"></trkpt>
   <trkpt lat="37.4741866" lon="127.1019788"></trkpt>
   <trkpt lat="37.4742903" lon="127.1019783"></trkpt>
   <trkpt lat="37.4743569" lon="127.1019632"></trkpt>
   <trkpt lat="37.47441" lon="127.1019324"></trkpt>
   <trkpt lat="37.4745069" lon="127.1017905"></trkpt>
   <trkpt lat="37.4745166" lon="127.1017429"></trkpt>
   <trkpt lat="37.4745425" lon="127.1016772"></trkpt>
   <trkpt lat="37.4745749" lon="127.1016556"></trkpt>
   <trkpt lat="37.4746911" lon="127.101638"></trkpt>
   <trkpt lat="37.4746911" lon="127.101638"></trkpt>
   <trkpt lat="37.4746988" lon="127.1015101"></trkpt>
  </trkseg>
 </trk>
</gpx>
