<?xml version="1.0" encoding="UTF-8"?>
<gpx creator="daengrun-naver-route" version="1.1" xmlns="http://www.topografix.com/GPX/1/1" xmlns:xsi="http://www.w3.org/2001/XMLSchema-instance" xsi:schemaLocation="http://www.topografix.com/GPX/1/1 http://www.topografix.com/GPX/1/1/gpx.xsd">
 <metadata>
  <name>강북 길음골소공원·소광장 루프 4.34km</name>
  <desc>daengrun candidate geometry — measured 4.34km via Naver pedestrian router (o=flat, 계단회피). Elevation NOT available from this source. stairs=0 crosswalk=5 steppingstone=0 underpass=0 overpass=0</desc>
  <link href="naver:zfypha"><text>daengrun route id</text></link>
  <copyright author="NAVER Corp."><license>https://map.naver.com/</license></copyright>
 </metadata>
 <trk>
  <name>강북 길음골소공원·소광장 루프 4.34km</name>
  <trkseg>
   <trkpt lat="37.6140857" lon="127.0205011"></trkpt>
   <trkpt lat="37.6140848" lon="127.0205011"></trkpt>
   <trkpt lat="37.6141182" lon="127.0204986"></trkpt>
   <trkpt lat="37.6141326" lon="127.0205019"></trkpt>
   <trkpt lat="37.6141687" lon="127.0205244"></trkpt>
   <trkpt lat="37.6141687" lon="127.0205244"></trkpt>
   <trkpt lat="37.6141714" lon="127.0205187"></trkpt>
   <trkpt lat="37.6142063" lon="127.0204629"></trkpt>
   <trkpt lat="37.614236" lon="127.0204401"></trkpt>
   <trkpt lat="37.6142954" lon="127.0204227"></trkpt>
   <trkpt lat="37.6143882" lon="127.0204187"></trkpt>
   <trkpt lat="37.6145154" lon="127.0204349"></trkpt>
   <trkpt lat="37.6145578" lon="127.0204561"></trkpt>
   <trkpt lat="37.6146085" lon="127.0205045"></trkpt>
   <trkpt lat="37.6146321" lon="127.0205429"></trkpt>
   <trkpt lat="37.6146398" lon="127.0206698"></trkpt>
   <trkpt lat="37.6146367" lon="127.0207922"></trkpt>
   <trkpt lat="37.6146367" lon="127.0207922"></trkpt>
   <trkpt lat="37.6146253" lon="127.0208557"></trkpt>
   <trkpt lat="37.6145958" lon="127.0209182"></trkpt>
   <trkpt lat="37.6144722" lon="127.0211275"></trkpt>
   <trkpt lat="37.6143851" lon="127.021417"></trkpt>
   <trkpt lat="37.6143499" lon="127.0216325"></trkpt>
   <trkpt lat="37.6143046" lon="127.0220101"></trkpt>
   <trkpt lat="37.6142857" lon="127.0220249"></trkpt>
   <trkpt lat="37.6142857" lon="127.0220249"></trkpt>
   <trkpt lat="37.6142695" lon="127.0220284"></trkpt>
   <trkpt lat="37.6137521" lon="127.0220249"></trkpt>
   <trkpt lat="37.6136123" lon="127.0220156"></trkpt>
   <trkpt lat="37.6129317" lon="127.0219928"></trkpt>
   <trkpt lat="37.6125522" lon="127.0219794"></trkpt>
   <trkpt lat="37.6120483" lon="127.0219667"></trkpt>
   <trkpt lat="37.6118969" lon="127.02197"></trkpt>
   <trkpt lat="37.6115258" lon="127.0220369"></trkpt>
   <trkpt lat="37.6114691" lon="127.0220441"></trkpt>
   <trkpt lat="37.6114691" lon="127.0220441"></trkpt>
   <trkpt lat="37.6114519" lon="127.0220419"></trkpt>
   <trkpt lat="37.6114357" lon="127.0220307"></trkpt>
   <trkpt lat="37.6114031" lon="127.021989"></trkpt>
   <trkpt lat="37.611384" lon="127.0219472"></trkpt>
   <trkpt lat="37.611265" lon="127.0212897"></trkpt>
   <trkpt lat="37.6112411" lon="127.0211833"></trkpt>
   <trkpt lat="37.6110747" lon="127.0203709"></trkpt>
   <trkpt lat="37.6109587" lon="127.0195513"></trkpt>
   <trkpt lat="37.6109439" lon="127.0194506"></trkpt>
   <trkpt lat="37.6108651" lon="127.018914"></trkpt>
   <trkpt lat="37.6108651" lon="127.018914"></trkpt>
   <trkpt lat="37.6107174" lon="127.0189456"></trkpt>
   <trkpt lat="37.6106466" lon="127.0188305"></trkpt>
   <trkpt lat="37.6105932" lon="127.0187628"></trkpt>
   <trkpt lat="37.6105932" lon="127.0187628"></trkpt>
   <trkpt lat="37.6105663" lon="127.0188004"></trkpt>
   <trkpt lat="37.6104121" lon="127.0190008"></trkpt>
   <trkpt lat="37.6102131" lon="127.0192887"></trkpt>
   <trkpt lat="37.6101423" lon="127.0193764"></trkpt>
   <trkpt lat="37.6100318" lon="127.0194814"></trkpt>
   <trkpt lat="37.6099968" lon="127.0195144"></trkpt>
   <trkpt lat="37.6096275" lon="127.0197978"></trkpt>
   <trkpt lat="37.6093903" lon="127.0199851"></trkpt>
   <trkpt lat="37.6090704" lon="127.0202183"></trkpt>
   <trkpt lat="37.6090704" lon="127.0202183"></trkpt>
   <trkpt lat="37.6093903" lon="127.0199851"></trkpt>
   <trkpt lat="37.6096275" lon="127.0197978"></trkpt>
   <trkpt lat="37.6099968" lon="127.0195144"></trkpt>
   <trkpt lat="37.6100318" lon="127.0194814"></trkpt>
   <trkpt lat="37.6101423" lon="127.0193764"></trkpt>
   <trkpt lat="37.6102131" lon="127.0192887"></trkpt>
   <trkpt lat="37.6104121" lon="127.0190008"></trkpt>
   <trkpt lat="37.6105663" lon="127.0188004"></trkpt>
   <trkpt lat="37.6105932" lon="127.0187628"></trkpt>
   <trkpt lat="37.6105932" lon="127.0187628"></trkpt>
   <trkpt lat="37.6106466" lon="127.0188305"></trkpt>
   <trkpt lat="37.6107174" lon="127.0189456"></trkpt>
   <trkpt lat="37.6108651" lon="127.018914"></trkpt>
   <trkpt lat="37.6108651" lon="127.018914"></trkpt>
   <trkpt lat="37.6109439" lon="127.0194506"></trkpt>
   <trkpt lat="37.6109587" lon="127.0195513"></trkpt>
   <trkpt lat="37.6110747" lon="127.0203709"></trkpt>
   <trkpt lat="37.6112411" lon="127.0211833"></trkpt>
   <trkpt lat="37.611265" lon="127.0212897"></trkpt>
   <trkpt lat="37.611384" lon="127.0219472"></trkpt>
   <trkpt lat="37.6114031" lon="127.021989"></trkpt>
   <trkpt lat="37.6114357" lon="127.0220307"></trkpt>
   <trkpt lat="37.6114519" lon="127.0220419"></trkpt>
   <trkpt lat="37.6114691" lon="127.0220441"></trkpt>
   <trkpt lat="37.6114691" lon="127.0220441"></trkpt>
   <trkpt lat="37.6115258" lon="127.0220369"></trkpt>
   <trkpt lat="37.6118969" lon="127.02197"></trkpt>
   <trkpt lat="37.6120483" lon="127.0219667"></trkpt>
   <trkpt lat="37.6125522" lon="127.0219794"></trkpt>
   <trkpt lat="37.6129317" lon="127.0219928"></trkpt>
   <trkpt lat="37.6136123" lon="127.0220156"></trkpt>
   <trkpt lat="37.6137521" lon="127.0220249"></trkpt>
   <trkpt lat="37.6142695" lon="127.0220284"></trkpt>
   <trkpt lat="37.6142857" lon="127.0220249"></trkpt>
   <trkpt lat="37.6142857" lon="127.0220249"></trkpt>
   <trkpt lat="37.6143046" lon="127.0220101"></trkpt>
   <trkpt lat="37.6143499" lon="127.0216325"></trkpt>
   <trkpt lat="37.6143851" lon="127.021417"></trkpt>
   <trkpt lat="37.6144722" lon="127.0211275"></trkpt>
   <trkpt lat="37.6145958" lon="127.0209182"></trkpt>
   <trkpt lat="37.6146253" lon="127.0208557"></trkpt>
   <trkpt lat="37.6146367" lon="127.0207922"></trkpt>
   <trkpt lat="37.6146367" lon="127.0207922"></trkpt>
   <trkpt lat="37.6146755" lon="127.0208021"></trkpt>
   <trkpt lat="37.6147418" lon="127.0206997"></trkpt>
   <trkpt lat="37.6147418" lon="127.0206997"></trkpt>
   <trkpt lat="37.6148189" lon="127.0206052"></trkpt>
   <trkpt lat="37.615184" lon="127.0201598"></trkpt>
   <trkpt lat="37.6152261" lon="127.0201142"></trkpt>
   <trkpt lat="37.6152899" lon="127.0200447"></trkpt>
   <trkpt lat="37.6155465" lon="127.0197529"></trkpt>
   <trkpt lat="37.6156684" lon="127.0195947"></trkpt>
   <trkpt lat="37.6160593" lon="127.0190755"></trkpt>
   <trkpt lat="37.616147" lon="127.0189389"></trkpt>
   <trkpt lat="37.6161882" lon="127.0188752"></trkpt>
   <trkpt lat="37.6162725" lon="127.0187625"></trkpt>
   <trkpt lat="37.6165918" lon="127.0183638"></trkpt>
   <trkpt lat="37.6166464" lon="127.0182853"></trkpt>
   <trkpt lat="37.616667" lon="127.0182466"></trkpt>
   <trkpt lat="37.6166982" lon="127.018166"></trkpt>
   <trkpt lat="37.6166931" lon="127.0180289"></trkpt>
   <trkpt lat="37.6166756" lon="127.0179236"></trkpt>
   <trkpt lat="37.6166383" lon="127.0178355"></trkpt>
   <trkpt lat="37.6163484" lon="127.0174737"></trkpt>
   <trkpt lat="37.6162313" lon="127.0172931"></trkpt>
   <trkpt lat="37.6161806" lon="127.0172187"></trkpt>
   <trkpt lat="37.616164" lon="127.0171394"></trkpt>
   <trkpt lat="37.6161566" lon="127.0170942"></trkpt>
   <trkpt lat="37.6161546" lon="127.0170341"></trkpt>
   <trkpt lat="37.6161615" lon="127.0169684"></trkpt>
   <trkpt lat="37.616211" lon="127.0165125"></trkpt>
   <trkpt lat="37.6163653" lon="127.0158815"></trkpt>
   <trkpt lat="37.6164444" lon="127.0156113"></trkpt>
   <trkpt lat="37.6164764" lon="127.015508"></trkpt>
   <trkpt lat="37.6164862" lon="127.0154774"></trkpt>
   <trkpt lat="37.6165587" lon="127.0153489"></trkpt>
   <trkpt lat="37.6166252" lon="127.0153133"></trkpt>
   <trkpt lat="37.616754" lon="127.0152887"></trkpt>
   <trkpt lat="37.6171804" lon="127.0152972"></trkpt>
   <trkpt lat="37.6171804" lon="127.0152972"></trkpt>
   <trkpt lat="37.6171873" lon="127.0150139"></trkpt>
   <trkpt lat="37.6172153" lon="127.0143599"></trkpt>
   <trkpt lat="37.6172601" lon="127.013648"></trkpt>
   <trkpt lat="37.6173153" lon="127.0130267"></trkpt>
   <trkpt lat="37.6173153" lon="127.0130267"></trkpt>
   <trkpt lat="37.6178402" lon="127.0131049"></trkpt>
   <trkpt lat="37.6180583" lon="127.0131171"></trkpt>
   <trkpt lat="37.6183172" lon="127.0131505"></trkpt>
   <trkpt lat="37.6183172" lon="127.0131505"></trkpt>
   <trkpt lat="37.6182988" lon="127.0135166"></trkpt>
   <trkpt lat="37.6182988" lon="127.0135166"></trkpt>
   <trkpt lat="37.6183377" lon="127.0135402"></trkpt>
   <trkpt lat="37.6183765" lon="127.0135501"></trkpt>
   <trkpt lat="37.6184369" lon="127.0135565"></trkpt>
   <trkpt lat="37.6184369" lon="127.0135565"></trkpt>
   <trkpt lat="37.6184092" lon="127.0140473"></trkpt>
   <trkpt lat="37.6183849" lon="127.0144928"></trkpt>
   <trkpt lat="37.6183849" lon="127.0144928"></trkpt>
   <trkpt lat="37.6184092" lon="127.0140473"></trkpt>
   <trkpt lat="37.6184369" lon="127.0135565"></trkpt>
   <trkpt lat="37.6184369" lon="127.0135565"></trkpt>
   <trkpt lat="37.6183765" lon="127.0135501"></trkpt>
   <trkpt lat="37.6183377" lon="127.0135402"></trkpt>
   <trkpt lat="37.6182988" lon="127.0135166"></trkpt>
   <trkpt lat="37.6182988" lon="127.0135166"></trkpt>
   <trkpt lat="37.6183172" lon="127.0131505"></trkpt>
   <trkpt lat="37.6183172" lon="127.0131505"></trkpt>
   <trkpt lat="37.6180583" lon="127.0131171"></trkpt>
   <trkpt lat="37.6178402" lon="127.0131049"></trkpt>
   <trkpt lat="37.6173153" lon="127.0130267"></trkpt>
   <trkpt lat="37.6173153" lon="127.0130267"></trkpt>
   <trkpt lat="37.6172601" lon="127.013648"></trkpt>
   <trkpt lat="37.6172153" lon="127.0143599"></trkpt>
   <trkpt lat="37.6171873" lon="127.0150139"></trkpt>
   <trkpt lat="37.6171804" lon="127.0152972"></trkpt>
   <trkpt lat="37.6171804" lon="127.0152972"></trkpt>
   <trkpt lat="37.616754" lon="127.0152887"></trkpt>
   <trkpt lat="37.6166252" lon="127.0153133"></trkpt>
   <trkpt lat="37.6165587" lon="127.0153489"></trkpt>
   <trkpt lat="37.6164862" lon="127.0154774"></trkpt>
   <trkpt lat="37.6164764" lon="127.015508"></trkpt>
   <trkpt lat="37.6164444" lon="127.0156113"></trkpt>
   <trkpt lat="37.6163653" lon="127.0158815"></trkpt>
   <trkpt lat="37.616211" lon="127.0165125"></trkpt>
   <trkpt lat="37.6161615" lon="127.0169684"></trkpt>
   <trkpt lat="37.6161546" lon="127.0170341"></trkpt>
   <trkpt lat="37.6161566" lon="127.0170942"></trkpt>
   <trkpt lat="37.616164" lon="127.0171394"></trkpt>
   <trkpt lat="37.6161806" lon="127.0172187"></trkpt>
   <trkpt lat="37.6162313" lon="127.0172931"></trkpt>
   <trkpt lat="37.6163484" lon="127.0174737"></trkpt>
   <trkpt lat="37.6166383" lon="127.0178355"></trkpt>
   <trkpt lat="37.6166756" lon="127.0179236"></trkpt>
   <trkpt lat="37.6166931" lon="127.0180289"></trkpt>
   <trkpt lat="37.6166982" lon="127.018166"></trkpt>
   <trkpt lat="37.616667" lon="127.0182466"></trkpt>
   <trkpt lat="37.6166464" lon="127.0182853"></trkpt>
   <trkpt lat="37.6165918" lon="127.0183638"></trkpt>
   <trkpt lat="37.6162725" lon="127.0187625"></trkpt>
   <trkpt lat="37.6161882" lon="127.0188752"></trkpt>
   <trkpt lat="37.616147" lon="127.0189389"></trkpt>
   <trkpt lat="37.6160593" lon="127.0190755"></trkpt>
   <trkpt lat="37.6156684" lon="127.0195947"></trkpt>
   <trkpt lat="37.6155465" lon="127.0197529"></trkpt>
   <trkpt lat="37.6152899" lon="127.0200447"></trkpt>
   <trkpt lat="37.6152261" lon="127.0201142"></trkpt>
   <trkpt lat="37.615184" lon="127.0201598"></trkpt>
   <trkpt lat="37.6148189" lon="127.0206052"></trkpt>
   <trkpt lat="37.6147418" lon="127.0206997"></trkpt>
   <trkpt lat="37.6147418" lon="127.0206997"></trkpt>
   <trkpt lat="37.6146321" lon="127.0205429"></trkpt>
   <trkpt lat="37.6146085" lon="127.0205045"></trkpt>
   <trkpt lat="37.6145578" lon="127.0204561"></trkpt>
   <trkpt lat="37.6145154" lon="127.0204349"></trkpt>
   <trkpt lat="37.6143882" lon="127.0204187"></trkpt>
   <trkpt lat="37.6142954" lon="127.0204227"></trkpt>
   <trkpt lat="37.614236" lon="127.0204401"></trkpt>
   <trkpt lat="37.6142063" lon="127.0204629"></trkpt>
   <trkpt lat="37.6141714" lon="127.0205187"></trkpt>
   <trkpt lat="37.6141687" lon="127.0205244"></trkpt>
   <trkpt lat="37.6141687" lon="127.0205244"></trkpt>
   <trkpt lat="37.6141326" lon="127.0205019"></trkpt>
   <trkpt lat="37.6141182" lon="127.0204986"></trkpt>
   <trkpt lat="37.6140857" lon="127.0205011"></trkpt>
  </trkseg>
 </trk>
</gpx>
