<?xml version="1.0" encoding="UTF-8"?>
<gpx creator="daengrun-naver-route" version="1.1" xmlns="http://www.topografix.com/GPX/1/1" xmlns:xsi="http://www.w3.org/2001/XMLSchema-instance" xsi:schemaLocation="http://www.topografix.com/GPX/1/1 http://www.topografix.com/GPX/1/1/gpx.xsd">
 <metadata>
  <name>강남 일원진달래공원·일원장미공원 루프 2.32km</name>
  <desc>daengrun candidate geometry — measured 2.32km via Naver pedestrian router (o=flat, 계단회피). Elevation NOT available from this source. stairs=0 crosswalk=7 steppingstone=0 underpass=0 overpass=0</desc>
  <link href="naver:1daep1n"><text>daengrun route id</text></link>
  <copyright author="NAVER Corp."><license>https://map.naver.com/</license></copyright>
 </metadata>
 <trk>
  <name>강남 일원진달래공원·일원장미공원 루프 2.32km</name>
  <trkseg>
   <trkpt lat="37.4844511" lon="127.0884879"></trkpt>
   <trkpt lat="37.4844196" lon="127.0882494"></trkpt>
   <trkpt lat="37.484415" lon="127.0882099"></trkpt>
   <trkpt lat="37.484415" lon="127.0882099"></trkpt>
   <trkpt lat="37.4844447" lon="127.0881995"></trkpt>
   <trkpt lat="37.4845591" lon="127.0881774"></trkpt>
   <trkpt lat="37.4845591" lon="127.0881774"></trkpt>
   <trkpt lat="37.4845045" lon="127.0877773"></trkpt>
   <trkpt lat="37.4844537" lon="127.0874258"></trkpt>
   <trkpt lat="37.4843834" lon="127.0869138"></trkpt>
   <trkpt lat="37.4843254" lon="127.0865612"></trkpt>
   <trkpt lat="37.4843254" lon="127.0865612"></trkpt>
   <trkpt lat="37.4845569" lon="127.0865091"></trkpt>
   <trkpt lat="37.4845569" lon="127.0865091"></trkpt>
   <trkpt lat="37.484542" lon="127.0863813"></trkpt>
   <trkpt lat="37.484542" lon="127.0863813"></trkpt>
   <trkpt lat="37.4846897" lon="127.0863443"></trkpt>
   <trkpt lat="37.4846897" lon="127.0863443"></trkpt>
   <trkpt lat="37.4846685" lon="127.0862087"></trkpt>
   <trkpt lat="37.4846556" lon="127.0861262"></trkpt>
   <trkpt lat="37.4845881" lon="127.0856639"></trkpt>
   <trkpt lat="37.4845881" lon="127.0856639"></trkpt>
   <trkpt lat="37.4848205" lon="127.0856152"></trkpt>
   <trkpt lat="37.4848205" lon="127.0856152"></trkpt>
   <trkpt lat="37.4847818" lon="127.085371"></trkpt>
   <trkpt lat="37.4848023" lon="127.0853076"></trkpt>
   <trkpt lat="37.4848632" lon="127.0851794"></trkpt>
   <trkpt lat="37.4848225" lon="127.0846379"></trkpt>
   <trkpt lat="37.4848225" lon="127.0846379"></trkpt>
   <trkpt lat="37.4848083" lon="127.0844309"></trkpt>
   <trkpt lat="37.4848083" lon="127.0844309"></trkpt>
   <trkpt lat="37.4846597" lon="127.0844702"></trkpt>
   <trkpt lat="37.4846047" lon="127.084483"></trkpt>
   <trkpt lat="37.4846047" lon="127.084483"></trkpt>
   <trkpt lat="37.4845853" lon="127.0843473"></trkpt>
   <trkpt lat="37.4844974" lon="127.0837065"></trkpt>
   <trkpt lat="37.4844974" lon="127.0837065"></trkpt>
   <trkpt lat="37.4844029" lon="127.0837342"></trkpt>
   <trkpt lat="37.4844029" lon="127.0837342"></trkpt>
   <trkpt lat="37.4843498" lon="127.0837469"></trkpt>
   <trkpt lat="37.4841976" lon="127.0837839"></trkpt>
   <trkpt lat="37.4834536" lon="127.0839509"></trkpt>
   <trkpt lat="37.4834365" lon="127.0839624"></trkpt>
   <trkpt lat="37.4834365" lon="127.0839624"></trkpt>
   <trkpt lat="37.4831411" lon="127.0837706"></trkpt>
   <trkpt lat="37.4831411" lon="127.0837706"></trkpt>
   <trkpt lat="37.4831419" lon="127.0837479"></trkpt>
   <trkpt lat="37.4831409" lon="127.0837208"></trkpt>
   <trkpt lat="37.4828916" lon="127.0820176"></trkpt>
   <trkpt lat="37.4827768" lon="127.0811722"></trkpt>
   <trkpt lat="37.4826105" lon="127.0800353"></trkpt>
   <trkpt lat="37.4825969" lon="127.0800048"></trkpt>
   <trkpt lat="37.4825969" lon="127.0800048"></trkpt>
   <trkpt lat="37.4825698" lon="127.0800016"></trkpt>
   <trkpt lat="37.4817737" lon="127.0801859"></trkpt>
   <trkpt lat="37.4816792" lon="127.0802294"></trkpt>
   <trkpt lat="37.4815938" lon="127.0802887"></trkpt>
   <trkpt lat="37.4815938" lon="127.0802887"></trkpt>
   <trkpt lat="37.4815555" lon="127.0801634"></trkpt>
   <trkpt lat="37.4815555" lon="127.0801634"></trkpt>
   <trkpt lat="37.4814943" lon="127.0802044"></trkpt>
   <trkpt lat="37.4813504" lon="127.080298"></trkpt>
   <trkpt lat="37.481292" lon="127.0803402"></trkpt>
   <trkpt lat="37.4812102" lon="127.0803983"></trkpt>
   <trkpt lat="37.4810745" lon="127.0805257"></trkpt>
   <trkpt lat="37.4809705" lon="127.0806813"></trkpt>
   <trkpt lat="37.4809562" lon="127.0807164"></trkpt>
   <trkpt lat="37.4809562" lon="127.0807164"></trkpt>
   <trkpt lat="37.4809705" lon="127.0806813"></trkpt>
   <trkpt lat="37.4810745" lon="127.0805257"></trkpt>
   <trkpt lat="37.4812102" lon="127.0803983"></trkpt>
   <trkpt lat="37.481292" lon="127.0803402"></trkpt>
   <trkpt lat="37.4813504" lon="127.080298"></trkpt>
   <trkpt lat="37.4814943" lon="127.0802044"></trkpt>
   <trkpt lat="37.4815555" lon="127.0801634"></trkpt>
   <trkpt lat="37.4815555" lon="127.0801634"></trkpt>
   <trkpt lat="37.4815938" lon="127.0802887"></trkpt>
   <trkpt lat="37.4815938" lon="127.0802887"></trkpt>
   <trkpt lat="37.4816792" lon="127.0802294"></trkpt>
   <trkpt lat="37.4817737" lon="127.0801859"></trkpt>
   <trkpt lat="37.4825698" lon="127.0800016"></trkpt>
   <trkpt lat="37.4825969" lon="127.0800048"></trkpt>
   <trkpt lat="37.4825969" lon="127.0800048"></trkpt>
   <trkpt lat="37.4826105" lon="127.0800353"></trkpt>
   <trkpt lat="37.4827768" lon="127.0811722"></trkpt>
   <trkpt lat="37.4828916" lon="127.0820176"></trkpt>
   <trkpt lat="37.4831409" lon="127.0837208"></trkpt>
   <trkpt lat="37.4831419" lon="127.0837479"></trkpt>
   <trkpt lat="37.4831411" lon="127.0837706"></trkpt>
   <trkpt lat="37.4831322" lon="127.0837876"></trkpt>
   <trkpt lat="37.4831196" lon="127.0838035"></trkpt>
   <trkpt lat="37.4831196" lon="127.0838035"></trkpt>
   <trkpt lat="37.4831306" lon="127.0838679"></trkpt>
   <trkpt lat="37.4831454" lon="127.0839515"></trkpt>
   <trkpt lat="37.4831454" lon="127.0839515"></trkpt>
   <trkpt lat="37.4831571" lon="127.0839582"></trkpt>
   <trkpt lat="37.4831725" lon="127.0839683"></trkpt>
   <trkpt lat="37.4831806" lon="127.0839864"></trkpt>
   <trkpt lat="37.4831907" lon="127.0840237"></trkpt>
   <trkpt lat="37.4832968" lon="127.0847357"></trkpt>
   <trkpt lat="37.4833402" lon="127.0850227"></trkpt>
   <trkpt lat="37.4833735" lon="127.0852567"></trkpt>
   <trkpt lat="37.4834436" lon="127.0857302"></trkpt>
   <trkpt lat="37.4834714" lon="127.0859359"></trkpt>
   <trkpt lat="37.4835001" lon="127.086145"></trkpt>
   <trkpt lat="37.4835547" lon="127.0865451"></trkpt>
   <trkpt lat="37.4835458" lon="127.0865825"></trkpt>
   <trkpt lat="37.4835458" lon="127.0865825"></trkpt>
   <trkpt lat="37.4838103" lon="127.0866975"></trkpt>
   <trkpt lat="37.4838103" lon="127.0866975"></trkpt>
   <trkpt lat="37.4838059" lon="127.0867315"></trkpt>
   <trkpt lat="37.4839779" lon="127.0879623"></trkpt>
   <trkpt lat="37.4839779" lon="127.0879623"></trkpt>
   <trkpt lat="37.4840229" lon="127.0879553"></trkpt>
   <trkpt lat="37.4841769" lon="127.0879103"></trkpt>
   <trkpt lat="37.4842264" lon="127.087884"></trkpt>
   <trkpt lat="37.4843478" lon="127.0878291"></trkpt>
   <trkpt lat="37.4845045" lon="127.0877773"></trkpt>
   <trkpt lat="37.4845045" lon="127.0877773"></trkpt>
   <trkpt lat="37.4845591" lon="127.0881774"></trkpt>
   <trkpt lat="37.4845591" lon="127.0881774"></trkpt>
   <trkpt lat="37.4844447" lon="127.0881995"></trkpt>
   <trkpt lat="37.484415" lon="127.0882099"></trkpt>
   <trkpt lat="37.484415" lon="127.0882099"></trkpt>
   <trkpt lat="37.4844196" lon="127.0882494"></trkpt>
   <trkpt lat="37.4844511" lon="127.0884879"></trkpt>
  </trkseg>
 </trk>
</gpx>
