<?xml version="1.0" encoding="UTF-8"?>
<gpx creator="daengrun-naver-route" version="1.1" xmlns="http://www.topografix.com/GPX/1/1" xmlns:xsi="http://www.w3.org/2001/XMLSchema-instance" xsi:schemaLocation="http://www.topografix.com/GPX/1/1 http://www.topografix.com/GPX/1/1/gpx.xsd">
 <metadata>
  <name>강동 까치근린공원·암사근린공원 루프 2.31km</name>
  <desc>daengrun candidate geometry — measured 2.31km via Naver pedestrian router (o=flat, 계단회피). Elevation NOT available from this source. stairs=2 crosswalk=7 steppingstone=0 underpass=0 overpass=0</desc>
  <link href="naver:6zlnb3"><text>daengrun route id</text></link>
  <copyright author="NAVER Corp."><license>https://map.naver.com/</license></copyright>
 </metadata>
 <trk>
  <name>강동 까치근린공원·암사근린공원 루프 2.31km</name>
  <trkseg>
   <trkpt lat="37.5538005" lon="127.1441837"></trkpt>
   <trkpt lat="37.5540448" lon="127.1442165"></trkpt>
   <trkpt lat="37.5545444" lon="127.1442809"></trkpt>
   <trkpt lat="37.5545444" lon="127.1442809"></trkpt>
   <trkpt lat="37.5545438" lon="127.1443987"></trkpt>
   <trkpt lat="37.5545406" lon="127.1445323"></trkpt>
   <trkpt lat="37.5545406" lon="127.1445323"></trkpt>
   <trkpt lat="37.5545713" lon="127.1445514"></trkpt>
   <trkpt lat="37.5545939" lon="127.1445807"></trkpt>
   <trkpt lat="37.5546103" lon="127.144635"></trkpt>
   <trkpt lat="37.5546122" lon="127.1446621"></trkpt>
   <trkpt lat="37.5546014" lon="127.1461612"></trkpt>
   <trkpt lat="37.5546014" lon="127.1461612"></trkpt>
   <trkpt lat="37.5548159" lon="127.1461624"></trkpt>
   <trkpt lat="37.5548159" lon="127.1461624"></trkpt>
   <trkpt lat="37.5548001" lon="127.1478121"></trkpt>
   <trkpt lat="37.5547989" lon="127.1479921"></trkpt>
   <trkpt lat="37.5547906" lon="127.148856"></trkpt>
   <trkpt lat="37.5547906" lon="127.148856"></trkpt>
   <trkpt lat="37.5548006" lon="127.1488854"></trkpt>
   <trkpt lat="37.5548106" lon="127.1489034"></trkpt>
   <trkpt lat="37.5548196" lon="127.1489102"></trkpt>
   <trkpt lat="37.5548296" lon="127.1489192"></trkpt>
   <trkpt lat="37.5548413" lon="127.1489248"></trkpt>
   <trkpt lat="37.5548638" lon="127.1489247"></trkpt>
   <trkpt lat="37.5552784" lon="127.1489216"></trkpt>
   <trkpt lat="37.5561996" lon="127.1489094"></trkpt>
   <trkpt lat="37.5561996" lon="127.1489094"></trkpt>
   <trkpt lat="37.556198" lon="127.1489682"></trkpt>
   <trkpt lat="37.5561954" lon="127.1490317"></trkpt>
   <trkpt lat="37.5562072" lon="127.1490395"></trkpt>
   <trkpt lat="37.5562198" lon="127.1490531"></trkpt>
   <trkpt lat="37.5562262" lon="127.1490723"></trkpt>
   <trkpt lat="37.556229" lon="127.1490892"></trkpt>
   <trkpt lat="37.5562265" lon="127.1491696"></trkpt>
   <trkpt lat="37.5563193" lon="127.1491692"></trkpt>
   <trkpt lat="37.5563193" lon="127.1491692"></trkpt>
   <trkpt lat="37.5563197" lon="127.1492926"></trkpt>
   <trkpt lat="37.5563231" lon="127.1495349"></trkpt>
   <trkpt lat="37.5563545" lon="127.1497691"></trkpt>
   <trkpt lat="37.5564074" lon="127.1499828"></trkpt>
   <trkpt lat="37.5564515" lon="127.1499713"></trkpt>
   <trkpt lat="37.5564924" lon="127.1500753"></trkpt>
   <trkpt lat="37.5565746" lon="127.1501326"></trkpt>
   <trkpt lat="37.5566216" lon="127.1501754"></trkpt>
   <trkpt lat="37.5566542" lon="127.1502285"></trkpt>
   <trkpt lat="37.5566542" lon="127.1502285"></trkpt>
   <trkpt lat="37.5568348" lon="127.1500567"></trkpt>
   <trkpt lat="37.5568718" lon="127.150052"></trkpt>
   <trkpt lat="37.5569114" lon="127.1500496"></trkpt>
   <trkpt lat="37.5569114" lon="127.1500496"></trkpt>
   <trkpt lat="37.5570055" lon="127.1498419"></trkpt>
   <trkpt lat="37.5570421" lon="127.1497398"></trkpt>
   <trkpt lat="37.5570421" lon="127.1497398"></trkpt>
   <trkpt lat="37.5570055" lon="127.1498419"></trkpt>
   <trkpt lat="37.5569114" lon="127.1500496"></trkpt>
   <trkpt lat="37.5569114" lon="127.1500496"></trkpt>
   <trkpt lat="37.5568718" lon="127.150052"></trkpt>
   <trkpt lat="37.5568348" lon="127.1500567"></trkpt>
   <trkpt lat="37.5566542" lon="127.1502285"></trkpt>
   <trkpt lat="37.5566542" lon="127.1502285"></trkpt>
   <trkpt lat="37.5566216" lon="127.1501754"></trkpt>
   <trkpt lat="37.5565746" lon="127.1501326"></trkpt>
   <trkpt lat="37.5564924" lon="127.1500753"></trkpt>
   <trkpt lat="37.5564515" lon="127.1499713"></trkpt>
   <trkpt lat="37.5564074" lon="127.1499828"></trkpt>
   <trkpt lat="37.5563545" lon="127.1497691"></trkpt>
   <trkpt lat="37.5563231" lon="127.1495349"></trkpt>
   <trkpt lat="37.5563197" lon="127.1492926"></trkpt>
   <trkpt lat="37.5563193" lon="127.1491692"></trkpt>
   <trkpt lat="37.5563246" lon="127.1491171"></trkpt>
   <trkpt lat="37.5563308" lon="127.1490865"></trkpt>
   <trkpt lat="37.5563398" lon="127.1490616"></trkpt>
   <trkpt lat="37.5563532" lon="127.1490388"></trkpt>
   <trkpt lat="37.5563703" lon="127.1490218"></trkpt>
   <trkpt lat="37.5563883" lon="127.1490126"></trkpt>
   <trkpt lat="37.5564721" lon="127.1490055"></trkpt>
   <trkpt lat="37.5564721" lon="127.1490055"></trkpt>
   <trkpt lat="37.5564735" lon="127.1488832"></trkpt>
   <trkpt lat="37.5564735" lon="127.1488832"></trkpt>
   <trkpt lat="37.5564411" lon="127.1488833"></trkpt>
   <trkpt lat="37.5564266" lon="127.1488766"></trkpt>
   <trkpt lat="37.5564113" lon="127.148862"></trkpt>
   <trkpt lat="37.5564049" lon="127.1488461"></trkpt>
   <trkpt lat="37.5563958" lon="127.1488213"></trkpt>
   <trkpt lat="37.5563912" lon="127.1487952"></trkpt>
   <trkpt lat="37.5564089" lon="127.1480638"></trkpt>
   <trkpt lat="37.5564258" lon="127.1473957"></trkpt>
   <trkpt lat="37.5564567" lon="127.1468702"></trkpt>
   <trkpt lat="37.5564968" lon="127.1464307"></trkpt>
   <trkpt lat="37.5565038" lon="127.1463401"></trkpt>
   <trkpt lat="37.5565896" lon="127.1455064"></trkpt>
   <trkpt lat="37.5566498" lon="127.1448427"></trkpt>
   <trkpt lat="37.5566913" lon="127.1448493"></trkpt>
   <trkpt lat="37.5566913" lon="127.1448493"></trkpt>
   <trkpt lat="37.5567262" lon="127.1444698"></trkpt>
   <trkpt lat="37.5567262" lon="127.1444698"></trkpt>
   <trkpt lat="37.5568236" lon="127.1444727"></trkpt>
   <trkpt lat="37.5568266" lon="127.1442769"></trkpt>
   <trkpt lat="37.5568274" lon="127.1442644"></trkpt>
   <trkpt lat="37.5568485" lon="127.1437673"></trkpt>
   <trkpt lat="37.5568189" lon="127.1429352"></trkpt>
   <trkpt lat="37.5568052" lon="127.1425673"></trkpt>
   <trkpt lat="37.5567436" lon="127.1424601"></trkpt>
   <trkpt lat="37.556619" lon="127.1424029"></trkpt>
   <trkpt lat="37.5565081" lon="127.1423808"></trkpt>
   <trkpt lat="37.5564377" lon="127.1423698"></trkpt>
   <trkpt lat="37.5563445" lon="127.1422367"></trkpt>
   <trkpt lat="37.5563307" lon="127.1421541"></trkpt>
   <trkpt lat="37.5564852" lon="127.1419518"></trkpt>
   <trkpt lat="37.5564852" lon="127.1419518"></trkpt>
   <trkpt lat="37.5564843" lon="127.1419518"></trkpt>
   <trkpt lat="37.5564571" lon="127.1419146"></trkpt>
   <trkpt lat="37.5564341" lon="127.1417505"></trkpt>
   <trkpt lat="37.5564341" lon="127.1417505"></trkpt>
   <trkpt lat="37.5564503" lon="127.1417504"></trkpt>
   <trkpt lat="37.5564503" lon="127.1417504"></trkpt>
   <trkpt lat="37.5564341" lon="127.1417505"></trkpt>
   <trkpt lat="37.5557527" lon="127.1417572"></trkpt>
   <trkpt lat="37.5553804" lon="127.1417635"></trkpt>
   <trkpt lat="37.5548748" lon="127.1417682"></trkpt>
   <trkpt lat="37.554836" lon="127.1417672"></trkpt>
   <trkpt lat="37.554836" lon="127.1417672"></trkpt>
   <trkpt lat="37.5548306" lon="127.1420446"></trkpt>
   <trkpt lat="37.5548141" lon="127.1428576"></trkpt>
   <trkpt lat="37.5548712" lon="127.1429581"></trkpt>
   <trkpt lat="37.5548641" lon="127.1442001"></trkpt>
   <trkpt lat="37.5548641" lon="127.1442001"></trkpt>
   <trkpt lat="37.5547199" lon="127.1442076"></trkpt>
   <trkpt lat="37.5546127" lon="127.1442104"></trkpt>
   <trkpt lat="37.5546127" lon="127.1442104"></trkpt>
   <trkpt lat="37.5546028" lon="127.1442353"></trkpt>
   <trkpt lat="37.5545867" lon="127.1442615"></trkpt>
   <trkpt lat="37.5545444" lon="127.1442809"></trkpt>
   <trkpt lat="37.5540448" lon="127.1442165"></trkpt>
   <trkpt lat="37.5538005" lon="127.1441837"></trkpt>
  </trkseg>
 </trk>
</gpx>
