<?xml version="1.0" encoding="UTF-8"?>
<gpx creator="daengrun-naver-route" version="1.1" xmlns="http://www.topografix.com/GPX/1/1" xmlns:xsi="http://www.w3.org/2001/XMLSchema-instance" xsi:schemaLocation="http://www.topografix.com/GPX/1/1 http://www.topografix.com/GPX/1/1/gpx.xsd">
 <metadata>
  <name>강남 양재대로 생활권 루프 4.27km</name>
  <desc>daengrun candidate geometry — measured 4.27km via Naver pedestrian router (o=flat, 계단회피). Elevation NOT available from this source. stairs=0 crosswalk=5 steppingstone=0 underpass=0 overpass=0</desc>
  <link href="naver:1kuxyqj"><text>daengrun route id</text></link>
  <copyright author="NAVER Corp."><license>https://map.naver.com/</license></copyright>
 </metadata>
 <trk>
  <name>강남 양재대로 생활권 루프 4.27km</name>
  <trkseg>
   <trkpt lat="37.4836263" lon="127.0672867"></trkpt>
   <trkpt lat="37.4836096" lon="127.0673863"></trkpt>
   <trkpt lat="37.4836143" lon="127.0674417"></trkpt>
   <trkpt lat="37.4836486" lon="127.0674777"></trkpt>
   <trkpt lat="37.4836874" lon="127.0674832"></trkpt>
   <trkpt lat="37.483712" lon="127.0675385"></trkpt>
   <trkpt lat="37.4837507" lon="127.0677667"></trkpt>
   <trkpt lat="37.4837507" lon="127.0677667"></trkpt>
   <trkpt lat="37.4842958" lon="127.0674661"></trkpt>
   <trkpt lat="37.4849968" lon="127.0676521"></trkpt>
   <trkpt lat="37.4852369" lon="127.0677468"></trkpt>
   <trkpt lat="37.4853326" lon="127.0677859"></trkpt>
   <trkpt lat="37.4859138" lon="127.067485"></trkpt>
   <trkpt lat="37.485947" lon="127.0674509"></trkpt>
   <trkpt lat="37.4859604" lon="127.0674033"></trkpt>
   <trkpt lat="37.4859593" lon="127.0673671"></trkpt>
   <trkpt lat="37.4859502" lon="127.067322"></trkpt>
   <trkpt lat="37.4859502" lon="127.067322"></trkpt>
   <trkpt lat="37.4860715" lon="127.0672308"></trkpt>
   <trkpt lat="37.4860715" lon="127.0672308"></trkpt>
   <trkpt lat="37.4861096" lon="127.0673007"></trkpt>
   <trkpt lat="37.486144" lon="127.0673254"></trkpt>
   <trkpt lat="37.4861827" lon="127.0673217"></trkpt>
   <trkpt lat="37.486225" lon="127.0672989"></trkpt>
   <trkpt lat="37.486539" lon="127.0671387"></trkpt>
   <trkpt lat="37.4869466" lon="127.0669429"></trkpt>
   <trkpt lat="37.487158" lon="127.0668433"></trkpt>
   <trkpt lat="37.487858" lon="127.0664909"></trkpt>
   <trkpt lat="37.4880289" lon="127.0664016"></trkpt>
   <trkpt lat="37.488298" lon="127.0662711"></trkpt>
   <trkpt lat="37.4886623" lon="127.0660801"></trkpt>
   <trkpt lat="37.4888548" lon="127.0659783"></trkpt>
   <trkpt lat="37.4889097" lon="127.0659373"></trkpt>
   <trkpt lat="37.4889401" lon="127.0658953"></trkpt>
   <trkpt lat="37.4889401" lon="127.0658953"></trkpt>
   <trkpt lat="37.4889473" lon="127.0658726"></trkpt>
   <trkpt lat="37.4889544" lon="127.0658431"></trkpt>
   <trkpt lat="37.488957" lon="127.0658228"></trkpt>
   <trkpt lat="37.4889596" lon="127.06579"></trkpt>
   <trkpt lat="37.4886497" lon="127.0648495"></trkpt>
   <trkpt lat="37.4885458" lon="127.0645401"></trkpt>
   <trkpt lat="37.4884911" lon="127.0643674"></trkpt>
   <trkpt lat="37.4884053" lon="127.0640964"></trkpt>
   <trkpt lat="37.4882987" lon="127.0637894"></trkpt>
   <trkpt lat="37.4882596" lon="127.0636991"></trkpt>
   <trkpt lat="37.488188" lon="127.0635683"></trkpt>
   <trkpt lat="37.4881018" lon="127.0634387"></trkpt>
   <trkpt lat="37.4876118" lon="127.0627764"></trkpt>
   <trkpt lat="37.4873826" lon="127.0624724"></trkpt>
   <trkpt lat="37.4873826" lon="127.0624724"></trkpt>
   <trkpt lat="37.4871809" lon="127.0622914"></trkpt>
   <trkpt lat="37.4871411" lon="127.0622555"></trkpt>
   <trkpt lat="37.4870444" lon="127.0621701"></trkpt>
   <trkpt lat="37.4870199" lon="127.0621498"></trkpt>
   <trkpt lat="37.4870199" lon="127.0621498"></trkpt>
   <trkpt lat="37.4868915" lon="127.0622614"></trkpt>
   <trkpt lat="37.4868915" lon="127.0622614"></trkpt>
   <trkpt lat="37.486935" lon="127.0623279"></trkpt>
   <trkpt lat="37.4870075" lon="127.0624372"></trkpt>
   <trkpt lat="37.4870325" lon="127.0626249"></trkpt>
   <trkpt lat="37.4870246" lon="127.0626747"></trkpt>
   <trkpt lat="37.4870076" lon="127.0627121"></trkpt>
   <trkpt lat="37.4861243" lon="127.0636991"></trkpt>
   <trkpt lat="37.4861081" lon="127.0639367"></trkpt>
   <trkpt lat="37.4860826" lon="127.0641122"></trkpt>
   <trkpt lat="37.4860414" lon="127.0641995"></trkpt>
   <trkpt lat="37.4856607" lon="127.0645931"></trkpt>
   <trkpt lat="37.4856607" lon="127.0645931"></trkpt>
   <trkpt lat="37.4860414" lon="127.0641995"></trkpt>
   <trkpt lat="37.4860826" lon="127.0641122"></trkpt>
   <trkpt lat="37.4861081" lon="127.0639367"></trkpt>
   <trkpt lat="37.4861243" lon="127.0636991"></trkpt>
   <trkpt lat="37.4870076" lon="127.0627121"></trkpt>
   <trkpt lat="37.4870246" lon="127.0626747"></trkpt>
   <trkpt lat="37.4870325" lon="127.0626249"></trkpt>
   <trkpt lat="37.4870075" lon="127.0624372"></trkpt>
   <trkpt lat="37.486935" lon="127.0623279"></trkpt>
   <trkpt lat="37.4868915" lon="127.0622614"></trkpt>
   <trkpt lat="37.4868915" lon="127.0622614"></trkpt>
   <trkpt lat="37.4870199" lon="127.0621498"></trkpt>
   <trkpt lat="37.4870199" lon="127.0621498"></trkpt>
   <trkpt lat="37.4870444" lon="127.0621701"></trkpt>
   <trkpt lat="37.4871411" lon="127.0622555"></trkpt>
   <trkpt lat="37.4871809" lon="127.0622914"></trkpt>
   <trkpt lat="37.4873826" lon="127.0624724"></trkpt>
   <trkpt lat="37.4873826" lon="127.0624724"></trkpt>
   <trkpt lat="37.4876118" lon="127.0627764"></trkpt>
   <trkpt lat="37.4881018" lon="127.0634387"></trkpt>
   <trkpt lat="37.488188" lon="127.0635683"></trkpt>
   <trkpt lat="37.4882596" lon="127.0636991"></trkpt>
   <trkpt lat="37.4882987" lon="127.0637894"></trkpt>
   <trkpt lat="37.4884053" lon="127.0640964"></trkpt>
   <trkpt lat="37.4884911" lon="127.0643674"></trkpt>
   <trkpt lat="37.4885458" lon="127.0645401"></trkpt>
   <trkpt lat="37.4886497" lon="127.0648495"></trkpt>
   <trkpt lat="37.4889596" lon="127.06579"></trkpt>
   <trkpt lat="37.4889596" lon="127.06579"></trkpt>
   <trkpt lat="37.488957" lon="127.0658228"></trkpt>
   <trkpt lat="37.4889544" lon="127.0658431"></trkpt>
   <trkpt lat="37.4889473" lon="127.0658726"></trkpt>
   <trkpt lat="37.4889401" lon="127.0658953"></trkpt>
   <trkpt lat="37.4889097" lon="127.0659373"></trkpt>
   <trkpt lat="37.4888548" lon="127.0659783"></trkpt>
   <trkpt lat="37.4886623" lon="127.0660801"></trkpt>
   <trkpt lat="37.488298" lon="127.0662711"></trkpt>
   <trkpt lat="37.4880289" lon="127.0664016"></trkpt>
   <trkpt lat="37.487858" lon="127.0664909"></trkpt>
   <trkpt lat="37.487158" lon="127.0668433"></trkpt>
   <trkpt lat="37.4869466" lon="127.0669429"></trkpt>
   <trkpt lat="37.486539" lon="127.0671387"></trkpt>
   <trkpt lat="37.486225" lon="127.0672989"></trkpt>
   <trkpt lat="37.4861827" lon="127.0673217"></trkpt>
   <trkpt lat="37.486144" lon="127.0673254"></trkpt>
   <trkpt lat="37.486144" lon="127.0673254"></trkpt>
   <trkpt lat="37.4861301" lon="127.0677247"></trkpt>
   <trkpt lat="37.4861301" lon="127.0677247"></trkpt>
   <trkpt lat="37.486159" lon="127.0677506"></trkpt>
   <trkpt lat="37.4861817" lon="127.0677934"></trkpt>
   <trkpt lat="37.4861964" lon="127.0678533"></trkpt>
   <trkpt lat="37.4862082" lon="127.0678906"></trkpt>
   <trkpt lat="37.4864007" lon="127.068524"></trkpt>
   <trkpt lat="37.4864162" lon="127.068576"></trkpt>
   <trkpt lat="37.4864436" lon="127.0686686"></trkpt>
   <trkpt lat="37.4865065" lon="127.068856"></trkpt>
   <trkpt lat="37.4865256" lon="127.0689124"></trkpt>
   <trkpt lat="37.4865621" lon="127.0690174"></trkpt>
   <trkpt lat="37.4865821" lon="127.069075"></trkpt>
   <trkpt lat="37.4866167" lon="127.06918"></trkpt>
   <trkpt lat="37.4866596" lon="127.0693064"></trkpt>
   <trkpt lat="37.486717" lon="127.0694791"></trkpt>
   <trkpt lat="37.4868154" lon="127.0697704"></trkpt>
   <trkpt lat="37.4868391" lon="127.0698461"></trkpt>
   <trkpt lat="37.4868865" lon="127.0700008"></trkpt>
   <trkpt lat="37.4869239" lon="127.0701204"></trkpt>
   <trkpt lat="37.4869586" lon="127.0702334"></trkpt>
   <trkpt lat="37.4870243" lon="127.0704456"></trkpt>
   <trkpt lat="37.4870243" lon="127.0704456"></trkpt>
   <trkpt lat="37.4869199" lon="127.0704937"></trkpt>
   <trkpt lat="37.48673" lon="127.0705808"></trkpt>
   <trkpt lat="37.48673" lon="127.0705808"></trkpt>
   <trkpt lat="37.4867063" lon="127.0705018"></trkpt>
   <trkpt lat="37.4866835" lon="127.0704204"></trkpt>
   <trkpt lat="37.4866672" lon="127.0704047"></trkpt>
   <trkpt lat="37.4866456" lon="127.0704105"></trkpt>
   <trkpt lat="37.4862335" lon="127.0706119"></trkpt>
   <trkpt lat="37.4862335" lon="127.0706119"></trkpt>
   <trkpt lat="37.4866456" lon="127.0704105"></trkpt>
   <trkpt lat="37.4866672" lon="127.0704047"></trkpt>
   <trkpt lat="37.4866835" lon="127.0704204"></trkpt>
   <trkpt lat="37.4867063" lon="127.0705018"></trkpt>
   <trkpt lat="37.48673" lon="127.0705808"></trkpt>
   <trkpt lat="37.48673" lon="127.0705808"></trkpt>
   <trkpt lat="37.4869199" lon="127.0704937"></trkpt>
   <trkpt lat="37.4870243" lon="127.0704456"></trkpt>
   <trkpt lat="37.4870243" lon="127.0704456"></trkpt>
   <trkpt lat="37.4869586" lon="127.0702334"></trkpt>
   <trkpt lat="37.4869239" lon="127.0701204"></trkpt>
   <trkpt lat="37.4868865" lon="127.0700008"></trkpt>
   <trkpt lat="37.4868391" lon="127.0698461"></trkpt>
   <trkpt lat="37.4868154" lon="127.0697704"></trkpt>
   <trkpt lat="37.486717" lon="127.0694791"></trkpt>
   <trkpt lat="37.4866596" lon="127.0693064"></trkpt>
   <trkpt lat="37.4866167" lon="127.06918"></trkpt>
   <trkpt lat="37.4865821" lon="127.069075"></trkpt>
   <trkpt lat="37.4865621" lon="127.0690174"></trkpt>
   <trkpt lat="37.4865256" lon="127.0689124"></trkpt>
   <trkpt lat="37.4865065" lon="127.068856"></trkpt>
   <trkpt lat="37.4864436" lon="127.0686686"></trkpt>
   <trkpt lat="37.4864162" lon="127.068576"></trkpt>
   <trkpt lat="37.4864007" lon="127.068524"></trkpt>
   <trkpt lat="37.4862082" lon="127.0678906"></trkpt>
   <trkpt lat="37.4861964" lon="127.0678533"></trkpt>
   <trkpt lat="37.4861817" lon="127.0677934"></trkpt>
   <trkpt lat="37.486159" lon="127.0677506"></trkpt>
   <trkpt lat="37.4861301" lon="127.0677247"></trkpt>
   <trkpt lat="37.4861301" lon="127.0677247"></trkpt>
   <trkpt lat="37.4860941" lon="127.0677306"></trkpt>
   <trkpt lat="37.4860023" lon="127.0677764"></trkpt>
   <trkpt lat="37.4859123" lon="127.0678221"></trkpt>
   <trkpt lat="37.4849983" lon="127.0682912"></trkpt>
   <trkpt lat="37.4844891" lon="127.0685701"></trkpt>
   <trkpt lat="37.4843425" lon="127.0686625"></trkpt>
   <trkpt lat="37.4841987" lon="127.0687697"></trkpt>
   <trkpt lat="37.4841475" lon="127.0688096"></trkpt>
   <trkpt lat="37.4841133" lon="127.0688358"></trkpt>
   <trkpt lat="37.4838222" lon="127.0690919"></trkpt>
   <trkpt lat="37.48378" lon="127.0691374"></trkpt>
   <trkpt lat="37.4833365" lon="127.0696128"></trkpt>
   <trkpt lat="37.4828786" lon="127.070104"></trkpt>
   <trkpt lat="37.4828786" lon="127.070104"></trkpt>
   <trkpt lat="37.4824872" lon="127.0705576"></trkpt>
   <trkpt lat="37.4824872" lon="127.0705576"></trkpt>
   <trkpt lat="37.4827971" lon="127.0710003"></trkpt>
   <trkpt lat="37.4827971" lon="127.0710003"></trkpt>
   <trkpt lat="37.4824872" lon="127.0705576"></trkpt>
   <trkpt lat="37.4824872" lon="127.0705576"></trkpt>
   <trkpt lat="37.4828786" lon="127.070104"></trkpt>
   <trkpt lat="37.4827038" lon="127.0698935"></trkpt>
   <trkpt lat="37.4827038" lon="127.0698935"></trkpt>
   <trkpt lat="37.4828251" lon="127.0697763"></trkpt>
   <trkpt lat="37.4830738" lon="127.0695034"></trkpt>
   <trkpt lat="37.48359" lon="127.0689338"></trkpt>
   <trkpt lat="37.4838379" lon="127.0686982"></trkpt>
   <trkpt lat="37.4840157" lon="127.0685287"></trkpt>
   <trkpt lat="37.4840643" lon="127.0684843"></trkpt>
   <trkpt lat="37.4841245" lon="127.0684342"></trkpt>
   <trkpt lat="37.4841874" lon="127.0683965"></trkpt>
   <trkpt lat="37.4841874" lon="127.0683965"></trkpt>
   <trkpt lat="37.4841617" lon="127.0682688"></trkpt>
   <trkpt lat="37.4841406" lon="127.0681626"></trkpt>
   <trkpt lat="37.4841402" lon="127.0680472"></trkpt>
   <trkpt lat="37.4841496" lon="127.0679194"></trkpt>
   <trkpt lat="37.4841825" lon="127.0677914"></trkpt>
   <trkpt lat="37.4842958" lon="127.0674661"></trkpt>
   <trkpt lat="37.4842958" lon="127.0674661"></trkpt>
   <trkpt lat="37.4837507" lon="127.0677667"></trkpt>
   <trkpt lat="37.4837507" lon="127.0677667"></trkpt>
   <trkpt lat="37.483712" lon="127.0675385"></trkpt>
   <trkpt lat="37.4836874" lon="127.0674832"></trkpt>
   <trkpt lat="37.4836486" lon="127.0674777"></trkpt>
   <trkpt lat="37.4836143" lon="127.0674417"></trkpt>
   <trkpt lat="37.4836096" lon="127.0673863"></trkpt>
   <trkpt lat="37.4836263" lon="127.0672867"></trkpt>
  </trkseg>
 </trk>
</gpx>
