<?xml version="1.0" encoding="UTF-8"?>
<gpx creator="daengrun-naver-route" version="1.1" xmlns="http://www.topografix.com/GPX/1/1" xmlns:xsi="http://www.w3.org/2001/XMLSchema-instance" xsi:schemaLocation="http://www.topografix.com/GPX/1/1 http://www.topografix.com/GPX/1/1/gpx.xsd">
 <metadata>
  <name>강남 삼성은행나무공원·삼성목련공원 루프 2.9km</name>
  <desc>daengrun candidate geometry — measured 2.90km via Naver pedestrian router (o=flat, 계단회피). Elevation NOT available from this source. stairs=0 crosswalk=4 steppingstone=0 underpass=0 overpass=0</desc>
  <link href="naver:1cv4faf"><text>daengrun route id</text></link>
  <copyright author="NAVER Corp."><license>https://map.naver.com/</license></copyright>
 </metadata>
 <trk>
  <name>강남 삼성은행나무공원·삼성목련공원 루프 2.9km</name>
  <trkseg>
   <trkpt lat="37.5177464" lon="127.0487306"></trkpt>
   <trkpt lat="37.517668" lon="127.0487514"></trkpt>
   <trkpt lat="37.517668" lon="127.0487514"></trkpt>
   <trkpt lat="37.5175999" lon="127.0483739"></trkpt>
   <trkpt lat="37.5175741" lon="127.0482246"></trkpt>
   <trkpt lat="37.5175741" lon="127.0482246"></trkpt>
   <trkpt lat="37.5179396" lon="127.0481161"></trkpt>
   <trkpt lat="37.5182926" lon="127.0480223"></trkpt>
   <trkpt lat="37.5182926" lon="127.0480223"></trkpt>
   <trkpt lat="37.5182669" lon="127.0478968"></trkpt>
   <trkpt lat="37.5182226" lon="127.0476493"></trkpt>
   <trkpt lat="37.51816" lon="127.0473045"></trkpt>
   <trkpt lat="37.5180474" lon="127.0466138"></trkpt>
   <trkpt lat="37.5180382" lon="127.046572"></trkpt>
   <trkpt lat="37.5180382" lon="127.046572"></trkpt>
   <trkpt lat="37.5175367" lon="127.0467063"></trkpt>
   <trkpt lat="37.5170019" lon="127.0468566"></trkpt>
   <trkpt lat="37.5169046" lon="127.0468843"></trkpt>
   <trkpt lat="37.5167642" lon="127.0469237"></trkpt>
   <trkpt lat="37.5167642" lon="127.0469237"></trkpt>
   <trkpt lat="37.5167467" lon="127.0468299"></trkpt>
   <trkpt lat="37.5167274" lon="127.046736"></trkpt>
   <trkpt lat="37.5167274" lon="127.046736"></trkpt>
   <trkpt lat="37.5168309" lon="127.046706"></trkpt>
   <trkpt lat="37.5166733" lon="127.0457904"></trkpt>
   <trkpt lat="37.5166346" lon="127.0455869"></trkpt>
   <trkpt lat="37.5166282" lon="127.0455406"></trkpt>
   <trkpt lat="37.5166181" lon="127.0455135"></trkpt>
   <trkpt lat="37.5166091" lon="127.0455033"></trkpt>
   <trkpt lat="37.5166091" lon="127.0455033"></trkpt>
   <trkpt lat="37.5165964" lon="127.0454977"></trkpt>
   <trkpt lat="37.5165802" lon="127.0454978"></trkpt>
   <trkpt lat="37.5165505" lon="127.0455014"></trkpt>
   <trkpt lat="37.5164622" lon="127.0455144"></trkpt>
   <trkpt lat="37.5164622" lon="127.0455144"></trkpt>
   <trkpt lat="37.5164659" lon="127.0455404"></trkpt>
   <trkpt lat="37.5165055" lon="127.0457586"></trkpt>
   <trkpt lat="37.5165344" lon="127.0457674"></trkpt>
   <trkpt lat="37.5165344" lon="127.0457674"></trkpt>
   <trkpt lat="37.5165055" lon="127.0457586"></trkpt>
   <trkpt lat="37.5164659" lon="127.0455404"></trkpt>
   <trkpt lat="37.5164622" lon="127.0455144"></trkpt>
   <trkpt lat="37.5164622" lon="127.0455144"></trkpt>
   <trkpt lat="37.5165505" lon="127.0455014"></trkpt>
   <trkpt lat="37.5165802" lon="127.0454978"></trkpt>
   <trkpt lat="37.5165964" lon="127.0454977"></trkpt>
   <trkpt lat="37.5166091" lon="127.0455033"></trkpt>
   <trkpt lat="37.5166091" lon="127.0455033"></trkpt>
   <trkpt lat="37.5166181" lon="127.0455135"></trkpt>
   <trkpt lat="37.5166282" lon="127.0455406"></trkpt>
   <trkpt lat="37.5166346" lon="127.0455869"></trkpt>
   <trkpt lat="37.5166733" lon="127.0457904"></trkpt>
   <trkpt lat="37.5168309" lon="127.046706"></trkpt>
   <trkpt lat="37.5167274" lon="127.046736"></trkpt>
   <trkpt lat="37.5167274" lon="127.046736"></trkpt>
   <trkpt lat="37.5167467" lon="127.0468299"></trkpt>
   <trkpt lat="37.5167642" lon="127.0469237"></trkpt>
   <trkpt lat="37.5167642" lon="127.0469237"></trkpt>
   <trkpt lat="37.5169046" lon="127.0468843"></trkpt>
   <trkpt lat="37.5170019" lon="127.0468566"></trkpt>
   <trkpt lat="37.5175367" lon="127.0467063"></trkpt>
   <trkpt lat="37.5180382" lon="127.046572"></trkpt>
   <trkpt lat="37.5180382" lon="127.046572"></trkpt>
   <trkpt lat="37.5180474" lon="127.0466138"></trkpt>
   <trkpt lat="37.51816" lon="127.0473045"></trkpt>
   <trkpt lat="37.5182226" lon="127.0476493"></trkpt>
   <trkpt lat="37.5182669" lon="127.0478968"></trkpt>
   <trkpt lat="37.5182926" lon="127.0480223"></trkpt>
   <trkpt lat="37.5184539" lon="127.0489549"></trkpt>
   <trkpt lat="37.5186032" lon="127.0498197"></trkpt>
   <trkpt lat="37.5186475" lon="127.0500797"></trkpt>
   <trkpt lat="37.5186457" lon="127.0501023"></trkpt>
   <trkpt lat="37.518644" lon="127.0501148"></trkpt>
   <trkpt lat="37.5186377" lon="127.0501307"></trkpt>
   <trkpt lat="37.5186225" lon="127.0501511"></trkpt>
   <trkpt lat="37.5186036" lon="127.0501671"></trkpt>
   <trkpt lat="37.5185748" lon="127.0501865"></trkpt>
   <trkpt lat="37.5185748" lon="127.0501865"></trkpt>
   <trkpt lat="37.5186124" lon="127.0503458"></trkpt>
   <trkpt lat="37.5186518" lon="127.0505187"></trkpt>
   <trkpt lat="37.5186518" lon="127.0505187"></trkpt>
   <trkpt lat="37.5186807" lon="127.0505152"></trkpt>
   <trkpt lat="37.5186969" lon="127.0505173"></trkpt>
   <trkpt lat="37.5187131" lon="127.0505252"></trkpt>
   <trkpt lat="37.5187267" lon="127.0505409"></trkpt>
   <trkpt lat="37.5187385" lon="127.0505567"></trkpt>
   <trkpt lat="37.5187494" lon="127.0505838"></trkpt>
   <trkpt lat="37.5188599" lon="127.0511931"></trkpt>
   <trkpt lat="37.5188783" lon="127.0512937"></trkpt>
   <trkpt lat="37.5189253" lon="127.0515537"></trkpt>
   <trkpt lat="37.5189326" lon="127.0515977"></trkpt>
   <trkpt lat="37.5189437" lon="127.0516701"></trkpt>
   <trkpt lat="37.5190339" lon="127.0521652"></trkpt>
   <trkpt lat="37.5190992" lon="127.0524885"></trkpt>
   <trkpt lat="37.5191278" lon="127.052658"></trkpt>
   <trkpt lat="37.5192341" lon="127.0531418"></trkpt>
   <trkpt lat="37.5193022" lon="127.0535137"></trkpt>
   <trkpt lat="37.5195611" lon="127.0549991"></trkpt>
   <trkpt lat="37.51963" lon="127.0553336"></trkpt>
   <trkpt lat="37.51963" lon="127.0553336"></trkpt>
   <trkpt lat="37.5192325" lon="127.0548494"></trkpt>
   <trkpt lat="37.518791" lon="127.0544118"></trkpt>
   <trkpt lat="37.518791" lon="127.0544118"></trkpt>
   <trkpt lat="37.5188098" lon="127.0543834"></trkpt>
   <trkpt lat="37.5187929" lon="127.054216"></trkpt>
   <trkpt lat="37.5186372" lon="127.0540359"></trkpt>
   <trkpt lat="37.5185449" lon="127.0539391"></trkpt>
   <trkpt lat="37.5185449" lon="127.0539391"></trkpt>
   <trkpt lat="37.5186372" lon="127.0540359"></trkpt>
   <trkpt lat="37.5187929" lon="127.054216"></trkpt>
   <trkpt lat="37.5188098" lon="127.0543834"></trkpt>
   <trkpt lat="37.518791" lon="127.0544118"></trkpt>
   <trkpt lat="37.518791" lon="127.0544118"></trkpt>
   <trkpt lat="37.5192325" lon="127.0548494"></trkpt>
   <trkpt lat="37.51963" lon="127.0553336"></trkpt>
   <trkpt lat="37.51963" lon="127.0553336"></trkpt>
   <trkpt lat="37.5195611" lon="127.0549991"></trkpt>
   <trkpt lat="37.5193022" lon="127.0535137"></trkpt>
   <trkpt lat="37.5192341" lon="127.0531418"></trkpt>
   <trkpt lat="37.5191278" lon="127.052658"></trkpt>
   <trkpt lat="37.5190992" lon="127.0524885"></trkpt>
   <trkpt lat="37.5190339" lon="127.0521652"></trkpt>
   <trkpt lat="37.5189437" lon="127.0516701"></trkpt>
   <trkpt lat="37.5189326" lon="127.0515977"></trkpt>
   <trkpt lat="37.5189253" lon="127.0515537"></trkpt>
   <trkpt lat="37.5188783" lon="127.0512937"></trkpt>
   <trkpt lat="37.5188599" lon="127.0511931"></trkpt>
   <trkpt lat="37.5187494" lon="127.0505838"></trkpt>
   <trkpt lat="37.5187385" lon="127.0505567"></trkpt>
   <trkpt lat="37.5187267" lon="127.0505409"></trkpt>
   <trkpt lat="37.5187131" lon="127.0505252"></trkpt>
   <trkpt lat="37.5186969" lon="127.0505173"></trkpt>
   <trkpt lat="37.5186807" lon="127.0505152"></trkpt>
   <trkpt lat="37.5186518" lon="127.0505187"></trkpt>
   <trkpt lat="37.5186518" lon="127.0505187"></trkpt>
   <trkpt lat="37.5186124" lon="127.0503458"></trkpt>
   <trkpt lat="37.5185748" lon="127.0501865"></trkpt>
   <trkpt lat="37.5185748" lon="127.0501865"></trkpt>
   <trkpt lat="37.5186036" lon="127.0501671"></trkpt>
   <trkpt lat="37.5186225" lon="127.0501511"></trkpt>
   <trkpt lat="37.5186377" lon="127.0501307"></trkpt>
   <trkpt lat="37.518644" lon="127.0501148"></trkpt>
   <trkpt lat="37.5186457" lon="127.0501023"></trkpt>
   <trkpt lat="37.5186475" lon="127.0500797"></trkpt>
   <trkpt lat="37.5186032" lon="127.0498197"></trkpt>
   <trkpt lat="37.5184539" lon="127.0489549"></trkpt>
   <trkpt lat="37.5182926" lon="127.0480223"></trkpt>
   <trkpt lat="37.5182926" lon="127.0480223"></trkpt>
   <trkpt lat="37.5179396" lon="127.0481161"></trkpt>
   <trkpt lat="37.5175741" lon="127.0482246"></trkpt>
   <trkpt lat="37.5175741" lon="127.0482246"></trkpt>
   <trkpt lat="37.5175999" lon="127.0483739"></trkpt>
   <trkpt lat="37.517668" lon="127.0487514"></trkpt>
   <trkpt lat="37.517668" lon="127.0487514"></trkpt>
   <trkpt lat="37.5177464" lon="127.0487306"></trkpt>
  </trkseg>
 </trk>
</gpx>
