<?xml version="1.0" encoding="UTF-8"?>
<gpx creator="daengrun-naver-route" version="1.1" xmlns="http://www.topografix.com/GPX/1/1" xmlns:xsi="http://www.w3.org/2001/XMLSchema-instance" xsi:schemaLocation="http://www.topografix.com/GPX/1/1 http://www.topografix.com/GPX/1/1/gpx.xsd">
 <metadata>
  <name>강남 까치공원·대치근린공원 루프 3.29km</name>
  <desc>daengrun candidate geometry — measured 3.29km via Naver pedestrian router (o=flat, 계단회피). Elevation NOT available from this source. stairs=2 crosswalk=6 steppingstone=0 underpass=0 overpass=0</desc>
  <link href="naver:ei2zq5"><text>daengrun route id</text></link>
  <copyright author="NAVER Corp."><license>https://map.naver.com/</license></copyright>
 </metadata>
 <trk>
  <name>강남 까치공원·대치근린공원 루프 3.29km</name>
  <trkseg>
   <trkpt lat="37.4985623" lon="127.0622669"></trkpt>
   <trkpt lat="37.4984009" lon="127.0617587"></trkpt>
   <trkpt lat="37.4984009" lon="127.0617587"></trkpt>
   <trkpt lat="37.4984396" lon="127.0617415"></trkpt>
   <trkpt lat="37.4984863" lon="127.0617118"></trkpt>
   <trkpt lat="37.4984863" lon="127.0617118"></trkpt>
   <trkpt lat="37.4983788" lon="127.0613832"></trkpt>
   <trkpt lat="37.4983788" lon="127.0613832"></trkpt>
   <trkpt lat="37.4987764" lon="127.0611795"></trkpt>
   <trkpt lat="37.4987764" lon="127.0611795"></trkpt>
   <trkpt lat="37.4987153" lon="127.0609797"></trkpt>
   <trkpt lat="37.498667" lon="127.0608442"></trkpt>
   <trkpt lat="37.498667" lon="127.0608442"></trkpt>
   <trkpt lat="37.4986777" lon="127.0608192"></trkpt>
   <trkpt lat="37.4986839" lon="127.0607954"></trkpt>
   <trkpt lat="37.4986829" lon="127.0607694"></trkpt>
   <trkpt lat="37.4986828" lon="127.0607355"></trkpt>
   <trkpt lat="37.4981712" lon="127.0591331"></trkpt>
   <trkpt lat="37.498131" lon="127.0590055"></trkpt>
   <trkpt lat="37.498131" lon="127.0590055"></trkpt>
   <trkpt lat="37.4976982" lon="127.0592072"></trkpt>
   <trkpt lat="37.4974194" lon="127.0593559"></trkpt>
   <trkpt lat="37.4972188" lon="127.0594634"></trkpt>
   <trkpt lat="37.4971693" lon="127.0594897"></trkpt>
   <trkpt lat="37.4971693" lon="127.0594897"></trkpt>
   <trkpt lat="37.4971529" lon="127.0594367"></trkpt>
   <trkpt lat="37.4971383" lon="127.059387"></trkpt>
   <trkpt lat="37.4971383" lon="127.059387"></trkpt>
   <trkpt lat="37.4971841" lon="127.0593618"></trkpt>
   <trkpt lat="37.4971741" lon="127.0593291"></trkpt>
   <trkpt lat="37.4971327" lon="127.0593406"></trkpt>
   <trkpt lat="37.4971092" lon="127.0593351"></trkpt>
   <trkpt lat="37.4970875" lon="127.0593217"></trkpt>
   <trkpt lat="37.4970538" lon="127.059228"></trkpt>
   <trkpt lat="37.4970538" lon="127.059228"></trkpt>
   <trkpt lat="37.4969666" lon="127.0592782"></trkpt>
   <trkpt lat="37.4969666" lon="127.0592782"></trkpt>
   <trkpt lat="37.4969931" lon="127.0593867"></trkpt>
   <trkpt lat="37.4969977" lon="127.0593991"></trkpt>
   <trkpt lat="37.4969977" lon="127.0593991"></trkpt>
   <trkpt lat="37.4969931" lon="127.0593867"></trkpt>
   <trkpt lat="37.4969666" lon="127.0592782"></trkpt>
   <trkpt lat="37.4969666" lon="127.0592782"></trkpt>
   <trkpt lat="37.4970538" lon="127.059228"></trkpt>
   <trkpt lat="37.4970538" lon="127.059228"></trkpt>
   <trkpt lat="37.4970875" lon="127.0593217"></trkpt>
   <trkpt lat="37.4971092" lon="127.0593351"></trkpt>
   <trkpt lat="37.4971327" lon="127.0593406"></trkpt>
   <trkpt lat="37.4971741" lon="127.0593291"></trkpt>
   <trkpt lat="37.4971841" lon="127.0593618"></trkpt>
   <trkpt lat="37.4971383" lon="127.059387"></trkpt>
   <trkpt lat="37.4971383" lon="127.059387"></trkpt>
   <trkpt lat="37.4971529" lon="127.0594367"></trkpt>
   <trkpt lat="37.4971693" lon="127.0594897"></trkpt>
   <trkpt lat="37.4971693" lon="127.0594897"></trkpt>
   <trkpt lat="37.4972188" lon="127.0594634"></trkpt>
   <trkpt lat="37.4974194" lon="127.0593559"></trkpt>
   <trkpt lat="37.4976982" lon="127.0592072"></trkpt>
   <trkpt lat="37.498131" lon="127.0590055"></trkpt>
   <trkpt lat="37.498131" lon="127.0590055"></trkpt>
   <trkpt lat="37.4981712" lon="127.0591331"></trkpt>
   <trkpt lat="37.4986828" lon="127.0607355"></trkpt>
   <trkpt lat="37.4986829" lon="127.0607694"></trkpt>
   <trkpt lat="37.4986839" lon="127.0607954"></trkpt>
   <trkpt lat="37.4986839" lon="127.0607954"></trkpt>
   <trkpt lat="37.4986777" lon="127.0608192"></trkpt>
   <trkpt lat="37.498667" lon="127.0608442"></trkpt>
   <trkpt lat="37.4982748" lon="127.0610479"></trkpt>
   <trkpt lat="37.4978124" lon="127.0612994"></trkpt>
   <trkpt lat="37.4970936" lon="127.0616826"></trkpt>
   <trkpt lat="37.4970235" lon="127.0617215"></trkpt>
   <trkpt lat="37.4969011" lon="127.0617924"></trkpt>
   <trkpt lat="37.4961041" lon="127.0622111"></trkpt>
   <trkpt lat="37.4958801" lon="127.0623312"></trkpt>
   <trkpt lat="37.4957245" lon="127.0624135"></trkpt>
   <trkpt lat="37.495173" lon="127.0627097"></trkpt>
   <trkpt lat="37.4946575" lon="127.0629786"></trkpt>
   <trkpt lat="37.4946575" lon="127.0629786"></trkpt>
   <trkpt lat="37.4946904" lon="127.0630836"></trkpt>
   <trkpt lat="37.4947499" lon="127.0633355"></trkpt>
   <trkpt lat="37.4945422" lon="127.0634623"></trkpt>
   <trkpt lat="37.4944324" lon="127.063532"></trkpt>
   <trkpt lat="37.4944324" lon="127.063532"></trkpt>
   <trkpt lat="37.49454" lon="127.063856"></trkpt>
   <trkpt lat="37.4946734" lon="127.0643304"></trkpt>
   <trkpt lat="37.4949436" lon="127.0652542"></trkpt>
   <trkpt lat="37.4950822" lon="127.0656979"></trkpt>
   <trkpt lat="37.4951187" lon="127.065829"></trkpt>
   <trkpt lat="37.4953588" lon="127.0666466"></trkpt>
   <trkpt lat="37.4954263" lon="127.0668747"></trkpt>
   <trkpt lat="37.4961636" lon="127.0693333"></trkpt>
   <trkpt lat="37.4961636" lon="127.0693333"></trkpt>
   <trkpt lat="37.496106" lon="127.0693619"></trkpt>
   <trkpt lat="37.4960485" lon="127.0693916"></trkpt>
   <trkpt lat="37.4959711" lon="127.0694305"></trkpt>
   <trkpt lat="37.4958901" lon="127.0694717"></trkpt>
   <trkpt lat="37.4958262" lon="127.0695038"></trkpt>
   <trkpt lat="37.4955059" lon="127.0696651"></trkpt>
   <trkpt lat="37.4953152" lon="127.0697601"></trkpt>
   <trkpt lat="37.4952674" lon="127.0697672"></trkpt>
   <trkpt lat="37.4952674" lon="127.0697672"></trkpt>
   <trkpt lat="37.4953152" lon="127.0697601"></trkpt>
   <trkpt lat="37.4955059" lon="127.0696651"></trkpt>
   <trkpt lat="37.4958262" lon="127.0695038"></trkpt>
   <trkpt lat="37.4958901" lon="127.0694717"></trkpt>
   <trkpt lat="37.4959711" lon="127.0694305"></trkpt>
   <trkpt lat="37.4960485" lon="127.0693916"></trkpt>
   <trkpt lat="37.496106" lon="127.0693619"></trkpt>
   <trkpt lat="37.4961636" lon="127.0693333"></trkpt>
   <trkpt lat="37.4961636" lon="127.0693333"></trkpt>
   <trkpt lat="37.4954263" lon="127.0668747"></trkpt>
   <trkpt lat="37.4954263" lon="127.0668747"></trkpt>
   <trkpt lat="37.495564" lon="127.0668129"></trkpt>
   <trkpt lat="37.4957197" lon="127.0667328"></trkpt>
   <trkpt lat="37.4957197" lon="127.0667328"></trkpt>
   <trkpt lat="37.4956384" lon="127.0664549"></trkpt>
   <trkpt lat="37.4954121" lon="127.0656926"></trkpt>
   <trkpt lat="37.4953701" lon="127.0655537"></trkpt>
   <trkpt lat="37.4952577" lon="127.0651358"></trkpt>
   <trkpt lat="37.495181" lon="127.0648738"></trkpt>
   <trkpt lat="37.4950139" lon="127.0642978"></trkpt>
   <trkpt lat="37.494859" lon="127.0638327"></trkpt>
   <trkpt lat="37.4948481" lon="127.063801"></trkpt>
   <trkpt lat="37.4948089" lon="127.063678"></trkpt>
   <trkpt lat="37.494804" lon="127.0635864"></trkpt>
   <trkpt lat="37.49481" lon="127.0635117"></trkpt>
   <trkpt lat="37.4948402" lon="127.0633712"></trkpt>
   <trkpt lat="37.4948402" lon="127.0633712"></trkpt>
   <trkpt lat="37.4948715" lon="127.0633111"></trkpt>
   <trkpt lat="37.4949136" lon="127.063252"></trkpt>
   <trkpt lat="37.4950125" lon="127.0631688"></trkpt>
   <trkpt lat="37.495124" lon="127.0631026"></trkpt>
   <trkpt lat="37.495832" lon="127.0627342"></trkpt>
   <trkpt lat="37.4959427" lon="127.0626736"></trkpt>
   <trkpt lat="37.4962224" lon="127.0625294"></trkpt>
   <trkpt lat="37.4970051" lon="127.0621085"></trkpt>
   <trkpt lat="37.4971283" lon="127.0620433"></trkpt>
   <trkpt lat="37.4972507" lon="127.0619826"></trkpt>
   <trkpt lat="37.4979218" lon="127.0616235"></trkpt>
   <trkpt lat="37.4983788" lon="127.0613832"></trkpt>
   <trkpt lat="37.4983788" lon="127.0613832"></trkpt>
   <trkpt lat="37.4984863" lon="127.0617118"></trkpt>
   <trkpt lat="37.4984863" lon="127.0617118"></trkpt>
   <trkpt lat="37.4984396" lon="127.0617415"></trkpt>
   <trkpt lat="37.4984009" lon="127.0617587"></trkpt>
   <trkpt lat="37.4984009" lon="127.0617587"></trkpt>
   <trkpt lat="37.4985623" lon="127.0622669"></trkpt>
  </trkseg>
 </trk>
</gpx>
