<?xml version="1.0" encoding="UTF-8"?>
<gpx creator="StravaGPX" version="1.1" xmlns="http://www.topografix.com/GPX/1/1" xmlns:xsi="http://www.w3.org/2001/XMLSchema-instance" xsi:schemaLocation="http://www.topografix.com/GPX/1/1 http://www.topografix.com/GPX/1/1/gpx.xsd">
 <metadata>
  <name>강동 고덕천 강일 루프 6.41km</name>
  <desc>daengrun candidate geometry — measured 6.41km, gain 33</desc>
  <author>
   <name>S Kim</name>
   <link href="https://www.strava.com/athletes/558867461"/>
  </author>
  <copyright author="OpenStreetMap contributors">
   <year>2020</year>
   <license>https://www.openstreetmap.org/copyright</license>
  </copyright>
  <link href="https://www.strava.com/routes/3525053699330380742"/>
 </metadata>
 <trk>
  <name>강동 고덕천 강일 루프 6.41km</name>
  <desc>daengrun candidate geometry — measured 6.41km, gain 33</desc>
  <link href="https://www.strava.com/routes/3525053699330380742"/>
  <type>running</type>
  <trkseg>
   <trkpt lat="37.568340000000006" lon="127.17445000000001">
    <ele>26.67</ele>
   </trkpt>
   <trkpt lat="37.5685" lon="127.17486000000001">
    <ele>26.27</ele>
   </trkpt>
   <trkpt lat="37.56801500018109" lon="127.17511000167036">
    <ele>25.07</ele>
   </trkpt>
   <trkpt lat="37.567530000000005" lon="127.17536000000001">
    <ele>23.87</ele>
   </trkpt>
   <trkpt lat="37.567550000000004" lon="127.17539000000001">
    <ele>23.87</ele>
   </trkpt>
   <trkpt lat="37.56692" lon="127.17571000000001">
    <ele>21.96</ele>
   </trkpt>
   <trkpt lat="37.56626000042975" lon="127.17602500278556">
    <ele>23.39</ele>
   </trkpt>
   <trkpt lat="37.5656" lon="127.17634000000001">
    <ele>24.98</ele>
   </trkpt>
   <trkpt lat="37.56555" lon="127.17622000000001">
    <ele>24.98</ele>
   </trkpt>
   <trkpt lat="37.56529500096461" lon="127.17572999823055">
    <ele>25.18</ele>
   </trkpt>
   <trkpt lat="37.56504" lon="127.17524000000002">
    <ele>25.300000000000004</ele>
   </trkpt>
   <trkpt lat="37.56503" lon="127.1752">
    <ele>25.210000000000004</ele>
   </trkpt>
   <trkpt lat="37.56505000000001" lon="127.17513000000001">
    <ele>25.210000000000004</ele>
   </trkpt>
   <trkpt lat="37.564930000000004" lon="127.17493">
    <ele>25.200000000000003</ele>
   </trkpt>
   <trkpt lat="37.56485" lon="127.17493">
    <ele>25.26</ele>
   </trkpt>
   <trkpt lat="37.56443000178756" lon="127.1742749962733">
    <ele>25.040000000000003</ele>
   </trkpt>
   <trkpt lat="37.56401" lon="127.17362000000001">
    <ele>25.1</ele>
   </trkpt>
   <trkpt lat="37.56391" lon="127.17369000000001">
    <ele>25.39</ele>
   </trkpt>
   <trkpt lat="37.563585001233086" lon="127.17317499793488">
    <ele>22.79</ele>
   </trkpt>
   <trkpt lat="37.56326" lon="127.17266000000001">
    <ele>20.82</ele>
   </trkpt>
   <trkpt lat="37.56308000000001" lon="127.17278000000002">
    <ele>20.76</ele>
   </trkpt>
   <trkpt lat="37.562830000000005" lon="127.17290000000001">
    <ele>20.76</ele>
   </trkpt>
   <trkpt lat="37.562580000000004" lon="127.17297">
    <ele>20.8</ele>
   </trkpt>
   <trkpt lat="37.56239" lon="127.17299000000001">
    <ele>21.02</ele>
   </trkpt>
   <trkpt lat="37.562160000000006" lon="127.17297">
    <ele>21.120000000000005</ele>
   </trkpt>
   <trkpt lat="37.561890000000005" lon="127.17291000000002">
    <ele>21.19</ele>
   </trkpt>
   <trkpt lat="37.5615" lon="127.17273000000002">
    <ele>21.150000000000002</ele>
   </trkpt>
   <trkpt lat="37.56119" lon="127.17253000000001">
    <ele>21.150000000000002</ele>
   </trkpt>
   <trkpt lat="37.560750000227515" lon="127.17229999864402">
    <ele>21.19</ele>
   </trkpt>
   <trkpt lat="37.56031" lon="127.17207">
    <ele>21.23</ele>
   </trkpt>
   <trkpt lat="37.55998" lon="127.17199000000001">
    <ele>21.23</ele>
   </trkpt>
   <trkpt lat="37.55928" lon="127.17190000000001">
    <ele>21.26</ele>
   </trkpt>
   <trkpt lat="37.55856" lon="127.17184000000002">
    <ele>21.240000000000002</ele>
   </trkpt>
   <trkpt lat="37.55772999988187" lon="127.17178999943533">
    <ele>21.220000000000002</ele>
   </trkpt>
   <trkpt lat="37.556900000000006" lon="127.17174000000001">
    <ele>21.45</ele>
   </trkpt>
   <trkpt lat="37.55657" lon="127.17170000000002">
    <ele>21.54</ele>
   </trkpt>
   <trkpt lat="37.55624" lon="127.17173000000001">
    <ele>21.62</ele>
   </trkpt>
   <trkpt lat="37.55657" lon="127.17170000000002">
    <ele>21.54</ele>
   </trkpt>
   <trkpt lat="37.556900000000006" lon="127.17174000000001">
    <ele>21.45</ele>
   </trkpt>
   <trkpt lat="37.55773000013921" lon="127.17178999945081">
    <ele>21.220000000000002</ele>
   </trkpt>
   <trkpt lat="37.55856" lon="127.17184000000002">
    <ele>21.240000000000002</ele>
   </trkpt>
   <trkpt lat="37.55928" lon="127.17190000000001">
    <ele>21.52</ele>
   </trkpt>
   <trkpt lat="37.55998" lon="127.17199000000001">
    <ele>21.23</ele>
   </trkpt>
   <trkpt lat="37.56031" lon="127.17207">
    <ele>21.23</ele>
   </trkpt>
   <trkpt lat="37.560750000218654" lon="127.17229999863943">
    <ele>21.19</ele>
   </trkpt>
   <trkpt lat="37.56119" lon="127.17253000000001">
    <ele>21.150000000000002</ele>
   </trkpt>
   <trkpt lat="37.561420000000005" lon="127.17267000000001">
    <ele>21.150000000000002</ele>
   </trkpt>
   <trkpt lat="37.562020000000004" lon="127.17279">
    <ele>25.69</ele>
   </trkpt>
   <trkpt lat="37.56266" lon="127.1727">
    <ele>25.87</ele>
   </trkpt>
   <trkpt lat="37.562940000000005" lon="127.17260000000002">
    <ele>26.150000000000002</ele>
   </trkpt>
   <trkpt lat="37.56302" lon="127.17255000000002">
    <ele>26.17</ele>
   </trkpt>
   <trkpt lat="37.56246" lon="127.17169000000001">
    <ele>25.66</ele>
   </trkpt>
   <trkpt lat="37.56221" lon="127.17133000000001">
    <ele>25.7</ele>
   </trkpt>
   <trkpt lat="37.56214000000001" lon="127.17103000000002">
    <ele>25.77</ele>
   </trkpt>
   <trkpt lat="37.561980000000005" lon="127.17072000000002">
    <ele>26.02</ele>
   </trkpt>
   <trkpt lat="37.562050000000006" lon="127.17063000000002">
    <ele>26.080000000000002</ele>
   </trkpt>
   <trkpt lat="37.56204" lon="127.17025000000001">
    <ele>26.730000000000004</ele>
   </trkpt>
   <trkpt lat="37.56195" lon="127.17014">
    <ele>27.000000000000004</ele>
   </trkpt>
   <trkpt lat="37.56186" lon="127.17024">
    <ele>27.000000000000004</ele>
   </trkpt>
   <trkpt lat="37.5617" lon="127.17031000000001">
    <ele>26.910000000000004</ele>
   </trkpt>
   <trkpt lat="37.5613" lon="127.16944000000001">
    <ele>29.23</ele>
   </trkpt>
   <trkpt lat="37.561240000000005" lon="127.16949000000001">
    <ele>29.300000000000004</ele>
   </trkpt>
   <trkpt lat="37.56082" lon="127.16958000000001">
    <ele>29.41</ele>
   </trkpt>
   <trkpt lat="37.560550000000006" lon="127.16931000000001">
    <ele>29.18</ele>
   </trkpt>
   <trkpt lat="37.56026" lon="127.16914000000001">
    <ele>29.01</ele>
   </trkpt>
   <trkpt lat="37.560010000000005" lon="127.16903">
    <ele>28.73</ele>
   </trkpt>
   <trkpt lat="37.55984" lon="127.16890000000001">
    <ele>28.71</ele>
   </trkpt>
   <trkpt lat="37.55959" lon="127.16867">
    <ele>28.610000000000003</ele>
   </trkpt>
   <trkpt lat="37.559430000000006" lon="127.16860000000001">
    <ele>28.610000000000003</ele>
   </trkpt>
   <trkpt lat="37.559070000000006" lon="127.16861000000002">
    <ele>28.32</ele>
   </trkpt>
   <trkpt lat="37.559050000000006" lon="127.16857000000002">
    <ele>28.32</ele>
   </trkpt>
   <trkpt lat="37.55951" lon="127.16853">
    <ele>29.210000000000004</ele>
   </trkpt>
   <trkpt lat="37.55973" lon="127.16870000000002">
    <ele>28.990000000000002</ele>
   </trkpt>
   <trkpt lat="37.56006" lon="127.16899000000001">
    <ele>28.060000000000002</ele>
   </trkpt>
   <trkpt lat="37.560480000000005" lon="127.16918000000001">
    <ele>28.990000000000002</ele>
   </trkpt>
   <trkpt lat="37.56082" lon="127.16953000000001">
    <ele>30.950000000000003</ele>
   </trkpt>
   <trkpt lat="37.561240000000005" lon="127.16946000000002">
    <ele>31.14</ele>
   </trkpt>
   <trkpt lat="37.56132" lon="127.16938">
    <ele>31.14</ele>
   </trkpt>
   <trkpt lat="37.561400000000006" lon="127.16906000000002">
    <ele>31.26</ele>
   </trkpt>
   <trkpt lat="37.56132" lon="127.16938">
    <ele>31.14</ele>
   </trkpt>
   <trkpt lat="37.561240000000005" lon="127.16946000000002">
    <ele>31.14</ele>
   </trkpt>
   <trkpt lat="37.56082" lon="127.16953000000001">
    <ele>30.950000000000003</ele>
   </trkpt>
   <trkpt lat="37.560480000000005" lon="127.16918000000001">
    <ele>28.55</ele>
   </trkpt>
   <trkpt lat="37.56006" lon="127.16899000000001">
    <ele>28.060000000000002</ele>
   </trkpt>
   <trkpt lat="37.55973" lon="127.16870000000002">
    <ele>28.990000000000002</ele>
   </trkpt>
   <trkpt lat="37.55951" lon="127.16853">
    <ele>29.210000000000004</ele>
   </trkpt>
   <trkpt lat="37.559050000000006" lon="127.16857000000002">
    <ele>28.32</ele>
   </trkpt>
   <trkpt lat="37.558620000000005" lon="127.16860000000001">
    <ele>27.880000000000003</ele>
   </trkpt>
   <trkpt lat="37.558460000000004" lon="127.16858">
    <ele>27.78</ele>
   </trkpt>
   <trkpt lat="37.55799999985184" lon="127.16860500016251">
    <ele>27.630000000000003</ele>
   </trkpt>
   <trkpt lat="37.55754" lon="127.16863000000001">
    <ele>26.71</ele>
   </trkpt>
   <trkpt lat="37.55744" lon="127.16867">
    <ele>26.54</ele>
   </trkpt>
   <trkpt lat="37.55716" lon="127.16868000000001">
    <ele>26.2</ele>
   </trkpt>
   <trkpt lat="37.55715" lon="127.16866000000002">
    <ele>26.2</ele>
   </trkpt>
   <trkpt lat="37.55715" lon="127.16884000000002">
    <ele>26.12</ele>
   </trkpt>
   <trkpt lat="37.557140000000004" lon="127.16891000000001">
    <ele>26.050000000000004</ele>
   </trkpt>
   <trkpt lat="37.557170000000006" lon="127.16925">
    <ele>25.96</ele>
   </trkpt>
   <trkpt lat="37.5572" lon="127.16928000000001">
    <ele>25.96</ele>
   </trkpt>
   <trkpt lat="37.55730500358252" lon="127.17019999882054">
    <ele>25.48</ele>
   </trkpt>
   <trkpt lat="37.557410000000004" lon="127.17112000000002">
    <ele>26.430000000000003</ele>
   </trkpt>
   <trkpt lat="37.557410000000004" lon="127.17156000000001">
    <ele>27.17</ele>
   </trkpt>
   <trkpt lat="37.55731" lon="127.17159000000001">
    <ele>27.39</ele>
   </trkpt>
   <trkpt lat="37.557300000000005" lon="127.17164000000001">
    <ele>27.39</ele>
   </trkpt>
   <trkpt lat="37.557290002035685" lon="127.17233500017639">
    <ele>27.55</ele>
   </trkpt>
   <trkpt lat="37.557280000000006" lon="127.17303000000001">
    <ele>28.73</ele>
   </trkpt>
   <trkpt lat="37.55731" lon="127.17313000000001">
    <ele>28.970000000000002</ele>
   </trkpt>
   <trkpt lat="37.557300000000005" lon="127.17335000000001">
    <ele>29.450000000000003</ele>
   </trkpt>
   <trkpt lat="37.557280000000006" lon="127.17342000000001">
    <ele>29.710000000000004</ele>
   </trkpt>
   <trkpt lat="37.55731" lon="127.17437000000001">
    <ele>33.370000000000005</ele>
   </trkpt>
   <trkpt lat="37.55749" lon="127.17542000000002">
    <ele>36.81</ele>
   </trkpt>
   <trkpt lat="37.557693340375415" lon="127.17633332837912">
    <ele>35.36</ele>
   </trkpt>
   <trkpt lat="37.557896673715554" lon="127.17724666174291">
    <ele>31.68</ele>
   </trkpt>
   <trkpt lat="37.5581" lon="127.17816">
    <ele>28.970000000000002</ele>
   </trkpt>
   <trkpt lat="37.55819" lon="127.17839000000001">
    <ele>28.76</ele>
   </trkpt>
   <trkpt lat="37.55833000180668" lon="127.17904499875765">
    <ele>28.180000000000003</ele>
   </trkpt>
   <trkpt lat="37.55847" lon="127.17970000000001">
    <ele>28.05</ele>
   </trkpt>
   <trkpt lat="37.558510000000005" lon="127.17974000000001">
    <ele>28.05</ele>
   </trkpt>
   <trkpt lat="37.558550000000004" lon="127.17976000000002">
    <ele>28.01</ele>
   </trkpt>
   <trkpt lat="37.558580000000006" lon="127.17989000000001">
    <ele>27.900000000000002</ele>
   </trkpt>
   <trkpt lat="37.559340000000006" lon="127.17961000000001">
    <ele>26.8</ele>
   </trkpt>
   <trkpt lat="37.55969" lon="127.17956000000001">
    <ele>26.770000000000003</ele>
   </trkpt>
   <trkpt lat="37.559850000000004" lon="127.17957000000001">
    <ele>26.78</ele>
   </trkpt>
   <trkpt lat="37.560520000024844" lon="127.1798099977637">
    <ele>26.87</ele>
   </trkpt>
   <trkpt lat="37.56119" lon="127.18005000000001">
    <ele>26.63</ele>
   </trkpt>
   <trkpt lat="37.56141" lon="127.18007000000001">
    <ele>26.400000000000002</ele>
   </trkpt>
   <trkpt lat="37.56166" lon="127.18004">
    <ele>26.230000000000004</ele>
   </trkpt>
   <trkpt lat="37.5625" lon="127.17973">
    <ele>25.86</ele>
   </trkpt>
   <trkpt lat="37.562760000000004" lon="127.17960000000001">
    <ele>25.630000000000003</ele>
   </trkpt>
   <trkpt lat="37.562920000000005" lon="127.17980000000001">
    <ele>22.1</ele>
   </trkpt>
   <trkpt lat="37.56307" lon="127.17991">
    <ele>22.37</ele>
   </trkpt>
   <trkpt lat="37.563140000000004" lon="127.18001000000001">
    <ele>22.37</ele>
   </trkpt>
   <trkpt lat="37.563140000000004" lon="127.18">
    <ele>22.36</ele>
   </trkpt>
   <trkpt lat="37.56307" lon="127.17991">
    <ele>22.36</ele>
   </trkpt>
   <trkpt lat="37.562920000000005" lon="127.17980000000001">
    <ele>22.1</ele>
   </trkpt>
   <trkpt lat="37.562760000000004" lon="127.17960000000001">
    <ele>25.630000000000003</ele>
   </trkpt>
   <trkpt lat="37.56298" lon="127.17928">
    <ele>26.050000000000004</ele>
   </trkpt>
   <trkpt lat="37.563190000000006" lon="127.17905">
    <ele>25.490000000000002</ele>
   </trkpt>
   <trkpt lat="37.56373" lon="127.1787">
    <ele>23.919999999999998</ele>
   </trkpt>
   <trkpt lat="37.56439666759343" lon="127.17836667263794">
    <ele>23.51</ele>
   </trkpt>
   <trkpt lat="37.56506333424973" lon="127.17803333930985">
    <ele>23.35</ele>
   </trkpt>
   <trkpt lat="37.56573" lon="127.17770000000002">
    <ele>24.130000000000003</ele>
   </trkpt>
   <trkpt lat="37.56644" lon="127.17745000000001">
    <ele>25.53</ele>
   </trkpt>
   <trkpt lat="37.56712000016532" lon="127.17730000135383">
    <ele>26.050000000000004</ele>
   </trkpt>
   <trkpt lat="37.567800000000005" lon="127.17715000000001">
    <ele>25.800000000000004</ele>
   </trkpt>
   <trkpt lat="37.56806" lon="127.17702000000001">
    <ele>25.810000000000002</ele>
   </trkpt>
   <trkpt lat="37.56823" lon="127.17691">
    <ele>25.910000000000004</ele>
   </trkpt>
   <trkpt lat="37.568340000000006" lon="127.17679000000001">
    <ele>25.830000000000002</ele>
   </trkpt>
   <trkpt lat="37.5686" lon="127.17634000000001">
    <ele>25.910000000000004</ele>
   </trkpt>
   <trkpt lat="37.56864" lon="127.17618000000002">
    <ele>26.220000000000002</ele>
   </trkpt>
   <trkpt lat="37.568690000000004" lon="127.17587">
    <ele>26.160000000000004</ele>
   </trkpt>
   <trkpt lat="37.568690000000004" lon="127.17557000000001">
    <ele>26.17</ele>
   </trkpt>
   <trkpt lat="37.568630000000006" lon="127.17522000000001">
    <ele>26.2</ele>
   </trkpt>
   <trkpt lat="37.568340000000006" lon="127.17445000000001">
    <ele>26.680000000000003</ele>
   </trkpt>
  </trkseg>
 </trk>
</gpx>
