<?xml version="1.0" encoding="UTF-8"?>
<gpx creator="daengrun-naver-route" version="1.1" xmlns="http://www.topografix.com/GPX/1/1" xmlns:xsi="http://www.w3.org/2001/XMLSchema-instance" xsi:schemaLocation="http://www.topografix.com/GPX/1/1 http://www.topografix.com/GPX/1/1/gpx.xsd">
 <metadata>
  <name>강서 마곡중앙광장·마곡하늬공원 루프 3.71km</name>
  <desc>daengrun candidate geometry — measured 3.71km via Naver pedestrian router (o=flat, 계단회피). Elevation NOT available from this source. stairs=0 crosswalk=10 steppingstone=0 underpass=1 overpass=0</desc>
  <link href="naver:1p521ec"><text>daengrun route id</text></link>
  <copyright author="NAVER Corp."><license>https://map.naver.com/</license></copyright>
 </metadata>
 <trk>
  <name>강서 마곡중앙광장·마곡하늬공원 루프 3.71km</name>
  <trkseg>
   <trkpt lat="37.5608021" lon="126.8193211"></trkpt>
   <trkpt lat="37.5607739" lon="126.8188153"></trkpt>
   <trkpt lat="37.5607739" lon="126.8188153"></trkpt>
   <trkpt lat="37.5606824" lon="126.8188761"></trkpt>
   <trkpt lat="37.5606824" lon="126.8188761"></trkpt>
   <trkpt lat="37.5605813" lon="126.8201089"></trkpt>
   <trkpt lat="37.5605866" lon="126.8202459"></trkpt>
   <trkpt lat="37.5605923" lon="126.8203002"></trkpt>
   <trkpt lat="37.5606107" lon="126.8203668"></trkpt>
   <trkpt lat="37.5606107" lon="126.8203668"></trkpt>
   <trkpt lat="37.5605138" lon="126.8204322"></trkpt>
   <trkpt lat="37.5604721" lon="126.8207179"></trkpt>
   <trkpt lat="37.5605031" lon="126.8207765"></trkpt>
   <trkpt lat="37.5605031" lon="126.8207765"></trkpt>
   <trkpt lat="37.5604719" lon="126.8208323"></trkpt>
   <trkpt lat="37.5604543" lon="126.8209128"></trkpt>
   <trkpt lat="37.5603501" lon="126.8220743"></trkpt>
   <trkpt lat="37.5603416" lon="126.8221604"></trkpt>
   <trkpt lat="37.5602989" lon="126.8225628"></trkpt>
   <trkpt lat="37.5601994" lon="126.8236133"></trkpt>
   <trkpt lat="37.560196" lon="126.8236461"></trkpt>
   <trkpt lat="37.560196" lon="126.8236461"></trkpt>
   <trkpt lat="37.5601722" lon="126.8238875"></trkpt>
   <trkpt lat="37.5601722" lon="126.8238875"></trkpt>
   <trkpt lat="37.5600987" lon="126.8245913"></trkpt>
   <trkpt lat="37.5600272" lon="126.8253302"></trkpt>
   <trkpt lat="37.5599931" lon="126.8256758"></trkpt>
   <trkpt lat="37.5599307" lon="126.8264214"></trkpt>
   <trkpt lat="37.5599422" lon="126.8265401"></trkpt>
   <trkpt lat="37.5599788" lon="126.8266485"></trkpt>
   <trkpt lat="37.5599788" lon="126.8266485"></trkpt>
   <trkpt lat="37.5600241" lon="126.8266934"></trkpt>
   <trkpt lat="37.5600685" lon="126.8267292"></trkpt>
   <trkpt lat="37.5601371" lon="126.826749"></trkpt>
   <trkpt lat="37.560406" lon="126.826793"></trkpt>
   <trkpt lat="37.5613379" lon="126.8269431"></trkpt>
   <trkpt lat="37.5613884" lon="126.8269517"></trkpt>
   <trkpt lat="37.5617367" lon="126.8270086"></trkpt>
   <trkpt lat="37.5618089" lon="126.8270193"></trkpt>
   <trkpt lat="37.5618089" lon="126.8270193"></trkpt>
   <trkpt lat="37.5619785" lon="126.8270449"></trkpt>
   <trkpt lat="37.5619785" lon="126.8270449"></trkpt>
   <trkpt lat="37.5620434" lon="126.8270545"></trkpt>
   <trkpt lat="37.5631305" lon="126.8272203"></trkpt>
   <trkpt lat="37.5631305" lon="126.8272203"></trkpt>
   <trkpt lat="37.5632225" lon="126.8272319"></trkpt>
   <trkpt lat="37.5632225" lon="126.8272319"></trkpt>
   <trkpt lat="37.5642391" lon="126.8273813"></trkpt>
   <trkpt lat="37.5644403" lon="126.8274146"></trkpt>
   <trkpt lat="37.564545" lon="126.8274317"></trkpt>
   <trkpt lat="37.5648905" lon="126.8274807"></trkpt>
   <trkpt lat="37.5649211" lon="126.8274861"></trkpt>
   <trkpt lat="37.5652323" lon="126.8275263"></trkpt>
   <trkpt lat="37.5652323" lon="126.8275263"></trkpt>
   <trkpt lat="37.5652502" lon="126.8273371"></trkpt>
   <trkpt lat="37.5652544" lon="126.8272917"></trkpt>
   <trkpt lat="37.5652935" lon="126.8268668"></trkpt>
   <trkpt lat="37.5651003" lon="126.8265073"></trkpt>
   <trkpt lat="37.5651003" lon="126.8265073"></trkpt>
   <trkpt lat="37.5652935" lon="126.8268668"></trkpt>
   <trkpt lat="37.5652544" lon="126.8272917"></trkpt>
   <trkpt lat="37.5652502" lon="126.8273371"></trkpt>
   <trkpt lat="37.5652323" lon="126.8275263"></trkpt>
   <trkpt lat="37.5652323" lon="126.8275263"></trkpt>
   <trkpt lat="37.5649211" lon="126.8274861"></trkpt>
   <trkpt lat="37.5648905" lon="126.8274807"></trkpt>
   <trkpt lat="37.564545" lon="126.8274317"></trkpt>
   <trkpt lat="37.5644403" lon="126.8274146"></trkpt>
   <trkpt lat="37.5642391" lon="126.8273813"></trkpt>
   <trkpt lat="37.5632225" lon="126.8272319"></trkpt>
   <trkpt lat="37.5632225" lon="126.8272319"></trkpt>
   <trkpt lat="37.5631305" lon="126.8272203"></trkpt>
   <trkpt lat="37.5631305" lon="126.8272203"></trkpt>
   <trkpt lat="37.5620434" lon="126.8270545"></trkpt>
   <trkpt lat="37.5619785" lon="126.8270449"></trkpt>
   <trkpt lat="37.5619785" lon="126.8270449"></trkpt>
   <trkpt lat="37.5618089" lon="126.8270193"></trkpt>
   <trkpt lat="37.5618089" lon="126.8270193"></trkpt>
   <trkpt lat="37.5617367" lon="126.8270086"></trkpt>
   <trkpt lat="37.5613884" lon="126.8269517"></trkpt>
   <trkpt lat="37.5613379" lon="126.8269431"></trkpt>
   <trkpt lat="37.560406" lon="126.826793"></trkpt>
   <trkpt lat="37.5601371" lon="126.826749"></trkpt>
   <trkpt lat="37.5600685" lon="126.8267292"></trkpt>
   <trkpt lat="37.5600241" lon="126.8266934"></trkpt>
   <trkpt lat="37.5599788" lon="126.8266485"></trkpt>
   <trkpt lat="37.5599788" lon="126.8266485"></trkpt>
   <trkpt lat="37.5599422" lon="126.8265401"></trkpt>
   <trkpt lat="37.5599307" lon="126.8264214"></trkpt>
   <trkpt lat="37.5599931" lon="126.8256758"></trkpt>
   <trkpt lat="37.5600272" lon="126.8253302"></trkpt>
   <trkpt lat="37.5600272" lon="126.8253302"></trkpt>
   <trkpt lat="37.5601345" lon="126.8253462"></trkpt>
   <trkpt lat="37.5601227" lon="126.8254923"></trkpt>
   <trkpt lat="37.5600289" lon="126.8254762"></trkpt>
   <trkpt lat="37.5595562" lon="126.8254057"></trkpt>
   <trkpt lat="37.5596397" lon="126.8253438"></trkpt>
   <trkpt lat="37.5596397" lon="126.8253438"></trkpt>
   <trkpt lat="37.5596568" lon="126.8251908"></trkpt>
   <trkpt lat="37.5596735" lon="126.8249529"></trkpt>
   <trkpt lat="37.5598096" lon="126.8238444"></trkpt>
   <trkpt lat="37.5598096" lon="126.8238444"></trkpt>
   <trkpt lat="37.5598344" lon="126.8236098"></trkpt>
   <trkpt lat="37.5598344" lon="126.8236098"></trkpt>
   <trkpt lat="37.5594519" lon="126.8235543"></trkpt>
   <trkpt lat="37.5593905" lon="126.823547"></trkpt>
   <trkpt lat="37.5590739" lon="126.8235023"></trkpt>
   <trkpt lat="37.5589828" lon="126.8234895"></trkpt>
   <trkpt lat="37.5588692" lon="126.8234736"></trkpt>
   <trkpt lat="37.5588105" lon="126.8234662"></trkpt>
   <trkpt lat="37.5585751" lon="126.8234332"></trkpt>
   <trkpt lat="37.5585317" lon="126.8234211"></trkpt>
   <trkpt lat="37.5584965" lon="126.8234022"></trkpt>
   <trkpt lat="37.5584809" lon="126.8233537"></trkpt>
   <trkpt lat="37.5584724" lon="126.8232949"></trkpt>
   <trkpt lat="37.5584724" lon="126.8232949"></trkpt>
   <trkpt lat="37.5583073" lon="126.8232692"></trkpt>
   <trkpt lat="37.5583073" lon="126.8232692"></trkpt>
   <trkpt lat="37.5582977" lon="126.8233146"></trkpt>
   <trkpt lat="37.5582825" lon="126.8233453"></trkpt>
   <trkpt lat="37.5582584" lon="126.8233715"></trkpt>
   <trkpt lat="37.5582323" lon="126.8233865"></trkpt>
   <trkpt lat="37.5578688" lon="126.8233343"></trkpt>
   <trkpt lat="37.557745" lon="126.8232935"></trkpt>
   <trkpt lat="37.5576183" lon="126.8232018"></trkpt>
   <trkpt lat="37.5575585" lon="126.823139"></trkpt>
   <trkpt lat="37.5574814" lon="126.8230593"></trkpt>
   <trkpt lat="37.5573652" lon="126.8229109"></trkpt>
   <trkpt lat="37.5572226" lon="126.8227208"></trkpt>
   <trkpt lat="37.5569864" lon="126.8224048"></trkpt>
   <trkpt lat="37.5569864" lon="126.8224048"></trkpt>
   <trkpt lat="37.5572419" lon="126.8218432"></trkpt>
   <trkpt lat="37.5573174" lon="126.8218029"></trkpt>
   <trkpt lat="37.5573174" lon="126.8218029"></trkpt>
   <trkpt lat="37.5572915" lon="126.8216854"></trkpt>
   <trkpt lat="37.5573185" lon="126.8215357"></trkpt>
   <trkpt lat="37.5573302" lon="126.8213714"></trkpt>
   <trkpt lat="37.5573288" lon="126.8212808"></trkpt>
   <trkpt lat="37.5573288" lon="126.8212808"></trkpt>
   <trkpt lat="37.5573245" lon="126.8211688"></trkpt>
   <trkpt lat="37.5573245" lon="126.8211677"></trkpt>
   <trkpt lat="37.5572917" lon="126.8209427"></trkpt>
   <trkpt lat="37.5572273" lon="126.8207145"></trkpt>
   <trkpt lat="37.5571397" lon="126.8205376"></trkpt>
   <trkpt lat="37.5570616" lon="126.8204341"></trkpt>
   <trkpt lat="37.5569858" lon="126.8204099"></trkpt>
   <trkpt lat="37.5569858" lon="126.8204099"></trkpt>
   <trkpt lat="37.5569468" lon="126.820057"></trkpt>
   <trkpt lat="37.5569468" lon="126.820057"></trkpt>
   <trkpt lat="37.5569702" lon="126.8200591"></trkpt>
   <trkpt lat="37.5576614" lon="126.8201819"></trkpt>
   <trkpt lat="37.5586142" lon="126.820351"></trkpt>
   <trkpt lat="37.5586142" lon="126.820351"></trkpt>
   <trkpt lat="37.5587756" lon="126.8202136"></trkpt>
   <trkpt lat="37.5587756" lon="126.8202136"></trkpt>
   <trkpt lat="37.5592195" lon="126.8202821"></trkpt>
   <trkpt lat="37.5593647" lon="126.8203034"></trkpt>
   <trkpt lat="37.559731" lon="126.8203601"></trkpt>
   <trkpt lat="37.5599239" lon="126.8203606"></trkpt>
   <trkpt lat="37.5600103" lon="126.8203485"></trkpt>
   <trkpt lat="37.5601099" lon="126.8202706"></trkpt>
   <trkpt lat="37.5601099" lon="126.8202706"></trkpt>
   <trkpt lat="37.5601437" lon="126.8203473"></trkpt>
   <trkpt lat="37.5605138" lon="126.8204322"></trkpt>
   <trkpt lat="37.5606107" lon="126.8203668"></trkpt>
   <trkpt lat="37.5606107" lon="126.8203668"></trkpt>
   <trkpt lat="37.5605923" lon="126.8203002"></trkpt>
   <trkpt lat="37.5605866" lon="126.8202459"></trkpt>
   <trkpt lat="37.5605813" lon="126.8201089"></trkpt>
   <trkpt lat="37.5606824" lon="126.8188761"></trkpt>
   <trkpt lat="37.5606824" lon="126.8188761"></trkpt>
   <trkpt lat="37.5607739" lon="126.8188153"></trkpt>
   <trkpt lat="37.5607739" lon="126.8188153"></trkpt>
   <trkpt lat="37.5608021" lon="126.8193211"></trkpt>
  </trkseg>
 </trk>
</gpx>
