<?xml version="1.0" encoding="UTF-8"?>
<gpx creator="daengrun-naver-route" version="1.1" xmlns="http://www.topografix.com/GPX/1/1" xmlns:xsi="http://www.w3.org/2001/XMLSchema-instance" xsi:schemaLocation="http://www.topografix.com/GPX/1/1 http://www.topografix.com/GPX/1/1/gpx.xsd">
 <metadata>
  <name>강서 방화근린공원·새싹어린이 교통공원 루프 3.82km</name>
  <desc>daengrun candidate geometry — measured 3.82km via Naver pedestrian router (o=flat, 계단회피). Elevation NOT available from this source. stairs=0 crosswalk=12 steppingstone=0 underpass=0 overpass=0</desc>
  <link href="naver:5aotqq"><text>daengrun route id</text></link>
  <copyright author="NAVER Corp."><license>https://map.naver.com/</license></copyright>
 </metadata>
 <trk>
  <name>강서 방화근린공원·새싹어린이 교통공원 루프 3.82km</name>
  <trkseg>
   <trkpt lat="37.5750097" lon="126.8091956"></trkpt>
   <trkpt lat="37.5749911" lon="126.8094007"></trkpt>
   <trkpt lat="37.5749911" lon="126.8094007"></trkpt>
   <trkpt lat="37.5750857" lon="126.8094055"></trkpt>
   <trkpt lat="37.5751831" lon="126.8094114"></trkpt>
   <trkpt lat="37.5752444" lon="126.8094131"></trkpt>
   <trkpt lat="37.5752444" lon="126.8094131"></trkpt>
   <trkpt lat="37.5752353" lon="126.8095468"></trkpt>
   <trkpt lat="37.5752121" lon="126.8100521"></trkpt>
   <trkpt lat="37.5752106" lon="126.8101065"></trkpt>
   <trkpt lat="37.5752106" lon="126.8101065"></trkpt>
   <trkpt lat="37.575291" lon="126.8101295"></trkpt>
   <trkpt lat="37.575291" lon="126.8101295"></trkpt>
   <trkpt lat="37.5752638" lon="126.8108783"></trkpt>
   <trkpt lat="37.5752454" lon="126.811584"></trkpt>
   <trkpt lat="37.5752454" lon="126.811584"></trkpt>
   <trkpt lat="37.5753241" lon="126.8116331"></trkpt>
   <trkpt lat="37.5757156" lon="126.8118481"></trkpt>
   <trkpt lat="37.5757979" lon="126.8118949"></trkpt>
   <trkpt lat="37.5760675" lon="126.8120702"></trkpt>
   <trkpt lat="37.5760829" lon="126.8120746"></trkpt>
   <trkpt lat="37.5760973" lon="126.8120734"></trkpt>
   <trkpt lat="37.5761071" lon="126.8120642"></trkpt>
   <trkpt lat="37.5761213" lon="126.8120244"></trkpt>
   <trkpt lat="37.5761213" lon="126.8120244"></trkpt>
   <trkpt lat="37.5761873" lon="126.8120578"></trkpt>
   <trkpt lat="37.5762642" lon="126.812099"></trkpt>
   <trkpt lat="37.5762642" lon="126.812099"></trkpt>
   <trkpt lat="37.5762652" lon="126.8121284"></trkpt>
   <trkpt lat="37.5762681" lon="126.8121522"></trkpt>
   <trkpt lat="37.5762889" lon="126.8121712"></trkpt>
   <trkpt lat="37.5763043" lon="126.8121847"></trkpt>
   <trkpt lat="37.5769782" lon="126.8124424"></trkpt>
   <trkpt lat="37.5770993" lon="126.8124933"></trkpt>
   <trkpt lat="37.5771165" lon="126.8125011"></trkpt>
   <trkpt lat="37.5779422" lon="126.8128299"></trkpt>
   <trkpt lat="37.5780091" lon="126.8128576"></trkpt>
   <trkpt lat="37.5785627" lon="126.8130529"></trkpt>
   <trkpt lat="37.5785744" lon="126.8130528"></trkpt>
   <trkpt lat="37.5785879" lon="126.8130493"></trkpt>
   <trkpt lat="37.5785978" lon="126.8130379"></trkpt>
   <trkpt lat="37.5786049" lon="126.813022"></trkpt>
   <trkpt lat="37.5786049" lon="126.813022"></trkpt>
   <trkpt lat="37.5787197" lon="126.8130708"></trkpt>
   <trkpt lat="37.5787639" lon="126.8130851"></trkpt>
   <trkpt lat="37.5787639" lon="126.8130851"></trkpt>
   <trkpt lat="37.5787587" lon="126.81311"></trkpt>
   <trkpt lat="37.578757" lon="126.8131304"></trkpt>
   <trkpt lat="37.5787615" lon="126.8131417"></trkpt>
   <trkpt lat="37.5787706" lon="126.8131496"></trkpt>
   <trkpt lat="37.5791988" lon="126.81332"></trkpt>
   <trkpt lat="37.5798573" lon="126.8135677"></trkpt>
   <trkpt lat="37.579935" lon="126.8135987"></trkpt>
   <trkpt lat="37.5800615" lon="126.8136473"></trkpt>
   <trkpt lat="37.5801293" lon="126.8136716"></trkpt>
   <trkpt lat="37.5802115" lon="126.8137049"></trkpt>
   <trkpt lat="37.5806035" lon="126.8138508"></trkpt>
   <trkpt lat="37.5806721" lon="126.8138626"></trkpt>
   <trkpt lat="37.5807359" lon="126.8138371"></trkpt>
   <trkpt lat="37.5807889" lon="126.8137981"></trkpt>
   <trkpt lat="37.5808273" lon="126.8137445"></trkpt>
   <trkpt lat="37.5808273" lon="126.8137445"></trkpt>
   <trkpt lat="37.5809442" lon="126.8138522"></trkpt>
   <trkpt lat="37.5809442" lon="126.8138522"></trkpt>
   <trkpt lat="37.5809647" lon="126.8138135"></trkpt>
   <trkpt lat="37.5810347" lon="126.8139091"></trkpt>
   <trkpt lat="37.5810512" lon="126.8139588"></trkpt>
   <trkpt lat="37.5810512" lon="126.8139622"></trkpt>
   <trkpt lat="37.5810512" lon="126.8139622"></trkpt>
   <trkpt lat="37.5814447" lon="126.81327"></trkpt>
   <trkpt lat="37.5814447" lon="126.81327"></trkpt>
   <trkpt lat="37.5818351" lon="126.8136061"></trkpt>
   <trkpt lat="37.5819161" lon="126.813431"></trkpt>
   <trkpt lat="37.5819472" lon="126.8133616"></trkpt>
   <trkpt lat="37.5819472" lon="126.8133616"></trkpt>
   <trkpt lat="37.5819161" lon="126.813431"></trkpt>
   <trkpt lat="37.5818351" lon="126.8136061"></trkpt>
   <trkpt lat="37.5814447" lon="126.81327"></trkpt>
   <trkpt lat="37.5814447" lon="126.81327"></trkpt>
   <trkpt lat="37.5810512" lon="126.8139622"></trkpt>
   <trkpt lat="37.5810512" lon="126.8139622"></trkpt>
   <trkpt lat="37.5810512" lon="126.8139588"></trkpt>
   <trkpt lat="37.5810347" lon="126.8139091"></trkpt>
   <trkpt lat="37.5809647" lon="126.8138135"></trkpt>
   <trkpt lat="37.5809442" lon="126.8138522"></trkpt>
   <trkpt lat="37.5809442" lon="126.8138522"></trkpt>
   <trkpt lat="37.5808273" lon="126.8137445"></trkpt>
   <trkpt lat="37.5808273" lon="126.8137445"></trkpt>
   <trkpt lat="37.5807889" lon="126.8137981"></trkpt>
   <trkpt lat="37.5807359" lon="126.8138371"></trkpt>
   <trkpt lat="37.5806721" lon="126.8138626"></trkpt>
   <trkpt lat="37.5806035" lon="126.8138508"></trkpt>
   <trkpt lat="37.5802115" lon="126.8137049"></trkpt>
   <trkpt lat="37.5801293" lon="126.8136716"></trkpt>
   <trkpt lat="37.5800615" lon="126.8136473"></trkpt>
   <trkpt lat="37.579935" lon="126.8135987"></trkpt>
   <trkpt lat="37.5798573" lon="126.8135677"></trkpt>
   <trkpt lat="37.5791988" lon="126.81332"></trkpt>
   <trkpt lat="37.5787706" lon="126.8131496"></trkpt>
   <trkpt lat="37.5787615" lon="126.8131417"></trkpt>
   <trkpt lat="37.578757" lon="126.8131304"></trkpt>
   <trkpt lat="37.578757" lon="126.8131304"></trkpt>
   <trkpt lat="37.5785299" lon="126.8132933"></trkpt>
   <trkpt lat="37.5785299" lon="126.8132933"></trkpt>
   <trkpt lat="37.5785208" lon="126.8132866"></trkpt>
   <trkpt lat="37.5785055" lon="126.81328"></trkpt>
   <trkpt lat="37.5779019" lon="126.8130307"></trkpt>
   <trkpt lat="37.5770672" lon="126.8127133"></trkpt>
   <trkpt lat="37.5770546" lon="126.8127078"></trkpt>
   <trkpt lat="37.5769769" lon="126.8126791"></trkpt>
   <trkpt lat="37.5769073" lon="126.8126525"></trkpt>
   <trkpt lat="37.576761" lon="126.8125961"></trkpt>
   <trkpt lat="37.5762932" lon="126.8124328"></trkpt>
   <trkpt lat="37.5762752" lon="126.8124386"></trkpt>
   <trkpt lat="37.5762707" lon="126.8124466"></trkpt>
   <trkpt lat="37.5762609" lon="126.8124671"></trkpt>
   <trkpt lat="37.5762609" lon="126.8124671"></trkpt>
   <trkpt lat="37.5761859" lon="126.8124349"></trkpt>
   <trkpt lat="37.5761108" lon="126.8123892"></trkpt>
   <trkpt lat="37.5761108" lon="126.8123892"></trkpt>
   <trkpt lat="37.576107" lon="126.8123451"></trkpt>
   <trkpt lat="37.5760951" lon="126.8123191"></trkpt>
   <trkpt lat="37.576049" lon="126.8122912"></trkpt>
   <trkpt lat="37.5757341" lon="126.8120869"></trkpt>
   <trkpt lat="37.5752992" lon="126.8118497"></trkpt>
   <trkpt lat="37.5752721" lon="126.8118375"></trkpt>
   <trkpt lat="37.5752568" lon="126.8118387"></trkpt>
   <trkpt lat="37.5752479" lon="126.8118581"></trkpt>
   <trkpt lat="37.5752479" lon="126.8118581"></trkpt>
   <trkpt lat="37.5751837" lon="126.8118281"></trkpt>
   <trkpt lat="37.575162" lon="126.811817"></trkpt>
   <trkpt lat="37.575162" lon="126.811817"></trkpt>
   <trkpt lat="37.5751582" lon="126.8117875"></trkpt>
   <trkpt lat="37.5751491" lon="126.8117706"></trkpt>
   <trkpt lat="37.5751346" lon="126.8117549"></trkpt>
   <trkpt lat="37.5751048" lon="126.811745"></trkpt>
   <trkpt lat="37.5750624" lon="126.8117397"></trkpt>
   <trkpt lat="37.5747981" lon="126.8117093"></trkpt>
   <trkpt lat="37.574338" lon="126.8116411"></trkpt>
   <trkpt lat="37.5742929" lon="126.8116347"></trkpt>
   <trkpt lat="37.5742541" lon="126.8116283"></trkpt>
   <trkpt lat="37.5739249" lon="126.8115792"></trkpt>
   <trkpt lat="37.5736543" lon="126.8115523"></trkpt>
   <trkpt lat="37.5736255" lon="126.8115548"></trkpt>
   <trkpt lat="37.5736165" lon="126.8115617"></trkpt>
   <trkpt lat="37.5736103" lon="126.8115753"></trkpt>
   <trkpt lat="37.5736061" lon="126.8116331"></trkpt>
   <trkpt lat="37.5736061" lon="126.8116331"></trkpt>
   <trkpt lat="37.5735439" lon="126.8116371"></trkpt>
   <trkpt lat="37.5733782" lon="126.8116556"></trkpt>
   <trkpt lat="37.5733188" lon="126.8116641"></trkpt>
   <trkpt lat="37.5733188" lon="126.8116641"></trkpt>
   <trkpt lat="37.5733031" lon="126.8116053"></trkpt>
   <trkpt lat="37.5732885" lon="126.8115726"></trkpt>
   <trkpt lat="37.5732704" lon="126.8115592"></trkpt>
   <trkpt lat="37.5732469" lon="126.8115503"></trkpt>
   <trkpt lat="37.5730199" lon="126.8115717"></trkpt>
   <trkpt lat="37.5724936" lon="126.8115867"></trkpt>
   <trkpt lat="37.5724684" lon="126.8115881"></trkpt>
   <trkpt lat="37.572344" lon="126.8115938"></trkpt>
   <trkpt lat="37.572344" lon="126.8115938"></trkpt>
   <trkpt lat="37.5723454" lon="126.8115258"></trkpt>
   <trkpt lat="37.5723492" lon="126.8114023"></trkpt>
   <trkpt lat="37.5723236" lon="126.8113358"></trkpt>
   <trkpt lat="37.5723026" lon="126.8112861"></trkpt>
   <trkpt lat="37.5723026" lon="126.8112861"></trkpt>
   <trkpt lat="37.5721284" lon="126.8114066"></trkpt>
   <trkpt lat="37.5721284" lon="126.8114066"></trkpt>
   <trkpt lat="37.5717798" lon="126.811437"></trkpt>
   <trkpt lat="37.5716617" lon="126.8114449"></trkpt>
   <trkpt lat="37.5713302" lon="126.8114672"></trkpt>
   <trkpt lat="37.5711373" lon="126.8114769"></trkpt>
   <trkpt lat="37.5709031" lon="126.8114893"></trkpt>
   <trkpt lat="37.5707778" lon="126.8114961"></trkpt>
   <trkpt lat="37.5698083" lon="126.8115559"></trkpt>
   <trkpt lat="37.5698083" lon="126.8115559"></trkpt>
   <trkpt lat="37.5698634" lon="126.811423"></trkpt>
   <trkpt lat="37.5698634" lon="126.811423"></trkpt>
   <trkpt lat="37.5696732" lon="126.8112662"></trkpt>
   <trkpt lat="37.5696621" lon="126.81105"></trkpt>
   <trkpt lat="37.5696771" lon="126.8110102"></trkpt>
   <trkpt lat="37.569504" lon="126.8108397"></trkpt>
   <trkpt lat="37.569504" lon="126.8108397"></trkpt>
   <trkpt lat="37.5695899" lon="126.8107381"></trkpt>
   <trkpt lat="37.5697029" lon="126.8106306"></trkpt>
   <trkpt lat="37.5697029" lon="126.8106306"></trkpt>
   <trkpt lat="37.569558" lon="126.8103613"></trkpt>
   <trkpt lat="37.5695497" lon="126.8103365"></trkpt>
   <trkpt lat="37.5695907" lon="126.8102501"></trkpt>
   <trkpt lat="37.5695907" lon="126.8102501"></trkpt>
   <trkpt lat="37.569387" lon="126.8100991"></trkpt>
   <trkpt lat="37.569387" lon="126.8100991"></trkpt>
   <trkpt lat="37.5693787" lon="126.8099112"></trkpt>
   <trkpt lat="37.5693714" lon="126.8097368"></trkpt>
   <trkpt lat="37.5693702" lon="126.8096984"></trkpt>
   <trkpt lat="37.5693702" lon="126.8096984"></trkpt>
   <trkpt lat="37.5694821" lon="126.8097064"></trkpt>
   <trkpt lat="37.5695997" lon="126.8097823"></trkpt>
   <trkpt lat="37.5695997" lon="126.8097823"></trkpt>
   <trkpt lat="37.5694821" lon="126.8097064"></trkpt>
   <trkpt lat="37.5693702" lon="126.8096984"></trkpt>
   <trkpt lat="37.5693702" lon="126.8096984"></trkpt>
   <trkpt lat="37.5693714" lon="126.8097368"></trkpt>
   <trkpt lat="37.5693787" lon="126.8099112"></trkpt>
   <trkpt lat="37.569387" lon="126.8100991"></trkpt>
   <trkpt lat="37.569387" lon="126.8100991"></trkpt>
   <trkpt lat="37.5695907" lon="126.8102501"></trkpt>
   <trkpt lat="37.5695907" lon="126.8102501"></trkpt>
   <trkpt lat="37.5695497" lon="126.8103365"></trkpt>
   <trkpt lat="37.569558" lon="126.8103613"></trkpt>
   <trkpt lat="37.5697029" lon="126.8106306"></trkpt>
   <trkpt lat="37.5697029" lon="126.8106306"></trkpt>
   <trkpt lat="37.5695899" lon="126.8107381"></trkpt>
   <trkpt lat="37.569504" lon="126.8108397"></trkpt>
   <trkpt lat="37.569504" lon="126.8108397"></trkpt>
   <trkpt lat="37.5696771" lon="126.8110102"></trkpt>
   <trkpt lat="37.5696621" lon="126.81105"></trkpt>
   <trkpt lat="37.5696732" lon="126.8112662"></trkpt>
   <trkpt lat="37.5698634" lon="126.811423"></trkpt>
   <trkpt lat="37.5698634" lon="126.811423"></trkpt>
   <trkpt lat="37.5698083" lon="126.8115559"></trkpt>
   <trkpt lat="37.5698083" lon="126.8115559"></trkpt>
   <trkpt lat="37.5707778" lon="126.8114961"></trkpt>
   <trkpt lat="37.5709031" lon="126.8114893"></trkpt>
   <trkpt lat="37.5711373" lon="126.8114769"></trkpt>
   <trkpt lat="37.5713302" lon="126.8114672"></trkpt>
   <trkpt lat="37.5716617" lon="126.8114449"></trkpt>
   <trkpt lat="37.5717798" lon="126.811437"></trkpt>
   <trkpt lat="37.5721284" lon="126.8114066"></trkpt>
   <trkpt lat="37.5721284" lon="126.8114066"></trkpt>
   <trkpt lat="37.5723026" lon="126.8112861"></trkpt>
   <trkpt lat="37.5724282" lon="126.8111978"></trkpt>
   <trkpt lat="37.5724615" lon="126.8111771"></trkpt>
   <trkpt lat="37.5729256" lon="126.810867"></trkpt>
   <trkpt lat="37.5731752" lon="126.810696"></trkpt>
   <trkpt lat="37.5731752" lon="126.810696"></trkpt>
   <trkpt lat="37.5731124" lon="126.8102776"></trkpt>
   <trkpt lat="37.5730674" lon="126.8099779"></trkpt>
   <trkpt lat="37.5730674" lon="126.8099779"></trkpt>
   <trkpt lat="37.5731177" lon="126.8099605"></trkpt>
   <trkpt lat="37.573259" lon="126.8099218"></trkpt>
   <trkpt lat="37.573259" lon="126.8099218"></trkpt>
   <trkpt lat="37.5732866" lon="126.8100133"></trkpt>
   <trkpt lat="37.573445" lon="126.8099733"></trkpt>
   <trkpt lat="37.5737476" lon="126.8099297"></trkpt>
   <trkpt lat="37.5739359" lon="126.8099121"></trkpt>
   <trkpt lat="37.5740775" lon="126.8099312"></trkpt>
   <trkpt lat="37.5741614" lon="126.8099508"></trkpt>
   <trkpt lat="37.5742913" lon="126.8099621"></trkpt>
   <trkpt lat="37.5743499" lon="126.8099616"></trkpt>
   <trkpt lat="37.5743993" lon="126.8099373"></trkpt>
   <trkpt lat="37.5747742" lon="126.8096258"></trkpt>
   <trkpt lat="37.5747742" lon="126.8096258"></trkpt>
   <trkpt lat="37.5748086" lon="126.8096425"></trkpt>
   <trkpt lat="37.5748738" lon="126.8096917"></trkpt>
   <trkpt lat="37.5748738" lon="126.8096917"></trkpt>
   <trkpt lat="37.5749137" lon="126.8095747"></trkpt>
   <trkpt lat="37.5749337" lon="126.8094647"></trkpt>
   <trkpt lat="37.5749614" lon="126.8094191"></trkpt>
   <trkpt lat="37.5749911" lon="126.8094007"></trkpt>
   <trkpt lat="37.5749911" lon="126.8094007"></trkpt>
   <trkpt lat="37.5750097" lon="126.8091956"></trkpt>
  </trkseg>
 </trk>
</gpx>
