<?xml version="1.0" encoding="UTF-8"?>
<gpx creator="daengrun-naver-route" version="1.1" xmlns="http://www.topografix.com/GPX/1/1" xmlns:xsi="http://www.w3.org/2001/XMLSchema-instance" xsi:schemaLocation="http://www.topografix.com/GPX/1/1 http://www.topografix.com/GPX/1/1/gpx.xsd">
 <metadata>
  <name>강서 새개공원·다솔공원 루프 3.81km</name>
  <desc>daengrun candidate geometry — measured 3.81km via Naver pedestrian router (o=flat, 계단회피). Elevation NOT available from this source. stairs=0 crosswalk=14 steppingstone=0 underpass=0 overpass=0</desc>
  <link href="naver:e8ys39"><text>daengrun route id</text></link>
  <copyright author="NAVER Corp."><license>https://map.naver.com/</license></copyright>
 </metadata>
 <trk>
  <name>강서 새개공원·다솔공원 루프 3.81km</name>
  <trkseg>
   <trkpt lat="37.5515734" lon="126.8237399"></trkpt>
   <trkpt lat="37.551905" lon="126.8240347"></trkpt>
   <trkpt lat="37.551905" lon="126.8240347"></trkpt>
   <trkpt lat="37.5518558" lon="126.8241087"></trkpt>
   <trkpt lat="37.5517773" lon="126.8242373"></trkpt>
   <trkpt lat="37.5517274" lon="126.8243419"></trkpt>
   <trkpt lat="37.5515323" lon="126.8247377"></trkpt>
   <trkpt lat="37.5514298" lon="126.8249458"></trkpt>
   <trkpt lat="37.5513933" lon="126.8250276"></trkpt>
   <trkpt lat="37.5513933" lon="126.8250276"></trkpt>
   <trkpt lat="37.5514566" lon="126.8250701"></trkpt>
   <trkpt lat="37.5519468" lon="126.82536"></trkpt>
   <trkpt lat="37.5519477" lon="126.82536"></trkpt>
   <trkpt lat="37.5521991" lon="126.8255071"></trkpt>
   <trkpt lat="37.5524025" lon="126.825614"></trkpt>
   <trkpt lat="37.5526338" lon="126.8257093"></trkpt>
   <trkpt lat="37.5528361" lon="126.8257754"></trkpt>
   <trkpt lat="37.5529833" lon="126.8258137"></trkpt>
   <trkpt lat="37.5530789" lon="126.8258309"></trkpt>
   <trkpt lat="37.5535029" lon="126.8259052"></trkpt>
   <trkpt lat="37.5535589" lon="126.8259104"></trkpt>
   <trkpt lat="37.5536057" lon="126.8259122"></trkpt>
   <trkpt lat="37.5536436" lon="126.8259051"></trkpt>
   <trkpt lat="37.5536686" lon="126.8258709"></trkpt>
   <trkpt lat="37.5536819" lon="126.8258357"></trkpt>
   <trkpt lat="37.5536819" lon="126.8258357"></trkpt>
   <trkpt lat="37.5537595" lon="126.8258452"></trkpt>
   <trkpt lat="37.5538416" lon="126.8258535"></trkpt>
   <trkpt lat="37.5538416" lon="126.8258535"></trkpt>
   <trkpt lat="37.5538481" lon="126.8258965"></trkpt>
   <trkpt lat="37.5538691" lon="126.8259348"></trkpt>
   <trkpt lat="37.5538953" lon="126.8259572"></trkpt>
   <trkpt lat="37.5539432" lon="126.8259749"></trkpt>
   <trkpt lat="37.5542571" lon="126.8260184"></trkpt>
   <trkpt lat="37.5546874" lon="126.826087"></trkpt>
   <trkpt lat="37.555107" lon="126.8261557"></trkpt>
   <trkpt lat="37.555291" lon="126.826179"></trkpt>
   <trkpt lat="37.5554344" lon="126.8261935"></trkpt>
   <trkpt lat="37.5554768" lon="126.8261988"></trkpt>
   <trkpt lat="37.5554912" lon="126.8261998"></trkpt>
   <trkpt lat="37.5556229" lon="126.8262145"></trkpt>
   <trkpt lat="37.5556644" lon="126.8262209"></trkpt>
   <trkpt lat="37.5561253" lon="126.8262767"></trkpt>
   <trkpt lat="37.5565916" lon="126.8263348"></trkpt>
   <trkpt lat="37.557057" lon="126.8263918"></trkpt>
   <trkpt lat="37.5571021" lon="126.8263981"></trkpt>
   <trkpt lat="37.5574846" lon="126.8264445"></trkpt>
   <trkpt lat="37.5579085" lon="126.8264984"></trkpt>
   <trkpt lat="37.5579085" lon="126.8264984"></trkpt>
   <trkpt lat="37.5578865" lon="126.8267545"></trkpt>
   <trkpt lat="37.5578865" lon="126.8267545"></trkpt>
   <trkpt lat="37.5579199" lon="126.8267678"></trkpt>
   <trkpt lat="37.5579362" lon="126.8267756"></trkpt>
   <trkpt lat="37.5579471" lon="126.8267857"></trkpt>
   <trkpt lat="37.5579589" lon="126.8268093"></trkpt>
   <trkpt lat="37.557969" lon="126.8268432"></trkpt>
   <trkpt lat="37.5579596" lon="126.8269237"></trkpt>
   <trkpt lat="37.5578327" lon="126.8280593"></trkpt>
   <trkpt lat="37.5578032" lon="126.8282679"></trkpt>
   <trkpt lat="37.5577909" lon="126.8284763"></trkpt>
   <trkpt lat="37.5577268" lon="126.8294212"></trkpt>
   <trkpt lat="37.5577268" lon="126.8294212"></trkpt>
   <trkpt lat="37.5578576" lon="126.8294347"></trkpt>
   <trkpt lat="37.5578553" lon="126.829497"></trkpt>
   <trkpt lat="37.5578692" lon="126.8295637"></trkpt>
   <trkpt lat="37.5579108" lon="126.8295927"></trkpt>
   <trkpt lat="37.5579595" lon="126.8296014"></trkpt>
   <trkpt lat="37.5579424" lon="126.8297736"></trkpt>
   <trkpt lat="37.5579424" lon="126.8297736"></trkpt>
   <trkpt lat="37.5578929" lon="126.829782"></trkpt>
   <trkpt lat="37.5578803" lon="126.8297866"></trkpt>
   <trkpt lat="37.5578935" lon="126.8298827"></trkpt>
   <trkpt lat="37.5579933" lon="126.8300052"></trkpt>
   <trkpt lat="37.5580396" lon="126.8300614"></trkpt>
   <trkpt lat="37.5581302" lon="126.8301376"></trkpt>
   <trkpt lat="37.5581582" lon="126.8301521"></trkpt>
   <trkpt lat="37.5582061" lon="126.8301766"></trkpt>
   <trkpt lat="37.5582296" lon="126.8301809"></trkpt>
   <trkpt lat="37.5582296" lon="126.8301809"></trkpt>
   <trkpt lat="37.5582711" lon="126.8301896"></trkpt>
   <trkpt lat="37.5583287" lon="126.8301777"></trkpt>
   <trkpt lat="37.5583898" lon="126.8301387"></trkpt>
   <trkpt lat="37.5584569" lon="126.8300543"></trkpt>
   <trkpt lat="37.5584721" lon="126.8300361"></trkpt>
   <trkpt lat="37.5585401" lon="126.8299449"></trkpt>
   <trkpt lat="37.558601" lon="126.8298741"></trkpt>
   <trkpt lat="37.558601" lon="126.8298741"></trkpt>
   <trkpt lat="37.5586189" lon="126.829686"></trkpt>
   <trkpt lat="37.5587406" lon="126.8296985"></trkpt>
   <trkpt lat="37.5587406" lon="126.8296985"></trkpt>
   <trkpt lat="37.5592224" lon="126.8297735"></trkpt>
   <trkpt lat="37.5592224" lon="126.8297735"></trkpt>
   <trkpt lat="37.55923" lon="126.8296885"></trkpt>
   <trkpt lat="37.5593495" lon="126.8283627"></trkpt>
   <trkpt lat="37.5594166" lon="126.8276273"></trkpt>
   <trkpt lat="37.5594427" lon="126.8273044"></trkpt>
   <trkpt lat="37.5594449" lon="126.8272217"></trkpt>
   <trkpt lat="37.5594283" lon="126.8271505"></trkpt>
   <trkpt lat="37.5593972" lon="126.8270817"></trkpt>
   <trkpt lat="37.5593972" lon="126.8270817"></trkpt>
   <trkpt lat="37.5594618" lon="126.8270234"></trkpt>
   <trkpt lat="37.5595074" lon="126.8266437"></trkpt>
   <trkpt lat="37.5594592" lon="126.8265751"></trkpt>
   <trkpt lat="37.5594592" lon="126.8265751"></trkpt>
   <trkpt lat="37.5594967" lon="126.8265136"></trkpt>
   <trkpt lat="37.559525" lon="126.8264069"></trkpt>
   <trkpt lat="37.5595912" lon="126.8258583"></trkpt>
   <trkpt lat="37.5596397" lon="126.8253438"></trkpt>
   <trkpt lat="37.5596568" lon="126.8251908"></trkpt>
   <trkpt lat="37.5596735" lon="126.8249529"></trkpt>
   <trkpt lat="37.5598096" lon="126.8238444"></trkpt>
   <trkpt lat="37.5598096" lon="126.8238444"></trkpt>
   <trkpt lat="37.5598344" lon="126.8236098"></trkpt>
   <trkpt lat="37.5598344" lon="126.8236098"></trkpt>
   <trkpt lat="37.5594519" lon="126.8235543"></trkpt>
   <trkpt lat="37.5593905" lon="126.823547"></trkpt>
   <trkpt lat="37.5590739" lon="126.8235023"></trkpt>
   <trkpt lat="37.5589828" lon="126.8234895"></trkpt>
   <trkpt lat="37.5588692" lon="126.8234736"></trkpt>
   <trkpt lat="37.5588105" lon="126.8234662"></trkpt>
   <trkpt lat="37.5585751" lon="126.8234332"></trkpt>
   <trkpt lat="37.5585317" lon="126.8234211"></trkpt>
   <trkpt lat="37.5584965" lon="126.8234022"></trkpt>
   <trkpt lat="37.5584809" lon="126.8233537"></trkpt>
   <trkpt lat="37.5584724" lon="126.8232949"></trkpt>
   <trkpt lat="37.5584724" lon="126.8232949"></trkpt>
   <trkpt lat="37.5583073" lon="126.8232692"></trkpt>
   <trkpt lat="37.5583073" lon="126.8232692"></trkpt>
   <trkpt lat="37.5582977" lon="126.8233146"></trkpt>
   <trkpt lat="37.5582825" lon="126.8233453"></trkpt>
   <trkpt lat="37.5582584" lon="126.8233715"></trkpt>
   <trkpt lat="37.5582323" lon="126.8233865"></trkpt>
   <trkpt lat="37.5578688" lon="126.8233343"></trkpt>
   <trkpt lat="37.557745" lon="126.8232935"></trkpt>
   <trkpt lat="37.5576183" lon="126.8232018"></trkpt>
   <trkpt lat="37.5575585" lon="126.823139"></trkpt>
   <trkpt lat="37.5574814" lon="126.8230593"></trkpt>
   <trkpt lat="37.5573652" lon="126.8229109"></trkpt>
   <trkpt lat="37.5572226" lon="126.8227208"></trkpt>
   <trkpt lat="37.5569864" lon="126.8224048"></trkpt>
   <trkpt lat="37.556397" lon="126.8216222"></trkpt>
   <trkpt lat="37.5562489" lon="126.8214242"></trkpt>
   <trkpt lat="37.5561072" lon="126.8212364"></trkpt>
   <trkpt lat="37.5554395" lon="126.8203288"></trkpt>
   <trkpt lat="37.5553668" lon="126.8202321"></trkpt>
   <trkpt lat="37.5553668" lon="126.8202321"></trkpt>
   <trkpt lat="37.5553332" lon="126.8201883"></trkpt>
   <trkpt lat="37.5553105" lon="126.8201579"></trkpt>
   <trkpt lat="37.5553105" lon="126.8201579"></trkpt>
   <trkpt lat="37.5552542" lon="126.8200815"></trkpt>
   <trkpt lat="37.5546855" lon="126.8193009"></trkpt>
   <trkpt lat="37.5545265" lon="126.8190872"></trkpt>
   <trkpt lat="37.5545265" lon="126.8190872"></trkpt>
   <trkpt lat="37.554684" lon="126.8188888"></trkpt>
   <trkpt lat="37.5547279" lon="126.8188397"></trkpt>
   <trkpt lat="37.5547279" lon="126.8188397"></trkpt>
   <trkpt lat="37.5546652" lon="126.8187509"></trkpt>
   <trkpt lat="37.5546652" lon="126.8187509"></trkpt>
   <trkpt lat="37.554897" lon="126.8184759"></trkpt>
   <trkpt lat="37.5549167" lon="126.8184497"></trkpt>
   <trkpt lat="37.5549167" lon="126.8184497"></trkpt>
   <trkpt lat="37.5548688" lon="126.818423"></trkpt>
   <trkpt lat="37.5545783" lon="126.818386"></trkpt>
   <trkpt lat="37.5545783" lon="126.818386"></trkpt>
   <trkpt lat="37.5545715" lon="126.8182989"></trkpt>
   <trkpt lat="37.5545715" lon="126.8182989"></trkpt>
   <trkpt lat="37.5545783" lon="126.818386"></trkpt>
   <trkpt lat="37.5545783" lon="126.818386"></trkpt>
   <trkpt lat="37.5548688" lon="126.818423"></trkpt>
   <trkpt lat="37.5549167" lon="126.8184497"></trkpt>
   <trkpt lat="37.5549167" lon="126.8184497"></trkpt>
   <trkpt lat="37.554897" lon="126.8184759"></trkpt>
   <trkpt lat="37.5546652" lon="126.8187509"></trkpt>
   <trkpt lat="37.5546652" lon="126.8187509"></trkpt>
   <trkpt lat="37.5547279" lon="126.8188397"></trkpt>
   <trkpt lat="37.5547279" lon="126.8188397"></trkpt>
   <trkpt lat="37.554684" lon="126.8188888"></trkpt>
   <trkpt lat="37.5545265" lon="126.8190872"></trkpt>
   <trkpt lat="37.5545265" lon="126.8190872"></trkpt>
   <trkpt lat="37.5546855" lon="126.8193009"></trkpt>
   <trkpt lat="37.5546855" lon="126.8193009"></trkpt>
   <trkpt lat="37.5545708" lon="126.8194208"></trkpt>
   <trkpt lat="37.554518" lon="126.8194802"></trkpt>
   <trkpt lat="37.554518" lon="126.8194802"></trkpt>
   <trkpt lat="37.5544227" lon="126.8193667"></trkpt>
   <trkpt lat="37.5544227" lon="126.8193667"></trkpt>
   <trkpt lat="37.5544049" lon="126.8194133"></trkpt>
   <trkpt lat="37.5543248" lon="126.8195872"></trkpt>
   <trkpt lat="37.5543247" lon="126.8197367"></trkpt>
   <trkpt lat="37.5543578" lon="126.8198496"></trkpt>
   <trkpt lat="37.5544013" lon="126.819882"></trkpt>
   <trkpt lat="37.5544746" lon="126.8199368"></trkpt>
   <trkpt lat="37.5545317" lon="126.8199941"></trkpt>
   <trkpt lat="37.5546369" lon="126.8200973"></trkpt>
   <trkpt lat="37.5547157" lon="126.8201747"></trkpt>
   <trkpt lat="37.5548747" lon="126.8203872"></trkpt>
   <trkpt lat="37.5549579" lon="126.8205868"></trkpt>
   <trkpt lat="37.5549909" lon="126.8208367"></trkpt>
   <trkpt lat="37.5549909" lon="126.8208401"></trkpt>
   <trkpt lat="37.5549745" lon="126.8211245"></trkpt>
   <trkpt lat="37.554883" lon="126.8213619"></trkpt>
   <trkpt lat="37.554858" lon="126.8213995"></trkpt>
   <trkpt lat="37.5547416" lon="126.8215364"></trkpt>
   <trkpt lat="37.5545489" lon="126.821717"></trkpt>
   <trkpt lat="37.5545408" lon="126.8217239"></trkpt>
   <trkpt lat="37.5544662" lon="126.8217619"></trkpt>
   <trkpt lat="37.554441" lon="126.8217746"></trkpt>
   <trkpt lat="37.5542972" lon="126.8218416"></trkpt>
   <trkpt lat="37.554219" lon="126.8218774"></trkpt>
   <trkpt lat="37.5541992" lon="126.8218866"></trkpt>
   <trkpt lat="37.5540005" lon="126.8219631"></trkpt>
   <trkpt lat="37.5538745" lon="126.8220118"></trkpt>
   <trkpt lat="37.5538161" lon="126.8220373"></trkpt>
   <trkpt lat="37.5537026" lon="126.8220564"></trkpt>
   <trkpt lat="37.5535325" lon="126.8220874"></trkpt>
   <trkpt lat="37.5532611" lon="126.8220774"></trkpt>
   <trkpt lat="37.5531827" lon="126.8220747"></trkpt>
   <trkpt lat="37.5530997" lon="126.8220743"></trkpt>
   <trkpt lat="37.5530889" lon="126.8220722"></trkpt>
   <trkpt lat="37.552995" lon="126.8220481"></trkpt>
   <trkpt lat="37.5527495" lon="126.8219869"></trkpt>
   <trkpt lat="37.5527495" lon="126.8219869"></trkpt>
   <trkpt lat="37.5528412" lon="126.8222499"></trkpt>
   <trkpt lat="37.5530071" lon="126.8225733"></trkpt>
   <trkpt lat="37.5530071" lon="126.8225733"></trkpt>
   <trkpt lat="37.552761" lon="126.822888"></trkpt>
   <trkpt lat="37.5527082" lon="126.8229575"></trkpt>
   <trkpt lat="37.5527409" lon="126.8229969"></trkpt>
   <trkpt lat="37.5527409" lon="126.8229969"></trkpt>
   <trkpt lat="37.5526631" lon="126.8230972"></trkpt>
   <trkpt lat="37.5526631" lon="126.8230972"></trkpt>
   <trkpt lat="37.5526313" lon="126.8230567"></trkpt>
   <trkpt lat="37.5520775" lon="126.8237784"></trkpt>
   <trkpt lat="37.551905" lon="126.8240347"></trkpt>
   <trkpt lat="37.551905" lon="126.8240347"></trkpt>
   <trkpt lat="37.5515734" lon="126.8237399"></trkpt>
  </trkseg>
 </trk>
</gpx>
