<?xml version="1.0" encoding="UTF-8"?>
<gpx creator="daengrun-naver-route" version="1.1" xmlns="http://www.topografix.com/GPX/1/1" xmlns:xsi="http://www.w3.org/2001/XMLSchema-instance" xsi:schemaLocation="http://www.topografix.com/GPX/1/1 http://www.topografix.com/GPX/1/1/gpx.xsd">
 <metadata>
  <name>강서 공항대로36가길 루프 2.85km</name>
  <desc>daengrun candidate geometry — measured 2.85km via Naver pedestrian router (o=flat, 계단회피). Elevation NOT available from this source. stairs=0 crosswalk=4 steppingstone=0 underpass=0 overpass=0</desc>
  <link href="naver:12g37d8"><text>daengrun route id</text></link>
  <copyright author="NAVER Corp."><license>https://map.naver.com/</license></copyright>
 </metadata>
 <trk>
  <name>강서 공항대로36가길 루프 2.85km</name>
  <trkseg>
   <trkpt lat="37.5525844" lon="126.8320734"></trkpt>
   <trkpt lat="37.5529304" lon="126.8319027"></trkpt>
   <trkpt lat="37.5530204" lon="126.831868"></trkpt>
   <trkpt lat="37.5530204" lon="126.831868"></trkpt>
   <trkpt lat="37.5530068" lon="126.8320153"></trkpt>
   <trkpt lat="37.5529264" lon="126.8327824"></trkpt>
   <trkpt lat="37.5529127" lon="126.8329173"></trkpt>
   <trkpt lat="37.5529127" lon="126.8329173"></trkpt>
   <trkpt lat="37.5529606" lon="126.8329248"></trkpt>
   <trkpt lat="37.5529975" lon="126.8329301"></trkpt>
   <trkpt lat="37.5529975" lon="126.8329301"></trkpt>
   <trkpt lat="37.5530154" lon="126.8327499"></trkpt>
   <trkpt lat="37.5530154" lon="126.8327499"></trkpt>
   <trkpt lat="37.5534168" lon="126.8326309"></trkpt>
   <trkpt lat="37.5538326" lon="126.8326781"></trkpt>
   <trkpt lat="37.5538326" lon="126.8326781"></trkpt>
   <trkpt lat="37.5538377" lon="126.8327913"></trkpt>
   <trkpt lat="37.5538743" lon="126.8328872"></trkpt>
   <trkpt lat="37.5538743" lon="126.8328872"></trkpt>
   <trkpt lat="37.5539225" lon="126.832803"></trkpt>
   <trkpt lat="37.5539225" lon="126.832803"></trkpt>
   <trkpt lat="37.5538743" lon="126.8328872"></trkpt>
   <trkpt lat="37.5536734" lon="126.8333758"></trkpt>
   <trkpt lat="37.5533159" lon="126.8342372"></trkpt>
   <trkpt lat="37.5532385" lon="126.8344201"></trkpt>
   <trkpt lat="37.5532385" lon="126.8344201"></trkpt>
   <trkpt lat="37.5529119" lon="126.8343675"></trkpt>
   <trkpt lat="37.5528542" lon="126.8343624"></trkpt>
   <trkpt lat="37.5528542" lon="126.8343624"></trkpt>
   <trkpt lat="37.5528422" lon="126.8344723"></trkpt>
   <trkpt lat="37.5528227" lon="126.8346989"></trkpt>
   <trkpt lat="37.5527989" lon="126.8349448"></trkpt>
   <trkpt lat="37.5527692" lon="126.8352677"></trkpt>
   <trkpt lat="37.5527469" lon="126.835474"></trkpt>
   <trkpt lat="37.5527332" lon="126.8356032"></trkpt>
   <trkpt lat="37.5526771" lon="126.8362093"></trkpt>
   <trkpt lat="37.5527475" lon="126.8362302"></trkpt>
   <trkpt lat="37.5527475" lon="126.8362302"></trkpt>
   <trkpt lat="37.5527411" lon="126.8363605"></trkpt>
   <trkpt lat="37.5527348" lon="126.8365337"></trkpt>
   <trkpt lat="37.5527348" lon="126.8365337"></trkpt>
   <trkpt lat="37.5534671" lon="126.8367707"></trkpt>
   <trkpt lat="37.5536162" lon="126.8368271"></trkpt>
   <trkpt lat="37.5542862" lon="126.8370544"></trkpt>
   <trkpt lat="37.554633" lon="126.8371668"></trkpt>
   <trkpt lat="37.5547531" lon="126.8372008"></trkpt>
   <trkpt lat="37.5547531" lon="126.8372008"></trkpt>
   <trkpt lat="37.5547284" lon="126.8374671"></trkpt>
   <trkpt lat="37.5547284" lon="126.8374671"></trkpt>
   <trkpt lat="37.5547531" lon="126.8372008"></trkpt>
   <trkpt lat="37.5547531" lon="126.8372008"></trkpt>
   <trkpt lat="37.554633" lon="126.8371668"></trkpt>
   <trkpt lat="37.5542862" lon="126.8370544"></trkpt>
   <trkpt lat="37.5536162" lon="126.8368271"></trkpt>
   <trkpt lat="37.5534671" lon="126.8367707"></trkpt>
   <trkpt lat="37.5527348" lon="126.8365337"></trkpt>
   <trkpt lat="37.5527348" lon="126.8365337"></trkpt>
   <trkpt lat="37.5527411" lon="126.8363605"></trkpt>
   <trkpt lat="37.5527475" lon="126.8362302"></trkpt>
   <trkpt lat="37.5526771" lon="126.8362093"></trkpt>
   <trkpt lat="37.5525968" lon="126.8361908"></trkpt>
   <trkpt lat="37.5525968" lon="126.8361908"></trkpt>
   <trkpt lat="37.5525138" lon="126.8361836"></trkpt>
   <trkpt lat="37.5521028" lon="126.8361816"></trkpt>
   <trkpt lat="37.5508157" lon="126.8361919"></trkpt>
   <trkpt lat="37.5507121" lon="126.8361905"></trkpt>
   <trkpt lat="37.5494897" lon="126.8361708"></trkpt>
   <trkpt lat="37.5494212" lon="126.8361703"></trkpt>
   <trkpt lat="37.5493672" lon="126.8361696"></trkpt>
   <trkpt lat="37.5489227" lon="126.8361611"></trkpt>
   <trkpt lat="37.5484316" lon="126.8361711"></trkpt>
   <trkpt lat="37.5481215" lon="126.836175"></trkpt>
   <trkpt lat="37.5480639" lon="126.8361767"></trkpt>
   <trkpt lat="37.5480639" lon="126.8361767"></trkpt>
   <trkpt lat="37.5480439" lon="126.8361621"></trkpt>
   <trkpt lat="37.5480312" lon="126.8361362"></trkpt>
   <trkpt lat="37.5480269" lon="126.8355408"></trkpt>
   <trkpt lat="37.5480255" lon="126.8354559"></trkpt>
   <trkpt lat="37.5480189" lon="126.8350801"></trkpt>
   <trkpt lat="37.5480171" lon="126.8349126"></trkpt>
   <trkpt lat="37.548014" lon="126.8342039"></trkpt>
   <trkpt lat="37.548014" lon="126.83405"></trkpt>
   <trkpt lat="37.5480172" lon="126.8334918"></trkpt>
   <trkpt lat="37.5480193" lon="126.8333899"></trkpt>
   <trkpt lat="37.5480186" lon="126.8332564"></trkpt>
   <trkpt lat="37.548032" lon="126.8330842"></trkpt>
   <trkpt lat="37.5480656" lon="126.832965"></trkpt>
   <trkpt lat="37.5480948" lon="126.8328787"></trkpt>
   <trkpt lat="37.5481405" lon="126.832816"></trkpt>
   <trkpt lat="37.5481978" lon="126.8327487"></trkpt>
   <trkpt lat="37.5484323" lon="126.8326244"></trkpt>
   <trkpt lat="37.5484584" lon="126.8326117"></trkpt>
   <trkpt lat="37.5488529" lon="126.8324123"></trkpt>
   <trkpt lat="37.5488529" lon="126.8324123"></trkpt>
   <trkpt lat="37.5493832" lon="126.8321438"></trkpt>
   <trkpt lat="37.54943" lon="126.8321242"></trkpt>
   <trkpt lat="37.5494875" lon="126.8320976"></trkpt>
   <trkpt lat="37.5495702" lon="126.8320595"></trkpt>
   <trkpt lat="37.5496134" lon="126.8320388"></trkpt>
   <trkpt lat="37.5496619" lon="126.8320146"></trkpt>
   <trkpt lat="37.5497805" lon="126.8319558"></trkpt>
   <trkpt lat="37.549821" lon="126.8319362"></trkpt>
   <trkpt lat="37.5500079" lon="126.8318439"></trkpt>
   <trkpt lat="37.5502695" lon="126.8317159"></trkpt>
   <trkpt lat="37.550372" lon="126.8316629"></trkpt>
   <trkpt lat="37.5505697" lon="126.8315649"></trkpt>
   <trkpt lat="37.5510865" lon="126.8313113"></trkpt>
   <trkpt lat="37.5511575" lon="126.8312721"></trkpt>
   <trkpt lat="37.5511971" lon="126.8312514"></trkpt>
   <trkpt lat="37.5517678" lon="126.8309644"></trkpt>
   <trkpt lat="37.5518226" lon="126.8309367"></trkpt>
   <trkpt lat="37.5518963" lon="126.830901"></trkpt>
   <trkpt lat="37.5522748" lon="126.8307221"></trkpt>
   <trkpt lat="37.5525058" lon="126.8306102"></trkpt>
   <trkpt lat="37.5530469" lon="126.8303405"></trkpt>
   <trkpt lat="37.5531224" lon="126.8303036"></trkpt>
   <trkpt lat="37.5531486" lon="126.8303124"></trkpt>
   <trkpt lat="37.5531712" lon="126.8303292"></trkpt>
   <trkpt lat="37.5531712" lon="126.8303292"></trkpt>
   <trkpt lat="37.5531796" lon="126.8303744"></trkpt>
   <trkpt lat="37.55312" lon="126.8308391"></trkpt>
   <trkpt lat="37.5531182" lon="126.830847"></trkpt>
   <trkpt lat="37.5531087" lon="126.8309207"></trkpt>
   <trkpt lat="37.5530994" lon="126.8310182"></trkpt>
   <trkpt lat="37.5530884" lon="126.8311553"></trkpt>
   <trkpt lat="37.5530792" lon="126.8312731"></trkpt>
   <trkpt lat="37.5530556" lon="126.8315597"></trkpt>
   <trkpt lat="37.5530204" lon="126.831868"></trkpt>
   <trkpt lat="37.5530204" lon="126.831868"></trkpt>
   <trkpt lat="37.5529304" lon="126.8319027"></trkpt>
   <trkpt lat="37.5525844" lon="126.8320734"></trkpt>
  </trkseg>
 </trk>
</gpx>
