<?xml version="1.0" encoding="UTF-8"?>
<gpx creator="daengrun-naver-route" version="1.1" xmlns="http://www.topografix.com/GPX/1/1" xmlns:xsi="http://www.w3.org/2001/XMLSchema-instance" xsi:schemaLocation="http://www.topografix.com/GPX/1/1 http://www.topografix.com/GPX/1/1/gpx.xsd">
 <metadata>
  <name>강서 백합공원·미리내공원 루프 5.04km</name>
  <desc>daengrun candidate geometry — measured 5.04km via Naver pedestrian router (o=flat, 계단회피). Elevation NOT available from this source. stairs=0 crosswalk=8 steppingstone=0 underpass=2 overpass=0</desc>
  <link href="naver:1n5bm00"><text>daengrun route id</text></link>
  <copyright author="NAVER Corp."><license>https://map.naver.com/</license></copyright>
 </metadata>
 <trk>
  <name>강서 백합공원·미리내공원 루프 5.04km</name>
  <trkseg>
   <trkpt lat="37.5525844" lon="126.8320734"></trkpt>
   <trkpt lat="37.5529304" lon="126.8319027"></trkpt>
   <trkpt lat="37.5530204" lon="126.831868"></trkpt>
   <trkpt lat="37.5530204" lon="126.831868"></trkpt>
   <trkpt lat="37.5530068" lon="126.8320153"></trkpt>
   <trkpt lat="37.5529264" lon="126.8327824"></trkpt>
   <trkpt lat="37.5529127" lon="126.8329173"></trkpt>
   <trkpt lat="37.5529127" lon="126.8329173"></trkpt>
   <trkpt lat="37.5529606" lon="126.8329248"></trkpt>
   <trkpt lat="37.5529975" lon="126.8329301"></trkpt>
   <trkpt lat="37.5529975" lon="126.8329301"></trkpt>
   <trkpt lat="37.552867" lon="126.834231"></trkpt>
   <trkpt lat="37.5528542" lon="126.8343624"></trkpt>
   <trkpt lat="37.5528422" lon="126.8344723"></trkpt>
   <trkpt lat="37.5528227" lon="126.8346989"></trkpt>
   <trkpt lat="37.5527989" lon="126.8349448"></trkpt>
   <trkpt lat="37.5527692" lon="126.8352677"></trkpt>
   <trkpt lat="37.5527469" lon="126.835474"></trkpt>
   <trkpt lat="37.5527332" lon="126.8356032"></trkpt>
   <trkpt lat="37.5526771" lon="126.8362093"></trkpt>
   <trkpt lat="37.5526771" lon="126.8362093"></trkpt>
   <trkpt lat="37.5527475" lon="126.8362302"></trkpt>
   <trkpt lat="37.5534843" lon="126.8364524"></trkpt>
   <trkpt lat="37.5536532" lon="126.8365098"></trkpt>
   <trkpt lat="37.5543197" lon="126.836745"></trkpt>
   <trkpt lat="37.5546899" lon="126.8368583"></trkpt>
   <trkpt lat="37.5547919" lon="126.836888"></trkpt>
   <trkpt lat="37.5547919" lon="126.836888"></trkpt>
   <trkpt lat="37.5548885" lon="126.8369177"></trkpt>
   <trkpt lat="37.5548885" lon="126.8369177"></trkpt>
   <trkpt lat="37.5550402" lon="126.8369684"></trkpt>
   <trkpt lat="37.5553436" lon="126.8370733"></trkpt>
   <trkpt lat="37.5555351" lon="126.8371384"></trkpt>
   <trkpt lat="37.5556127" lon="126.8371615"></trkpt>
   <trkpt lat="37.5556416" lon="126.8371692"></trkpt>
   <trkpt lat="37.5562429" lon="126.8373529"></trkpt>
   <trkpt lat="37.5565382" lon="126.8374397"></trkpt>
   <trkpt lat="37.5566122" lon="126.8374629"></trkpt>
   <trkpt lat="37.5575613" lon="126.8377817"></trkpt>
   <trkpt lat="37.5579324" lon="126.8378995"></trkpt>
   <trkpt lat="37.5580308" lon="126.8379247"></trkpt>
   <trkpt lat="37.5580803" lon="126.8379197"></trkpt>
   <trkpt lat="37.5581307" lon="126.8379057"></trkpt>
   <trkpt lat="37.5582027" lon="126.83787"></trkpt>
   <trkpt lat="37.5582762" lon="126.8378138"></trkpt>
   <trkpt lat="37.5582762" lon="126.8378138"></trkpt>
   <trkpt lat="37.5583067" lon="126.837783"></trkpt>
   <trkpt lat="37.5583067" lon="126.837783"></trkpt>
   <trkpt lat="37.5583141" lon="126.8378078"></trkpt>
   <trkpt lat="37.5583697" lon="126.8377609"></trkpt>
   <trkpt lat="37.5585875" lon="126.8381858"></trkpt>
   <trkpt lat="37.5588007" lon="126.8385983"></trkpt>
   <trkpt lat="37.5587657" lon="126.8386281"></trkpt>
   <trkpt lat="37.5587921" lon="126.8386765"></trkpt>
   <trkpt lat="37.5587921" lon="126.8386765"></trkpt>
   <trkpt lat="37.5587537" lon="126.8387301"></trkpt>
   <trkpt lat="37.5587403" lon="126.8387574"></trkpt>
   <trkpt lat="37.5587136" lon="126.8388074"></trkpt>
   <trkpt lat="37.5586976" lon="126.8388506"></trkpt>
   <trkpt lat="37.5586899" lon="126.8389367"></trkpt>
   <trkpt lat="37.5586806" lon="126.8390387"></trkpt>
   <trkpt lat="37.558541" lon="126.8403488"></trkpt>
   <trkpt lat="37.5583812" lon="126.8419228"></trkpt>
   <trkpt lat="37.5583735" lon="126.8419965"></trkpt>
   <trkpt lat="37.5583582" lon="126.8421551"></trkpt>
   <trkpt lat="37.5583436" lon="126.84229"></trkpt>
   <trkpt lat="37.5583267" lon="126.8424951"></trkpt>
   <trkpt lat="37.5582286" lon="126.8434844"></trkpt>
   <trkpt lat="37.5581586" lon="126.8441847"></trkpt>
   <trkpt lat="37.5581388" lon="126.8443637"></trkpt>
   <trkpt lat="37.558132" lon="126.8444238"></trkpt>
   <trkpt lat="37.5581286" lon="126.8444669"></trkpt>
   <trkpt lat="37.5581342" lon="126.8444985"></trkpt>
   <trkpt lat="37.5581342" lon="126.8444985"></trkpt>
   <trkpt lat="37.5581523" lon="126.8445199"></trkpt>
   <trkpt lat="37.5585886" lon="126.8448399"></trkpt>
   <trkpt lat="37.5588953" lon="126.8450466"></trkpt>
   <trkpt lat="37.5589187" lon="126.845043"></trkpt>
   <trkpt lat="37.5589294" lon="126.8450361"></trkpt>
   <trkpt lat="37.5589411" lon="126.8450191"></trkpt>
   <trkpt lat="37.5589436" lon="126.8449964"></trkpt>
   <trkpt lat="37.5589436" lon="126.8449964"></trkpt>
   <trkpt lat="37.5590098" lon="126.8450649"></trkpt>
   <trkpt lat="37.5590561" lon="126.845112"></trkpt>
   <trkpt lat="37.5590561" lon="126.845112"></trkpt>
   <trkpt lat="37.5590544" lon="126.8451369"></trkpt>
   <trkpt lat="37.5590599" lon="126.8451561"></trkpt>
   <trkpt lat="37.5590672" lon="126.8451719"></trkpt>
   <trkpt lat="37.5590735" lon="126.8451764"></trkpt>
   <trkpt lat="37.5590952" lon="126.8451887"></trkpt>
   <trkpt lat="37.5591839" lon="126.8452445"></trkpt>
   <trkpt lat="37.5591839" lon="126.8452445"></trkpt>
   <trkpt lat="37.5591963" lon="126.8452172"></trkpt>
   <trkpt lat="37.5591963" lon="126.8452172"></trkpt>
   <trkpt lat="37.5591839" lon="126.8452445"></trkpt>
   <trkpt lat="37.5591839" lon="126.8452445"></trkpt>
   <trkpt lat="37.5590952" lon="126.8451887"></trkpt>
   <trkpt lat="37.5590735" lon="126.8451764"></trkpt>
   <trkpt lat="37.5590672" lon="126.8451719"></trkpt>
   <trkpt lat="37.5590599" lon="126.8451561"></trkpt>
   <trkpt lat="37.5590544" lon="126.8451369"></trkpt>
   <trkpt lat="37.5590561" lon="126.845112"></trkpt>
   <trkpt lat="37.5590561" lon="126.845112"></trkpt>
   <trkpt lat="37.5590098" lon="126.8450649"></trkpt>
   <trkpt lat="37.5589436" lon="126.8449964"></trkpt>
   <trkpt lat="37.5589436" lon="126.8449964"></trkpt>
   <trkpt lat="37.5589411" lon="126.8450191"></trkpt>
   <trkpt lat="37.5589294" lon="126.8450361"></trkpt>
   <trkpt lat="37.5589187" lon="126.845043"></trkpt>
   <trkpt lat="37.5588953" lon="126.8450466"></trkpt>
   <trkpt lat="37.5585886" lon="126.8448399"></trkpt>
   <trkpt lat="37.5581523" lon="126.8445199"></trkpt>
   <trkpt lat="37.5581342" lon="126.8444985"></trkpt>
   <trkpt lat="37.5581342" lon="126.8444985"></trkpt>
   <trkpt lat="37.5581286" lon="126.8444669"></trkpt>
   <trkpt lat="37.558132" lon="126.8444238"></trkpt>
   <trkpt lat="37.5581388" lon="126.8443637"></trkpt>
   <trkpt lat="37.5581586" lon="126.8441847"></trkpt>
   <trkpt lat="37.5582286" lon="126.8434844"></trkpt>
   <trkpt lat="37.5583267" lon="126.8424951"></trkpt>
   <trkpt lat="37.5583436" lon="126.84229"></trkpt>
   <trkpt lat="37.5583582" lon="126.8421551"></trkpt>
   <trkpt lat="37.5583735" lon="126.8419965"></trkpt>
   <trkpt lat="37.5583812" lon="126.8419228"></trkpt>
   <trkpt lat="37.558541" lon="126.8403488"></trkpt>
   <trkpt lat="37.5586806" lon="126.8390387"></trkpt>
   <trkpt lat="37.5586899" lon="126.8389367"></trkpt>
   <trkpt lat="37.5586976" lon="126.8388506"></trkpt>
   <trkpt lat="37.5587136" lon="126.8388074"></trkpt>
   <trkpt lat="37.5587403" lon="126.8387574"></trkpt>
   <trkpt lat="37.5587537" lon="126.8387301"></trkpt>
   <trkpt lat="37.5587921" lon="126.8386765"></trkpt>
   <trkpt lat="37.5587921" lon="126.8386765"></trkpt>
   <trkpt lat="37.5587657" lon="126.8386281"></trkpt>
   <trkpt lat="37.5588007" lon="126.8385983"></trkpt>
   <trkpt lat="37.5585875" lon="126.8381858"></trkpt>
   <trkpt lat="37.5583697" lon="126.8377609"></trkpt>
   <trkpt lat="37.5583141" lon="126.8378078"></trkpt>
   <trkpt lat="37.5583067" lon="126.837783"></trkpt>
   <trkpt lat="37.5583067" lon="126.837783"></trkpt>
   <trkpt lat="37.5582762" lon="126.8378138"></trkpt>
   <trkpt lat="37.5582027" lon="126.83787"></trkpt>
   <trkpt lat="37.5581307" lon="126.8379057"></trkpt>
   <trkpt lat="37.5580803" lon="126.8379197"></trkpt>
   <trkpt lat="37.5580308" lon="126.8379247"></trkpt>
   <trkpt lat="37.5579324" lon="126.8378995"></trkpt>
   <trkpt lat="37.5575613" lon="126.8377817"></trkpt>
   <trkpt lat="37.5566122" lon="126.8374629"></trkpt>
   <trkpt lat="37.5565382" lon="126.8374397"></trkpt>
   <trkpt lat="37.5562429" lon="126.8373529"></trkpt>
   <trkpt lat="37.5556416" lon="126.8371692"></trkpt>
   <trkpt lat="37.5556127" lon="126.8371615"></trkpt>
   <trkpt lat="37.5555351" lon="126.8371384"></trkpt>
   <trkpt lat="37.5553436" lon="126.8370733"></trkpt>
   <trkpt lat="37.5550402" lon="126.8369684"></trkpt>
   <trkpt lat="37.5548885" lon="126.8369177"></trkpt>
   <trkpt lat="37.5548885" lon="126.8369177"></trkpt>
   <trkpt lat="37.5547919" lon="126.836888"></trkpt>
   <trkpt lat="37.5547919" lon="126.836888"></trkpt>
   <trkpt lat="37.5546899" lon="126.8368583"></trkpt>
   <trkpt lat="37.5543197" lon="126.836745"></trkpt>
   <trkpt lat="37.5536532" lon="126.8365098"></trkpt>
   <trkpt lat="37.5534843" lon="126.8364524"></trkpt>
   <trkpt lat="37.5527475" lon="126.8362302"></trkpt>
   <trkpt lat="37.5526771" lon="126.8362093"></trkpt>
   <trkpt lat="37.5526771" lon="126.8362093"></trkpt>
   <trkpt lat="37.5525968" lon="126.8361908"></trkpt>
   <trkpt lat="37.5525968" lon="126.8361908"></trkpt>
   <trkpt lat="37.5525138" lon="126.8361836"></trkpt>
   <trkpt lat="37.5521028" lon="126.8361816"></trkpt>
   <trkpt lat="37.5508157" lon="126.8361919"></trkpt>
   <trkpt lat="37.5507121" lon="126.8361905"></trkpt>
   <trkpt lat="37.5494897" lon="126.8361708"></trkpt>
   <trkpt lat="37.5494212" lon="126.8361703"></trkpt>
   <trkpt lat="37.5493672" lon="126.8361696"></trkpt>
   <trkpt lat="37.5489227" lon="126.8361611"></trkpt>
   <trkpt lat="37.5484316" lon="126.8361711"></trkpt>
   <trkpt lat="37.5481215" lon="126.836175"></trkpt>
   <trkpt lat="37.5480639" lon="126.8361767"></trkpt>
   <trkpt lat="37.5480639" lon="126.8361767"></trkpt>
   <trkpt lat="37.5480439" lon="126.8361621"></trkpt>
   <trkpt lat="37.5480312" lon="126.8361362"></trkpt>
   <trkpt lat="37.5480269" lon="126.8355408"></trkpt>
   <trkpt lat="37.5480255" lon="126.8354559"></trkpt>
   <trkpt lat="37.5480255" lon="126.8354559"></trkpt>
   <trkpt lat="37.5479814" lon="126.8354574"></trkpt>
   <trkpt lat="37.5479255" lon="126.8354579"></trkpt>
   <trkpt lat="37.5479255" lon="126.8354579"></trkpt>
   <trkpt lat="37.5479288" lon="126.8350832"></trkpt>
   <trkpt lat="37.5479261" lon="126.8349145"></trkpt>
   <trkpt lat="37.5479261" lon="126.8349145"></trkpt>
   <trkpt lat="37.5476944" lon="126.8349075"></trkpt>
   <trkpt lat="37.5476944" lon="126.8349075"></trkpt>
   <trkpt lat="37.5479261" lon="126.8349145"></trkpt>
   <trkpt lat="37.5479261" lon="126.8349145"></trkpt>
   <trkpt lat="37.5479288" lon="126.8350832"></trkpt>
   <trkpt lat="37.5479255" lon="126.8354579"></trkpt>
   <trkpt lat="37.5479255" lon="126.8354579"></trkpt>
   <trkpt lat="37.5479814" lon="126.8354574"></trkpt>
   <trkpt lat="37.5480255" lon="126.8354559"></trkpt>
   <trkpt lat="37.5480255" lon="126.8354559"></trkpt>
   <trkpt lat="37.5480269" lon="126.8355408"></trkpt>
   <trkpt lat="37.5480312" lon="126.8361362"></trkpt>
   <trkpt lat="37.5480439" lon="126.8361621"></trkpt>
   <trkpt lat="37.5480639" lon="126.8361767"></trkpt>
   <trkpt lat="37.5480639" lon="126.8361767"></trkpt>
   <trkpt lat="37.5481215" lon="126.836175"></trkpt>
   <trkpt lat="37.5484316" lon="126.8361711"></trkpt>
   <trkpt lat="37.5489227" lon="126.8361611"></trkpt>
   <trkpt lat="37.5493672" lon="126.8361696"></trkpt>
   <trkpt lat="37.5494212" lon="126.8361703"></trkpt>
   <trkpt lat="37.5494897" lon="126.8361708"></trkpt>
   <trkpt lat="37.5507121" lon="126.8361905"></trkpt>
   <trkpt lat="37.5508157" lon="126.8361919"></trkpt>
   <trkpt lat="37.5521028" lon="126.8361816"></trkpt>
   <trkpt lat="37.5525138" lon="126.8361836"></trkpt>
   <trkpt lat="37.5525968" lon="126.8361908"></trkpt>
   <trkpt lat="37.5525968" lon="126.8361908"></trkpt>
   <trkpt lat="37.5526492" lon="126.8355813"></trkpt>
   <trkpt lat="37.552663" lon="126.8354577"></trkpt>
   <trkpt lat="37.5526835" lon="126.8352617"></trkpt>
   <trkpt lat="37.552708" lon="126.8349626"></trkpt>
   <trkpt lat="37.5527174" lon="126.834881"></trkpt>
   <trkpt lat="37.5527361" lon="126.8346872"></trkpt>
   <trkpt lat="37.5527565" lon="126.8344606"></trkpt>
   <trkpt lat="37.5527667" lon="126.834353"></trkpt>
   <trkpt lat="37.5527804" lon="126.834217"></trkpt>
   <trkpt lat="37.5529127" lon="126.8329173"></trkpt>
   <trkpt lat="37.5529264" lon="126.8327824"></trkpt>
   <trkpt lat="37.5530068" lon="126.8320153"></trkpt>
   <trkpt lat="37.5530204" lon="126.831868"></trkpt>
   <trkpt lat="37.5530204" lon="126.831868"></trkpt>
   <trkpt lat="37.5529304" lon="126.8319027"></trkpt>
   <trkpt lat="37.5525844" lon="126.8320734"></trkpt>
  </trkseg>
 </trk>
</gpx>
