<?xml version="1.0" encoding="UTF-8"?>
<gpx creator="daengrun-naver-route" version="1.1" xmlns="http://www.topografix.com/GPX/1/1" xmlns:xsi="http://www.w3.org/2001/XMLSchema-instance" xsi:schemaLocation="http://www.topografix.com/GPX/1/1 http://www.topografix.com/GPX/1/1/gpx.xsd">
 <metadata>
  <name>관악 흐리목소공원·국회단지 어린이 공 루프 3.7km</name>
  <desc>daengrun candidate geometry — measured 3.70km via Naver pedestrian router (o=flat, 계단회피). Elevation NOT available from this source. stairs=0 crosswalk=5 steppingstone=0 underpass=0 overpass=0</desc>
  <link href="naver:o7wht2"><text>daengrun route id</text></link>
  <copyright author="NAVER Corp."><license>https://map.naver.com/</license></copyright>
 </metadata>
 <trk>
  <name>관악 흐리목소공원·국회단지 어린이 공 루프 3.7km</name>
  <trkseg>
   <trkpt lat="37.4916158" lon="126.9496128"></trkpt>
   <trkpt lat="37.4915668" lon="126.9497353"></trkpt>
   <trkpt lat="37.4914117" lon="126.9497138"></trkpt>
   <trkpt lat="37.4913576" lon="126.9498997"></trkpt>
   <trkpt lat="37.4913185" lon="126.9500335"></trkpt>
   <trkpt lat="37.4913169" lon="126.9500799"></trkpt>
   <trkpt lat="37.4913505" lon="126.9501181"></trkpt>
   <trkpt lat="37.4914362" lon="126.9501503"></trkpt>
   <trkpt lat="37.4914507" lon="126.9501683"></trkpt>
   <trkpt lat="37.4914572" lon="126.9501954"></trkpt>
   <trkpt lat="37.4913726" lon="126.9504132"></trkpt>
   <trkpt lat="37.4913359" lon="126.9504836"></trkpt>
   <trkpt lat="37.4912645" lon="126.9506221"></trkpt>
   <trkpt lat="37.4910679" lon="126.9510014"></trkpt>
   <trkpt lat="37.4910628" lon="126.95105"></trkpt>
   <trkpt lat="37.4910628" lon="126.95105"></trkpt>
   <trkpt lat="37.4913751" lon="126.9513498"></trkpt>
   <trkpt lat="37.4913751" lon="126.9513498"></trkpt>
   <trkpt lat="37.491469" lon="126.9511941"></trkpt>
   <trkpt lat="37.4916917" lon="126.9508181"></trkpt>
   <trkpt lat="37.491811" lon="126.9504835"></trkpt>
   <trkpt lat="37.4918995" lon="126.9501389"></trkpt>
   <trkpt lat="37.4921356" lon="126.9491644"></trkpt>
   <trkpt lat="37.4921356" lon="126.9491644"></trkpt>
   <trkpt lat="37.4922918" lon="126.9492277"></trkpt>
   <trkpt lat="37.4922918" lon="126.9492277"></trkpt>
   <trkpt lat="37.4923209" lon="126.9490895"></trkpt>
   <trkpt lat="37.4923209" lon="126.9490895"></trkpt>
   <trkpt lat="37.4924772" lon="126.9491675"></trkpt>
   <trkpt lat="37.4925867" lon="126.9492448"></trkpt>
   <trkpt lat="37.4929047" lon="126.9494031"></trkpt>
   <trkpt lat="37.4930059" lon="126.9494544"></trkpt>
   <trkpt lat="37.4932127" lon="126.9495479"></trkpt>
   <trkpt lat="37.4935036" lon="126.9496962"></trkpt>
   <trkpt lat="37.4936273" lon="126.9497258"></trkpt>
   <trkpt lat="37.4936967" lon="126.9497411"></trkpt>
   <trkpt lat="37.4937986" lon="126.9497461"></trkpt>
   <trkpt lat="37.4939184" lon="126.9497169"></trkpt>
   <trkpt lat="37.4939184" lon="126.9497169"></trkpt>
   <trkpt lat="37.4939515" lon="126.9498603"></trkpt>
   <trkpt lat="37.4940434" lon="126.9504275"></trkpt>
   <trkpt lat="37.4940468" lon="126.9505972"></trkpt>
   <trkpt lat="37.4940221" lon="126.9507015"></trkpt>
   <trkpt lat="37.4939514" lon="126.9508174"></trkpt>
   <trkpt lat="37.4938526" lon="126.9510851"></trkpt>
   <trkpt lat="37.4938145" lon="126.9512222"></trkpt>
   <trkpt lat="37.4937793" lon="126.9514136"></trkpt>
   <trkpt lat="37.4937611" lon="126.9515631"></trkpt>
   <trkpt lat="37.4937625" lon="126.9516717"></trkpt>
   <trkpt lat="37.4937648" lon="126.9517724"></trkpt>
   <trkpt lat="37.4937734" lon="126.9518843"></trkpt>
   <trkpt lat="37.4937938" lon="126.952012"></trkpt>
   <trkpt lat="37.4938184" lon="126.952057"></trkpt>
   <trkpt lat="37.4938555" lon="126.9520975"></trkpt>
   <trkpt lat="37.4939442" lon="126.9521692"></trkpt>
   <trkpt lat="37.4940852" lon="126.9522621"></trkpt>
   <trkpt lat="37.4941315" lon="126.9523251"></trkpt>
   <trkpt lat="37.4941933" lon="126.952448"></trkpt>
   <trkpt lat="37.4942695" lon="126.952539"></trkpt>
   <trkpt lat="37.4942728" lon="126.9526759"></trkpt>
   <trkpt lat="37.4943057" lon="126.9527707"></trkpt>
   <trkpt lat="37.4944141" lon="126.9528174"></trkpt>
   <trkpt lat="37.4944612" lon="126.9528612"></trkpt>
   <trkpt lat="37.4944885" lon="126.9529266"></trkpt>
   <trkpt lat="37.4944885" lon="126.9529266"></trkpt>
   <trkpt lat="37.4944612" lon="126.9528612"></trkpt>
   <trkpt lat="37.4944141" lon="126.9528174"></trkpt>
   <trkpt lat="37.4943057" lon="126.9527707"></trkpt>
   <trkpt lat="37.4942728" lon="126.9526759"></trkpt>
   <trkpt lat="37.4942695" lon="126.952539"></trkpt>
   <trkpt lat="37.4941933" lon="126.952448"></trkpt>
   <trkpt lat="37.4941315" lon="126.9523251"></trkpt>
   <trkpt lat="37.4940852" lon="126.9522621"></trkpt>
   <trkpt lat="37.4939442" lon="126.9521692"></trkpt>
   <trkpt lat="37.4938555" lon="126.9520975"></trkpt>
   <trkpt lat="37.4938184" lon="126.952057"></trkpt>
   <trkpt lat="37.4937938" lon="126.952012"></trkpt>
   <trkpt lat="37.4937734" lon="126.9518843"></trkpt>
   <trkpt lat="37.4937648" lon="126.9517724"></trkpt>
   <trkpt lat="37.4937625" lon="126.9516717"></trkpt>
   <trkpt lat="37.4937611" lon="126.9515631"></trkpt>
   <trkpt lat="37.4937793" lon="126.9514136"></trkpt>
   <trkpt lat="37.4938145" lon="126.9512222"></trkpt>
   <trkpt lat="37.4938526" lon="126.9510851"></trkpt>
   <trkpt lat="37.4939514" lon="126.9508174"></trkpt>
   <trkpt lat="37.4940221" lon="126.9507015"></trkpt>
   <trkpt lat="37.4940468" lon="126.9505972"></trkpt>
   <trkpt lat="37.4940434" lon="126.9504275"></trkpt>
   <trkpt lat="37.4939515" lon="126.9498603"></trkpt>
   <trkpt lat="37.4939184" lon="126.9497169"></trkpt>
   <trkpt lat="37.4939184" lon="126.9497169"></trkpt>
   <trkpt lat="37.4937986" lon="126.9497461"></trkpt>
   <trkpt lat="37.4936967" lon="126.9497411"></trkpt>
   <trkpt lat="37.4936273" lon="126.9497258"></trkpt>
   <trkpt lat="37.4935036" lon="126.9496962"></trkpt>
   <trkpt lat="37.4932127" lon="126.9495479"></trkpt>
   <trkpt lat="37.4930059" lon="126.9494544"></trkpt>
   <trkpt lat="37.4930059" lon="126.9494544"></trkpt>
   <trkpt lat="37.4930216" lon="126.9493468"></trkpt>
   <trkpt lat="37.4930216" lon="126.9493468"></trkpt>
   <trkpt lat="37.4928925" lon="126.9493002"></trkpt>
   <trkpt lat="37.492635" lon="126.9491788"></trkpt>
   <trkpt lat="37.4923475" lon="126.9489796"></trkpt>
   <trkpt lat="37.4923475" lon="126.9489796"></trkpt>
   <trkpt lat="37.4923737" lon="126.9488119"></trkpt>
   <trkpt lat="37.4924018" lon="126.9486477"></trkpt>
   <trkpt lat="37.4924597" lon="126.9483113"></trkpt>
   <trkpt lat="37.4925032" lon="126.9479728"></trkpt>
   <trkpt lat="37.4925117" lon="126.9478686"></trkpt>
   <trkpt lat="37.4925283" lon="126.9473594"></trkpt>
   <trkpt lat="37.4925447" lon="126.9472032"></trkpt>
   <trkpt lat="37.4925668" lon="126.9471103"></trkpt>
   <trkpt lat="37.4926007" lon="126.9470365"></trkpt>
   <trkpt lat="37.4927439" lon="126.9468171"></trkpt>
   <trkpt lat="37.4928326" lon="126.9467158"></trkpt>
   <trkpt lat="37.493065" lon="126.9464765"></trkpt>
   <trkpt lat="37.4931627" lon="126.9463717"></trkpt>
   <trkpt lat="37.493255" lon="126.9462511"></trkpt>
   <trkpt lat="37.4932979" lon="126.9461671"></trkpt>
   <trkpt lat="37.4933244" lon="126.9460685"></trkpt>
   <trkpt lat="37.493335" lon="126.9460141"></trkpt>
   <trkpt lat="37.4933271" lon="126.9458615"></trkpt>
   <trkpt lat="37.4933012" lon="126.9457293"></trkpt>
   <trkpt lat="37.4932348" lon="126.9455974"></trkpt>
   <trkpt lat="37.4931353" lon="126.945519"></trkpt>
   <trkpt lat="37.4926339" lon="126.9452851"></trkpt>
   <trkpt lat="37.492502" lon="126.9452239"></trkpt>
   <trkpt lat="37.492241" lon="126.9451104"></trkpt>
   <trkpt lat="37.492175" lon="126.9450668"></trkpt>
   <trkpt lat="37.4921433" lon="126.9450241"></trkpt>
   <trkpt lat="37.4921232" lon="126.9449778"></trkpt>
   <trkpt lat="37.4920925" lon="126.9447778"></trkpt>
   <trkpt lat="37.4920801" lon="126.9444397"></trkpt>
   <trkpt lat="37.492065" lon="126.944105"></trkpt>
   <trkpt lat="37.4920539" lon="126.9440338"></trkpt>
   <trkpt lat="37.4920519" lon="126.9439908"></trkpt>
   <trkpt lat="37.4920562" lon="126.9439455"></trkpt>
   <trkpt lat="37.4920562" lon="126.9439455"></trkpt>
   <trkpt lat="37.4918779" lon="126.9437907"></trkpt>
   <trkpt lat="37.4918779" lon="126.9437907"></trkpt>
   <trkpt lat="37.4918814" lon="126.9437681"></trkpt>
   <trkpt lat="37.4918794" lon="126.9437376"></trkpt>
   <trkpt lat="37.4916567" lon="126.9433241"></trkpt>
   <trkpt lat="37.4916358" lon="126.9432891"></trkpt>
   <trkpt lat="37.4916185" lon="126.94327"></trkpt>
   <trkpt lat="37.4916185" lon="126.94327"></trkpt>
   <trkpt lat="37.4914994" lon="126.9432404"></trkpt>
   <trkpt lat="37.4914147" lon="126.9432354"></trkpt>
   <trkpt lat="37.4913876" lon="126.9432231"></trkpt>
   <trkpt lat="37.4913523" lon="126.9431917"></trkpt>
   <trkpt lat="37.4912722" lon="126.9430339"></trkpt>
   <trkpt lat="37.4911768" lon="126.9428684"></trkpt>
   <trkpt lat="37.4911243" lon="126.942828"></trkpt>
   <trkpt lat="37.4910502" lon="126.9427822"></trkpt>
   <trkpt lat="37.4909716" lon="126.9427421"></trkpt>
   <trkpt lat="37.490911" lon="126.9426927"></trkpt>
   <trkpt lat="37.4908882" lon="126.9426386"></trkpt>
   <trkpt lat="37.4908862" lon="126.9425979"></trkpt>
   <trkpt lat="37.4908644" lon="126.942563"></trkpt>
   <trkpt lat="37.4908644" lon="126.942563"></trkpt>
   <trkpt lat="37.4908473" lon="126.9425812"></trkpt>
   <trkpt lat="37.4907773" lon="126.9426485"></trkpt>
   <trkpt lat="37.4906602" lon="126.9428383"></trkpt>
   <trkpt lat="37.4906602" lon="126.9428383"></trkpt>
   <trkpt lat="37.4902611" lon="126.9426976"></trkpt>
   <trkpt lat="37.4902611" lon="126.9426976"></trkpt>
   <trkpt lat="37.4902011" lon="126.9429819"></trkpt>
   <trkpt lat="37.4902011" lon="126.9429819"></trkpt>
   <trkpt lat="37.4902611" lon="126.9426976"></trkpt>
   <trkpt lat="37.4902611" lon="126.9426976"></trkpt>
   <trkpt lat="37.4906602" lon="126.9428383"></trkpt>
   <trkpt lat="37.4906602" lon="126.9428383"></trkpt>
   <trkpt lat="37.4907773" lon="126.9426485"></trkpt>
   <trkpt lat="37.4908473" lon="126.9425812"></trkpt>
   <trkpt lat="37.4908644" lon="126.942563"></trkpt>
   <trkpt lat="37.4908644" lon="126.942563"></trkpt>
   <trkpt lat="37.4908862" lon="126.9425979"></trkpt>
   <trkpt lat="37.4908882" lon="126.9426386"></trkpt>
   <trkpt lat="37.490911" lon="126.9426927"></trkpt>
   <trkpt lat="37.4909716" lon="126.9427421"></trkpt>
   <trkpt lat="37.4910502" lon="126.9427822"></trkpt>
   <trkpt lat="37.4911243" lon="126.942828"></trkpt>
   <trkpt lat="37.4911768" lon="126.9428684"></trkpt>
   <trkpt lat="37.4912722" lon="126.9430339"></trkpt>
   <trkpt lat="37.4913523" lon="126.9431917"></trkpt>
   <trkpt lat="37.4913523" lon="126.9431917"></trkpt>
   <trkpt lat="37.4913876" lon="126.9432231"></trkpt>
   <trkpt lat="37.4914147" lon="126.9432354"></trkpt>
   <trkpt lat="37.4914994" lon="126.9432404"></trkpt>
   <trkpt lat="37.4916185" lon="126.94327"></trkpt>
   <trkpt lat="37.4916185" lon="126.94327"></trkpt>
   <trkpt lat="37.4916358" lon="126.9432891"></trkpt>
   <trkpt lat="37.4916567" lon="126.9433241"></trkpt>
   <trkpt lat="37.4918794" lon="126.9437376"></trkpt>
   <trkpt lat="37.4918814" lon="126.9437681"></trkpt>
   <trkpt lat="37.4918779" lon="126.9437907"></trkpt>
   <trkpt lat="37.4918779" lon="126.9437907"></trkpt>
   <trkpt lat="37.4920562" lon="126.9439455"></trkpt>
   <trkpt lat="37.4920562" lon="126.9439455"></trkpt>
   <trkpt lat="37.4920519" lon="126.9439908"></trkpt>
   <trkpt lat="37.4920539" lon="126.9440338"></trkpt>
   <trkpt lat="37.492065" lon="126.944105"></trkpt>
   <trkpt lat="37.4920801" lon="126.9444397"></trkpt>
   <trkpt lat="37.4920925" lon="126.9447778"></trkpt>
   <trkpt lat="37.4921232" lon="126.9449778"></trkpt>
   <trkpt lat="37.4921433" lon="126.9450241"></trkpt>
   <trkpt lat="37.492175" lon="126.9450668"></trkpt>
   <trkpt lat="37.492241" lon="126.9451104"></trkpt>
   <trkpt lat="37.492502" lon="126.9452239"></trkpt>
   <trkpt lat="37.4926339" lon="126.9452851"></trkpt>
   <trkpt lat="37.4931353" lon="126.945519"></trkpt>
   <trkpt lat="37.4932348" lon="126.9455974"></trkpt>
   <trkpt lat="37.4933012" lon="126.9457293"></trkpt>
   <trkpt lat="37.4933271" lon="126.9458615"></trkpt>
   <trkpt lat="37.493335" lon="126.9460141"></trkpt>
   <trkpt lat="37.4933244" lon="126.9460685"></trkpt>
   <trkpt lat="37.4932979" lon="126.9461671"></trkpt>
   <trkpt lat="37.493255" lon="126.9462511"></trkpt>
   <trkpt lat="37.4931627" lon="126.9463717"></trkpt>
   <trkpt lat="37.493065" lon="126.9464765"></trkpt>
   <trkpt lat="37.4928326" lon="126.9467158"></trkpt>
   <trkpt lat="37.4927439" lon="126.9468171"></trkpt>
   <trkpt lat="37.4926007" lon="126.9470365"></trkpt>
   <trkpt lat="37.4925668" lon="126.9471103"></trkpt>
   <trkpt lat="37.4925447" lon="126.9472032"></trkpt>
   <trkpt lat="37.4925283" lon="126.9473594"></trkpt>
   <trkpt lat="37.4925117" lon="126.9478686"></trkpt>
   <trkpt lat="37.4925032" lon="126.9479728"></trkpt>
   <trkpt lat="37.4924597" lon="126.9483113"></trkpt>
   <trkpt lat="37.4924018" lon="126.9486477"></trkpt>
   <trkpt lat="37.4923737" lon="126.9488119"></trkpt>
   <trkpt lat="37.4923737" lon="126.9488119"></trkpt>
   <trkpt lat="37.4923196" lon="126.9487988"></trkpt>
   <trkpt lat="37.492223" lon="126.9487735"></trkpt>
   <trkpt lat="37.492223" lon="126.9487735"></trkpt>
   <trkpt lat="37.4921949" lon="126.9489207"></trkpt>
   <trkpt lat="37.4921356" lon="126.9491644"></trkpt>
   <trkpt lat="37.4918995" lon="126.9501389"></trkpt>
   <trkpt lat="37.491811" lon="126.9504835"></trkpt>
   <trkpt lat="37.4916917" lon="126.9508181"></trkpt>
   <trkpt lat="37.491469" lon="126.9511941"></trkpt>
   <trkpt lat="37.4913751" lon="126.9513498"></trkpt>
   <trkpt lat="37.4913751" lon="126.9513498"></trkpt>
   <trkpt lat="37.4910628" lon="126.95105"></trkpt>
   <trkpt lat="37.4910628" lon="126.95105"></trkpt>
   <trkpt lat="37.4910679" lon="126.9510014"></trkpt>
   <trkpt lat="37.4912645" lon="126.9506221"></trkpt>
   <trkpt lat="37.4913359" lon="126.9504836"></trkpt>
   <trkpt lat="37.4913726" lon="126.9504132"></trkpt>
   <trkpt lat="37.4914572" lon="126.9501954"></trkpt>
   <trkpt lat="37.4914507" lon="126.9501683"></trkpt>
   <trkpt lat="37.4914362" lon="126.9501503"></trkpt>
   <trkpt lat="37.4913505" lon="126.9501181"></trkpt>
   <trkpt lat="37.4913169" lon="126.9500799"></trkpt>
   <trkpt lat="37.4913185" lon="126.9500335"></trkpt>
   <trkpt lat="37.4913576" lon="126.9498997"></trkpt>
   <trkpt lat="37.4914117" lon="126.9497138"></trkpt>
   <trkpt lat="37.4915668" lon="126.9497353"></trkpt>
   <trkpt lat="37.4916158" lon="126.9496128"></trkpt>
  </trkseg>
 </trk>
</gpx>
