<?xml version="1.0" encoding="UTF-8"?>
<gpx creator="daengrun-naver-route" version="1.1" xmlns="http://www.topografix.com/GPX/1/1" xmlns:xsi="http://www.w3.org/2001/XMLSchema-instance" xsi:schemaLocation="http://www.topografix.com/GPX/1/1 http://www.topografix.com/GPX/1/1/gpx.xsd">
 <metadata>
  <name>관악 아병소공원·은천쌈지마당 루프 5.09km</name>
  <desc>daengrun candidate geometry — measured 5.09km via Naver pedestrian router (o=flat, 계단회피). Elevation NOT available from this source. stairs=0 crosswalk=9 steppingstone=0 underpass=0 overpass=0</desc>
  <link href="naver:s9jq4"><text>daengrun route id</text></link>
  <copyright author="NAVER Corp."><license>https://map.naver.com/</license></copyright>
 </metadata>
 <trk>
  <name>관악 아병소공원·은천쌈지마당 루프 5.09km</name>
  <trkseg>
   <trkpt lat="37.4827737" lon="126.9535414"></trkpt>
   <trkpt lat="37.4825737" lon="126.9533664"></trkpt>
   <trkpt lat="37.4822624" lon="126.9531119"></trkpt>
   <trkpt lat="37.4822443" lon="126.9530962"></trkpt>
   <trkpt lat="37.4822443" lon="126.9530962"></trkpt>
   <trkpt lat="37.4820924" lon="126.9529842"></trkpt>
   <trkpt lat="37.481982" lon="126.9528934"></trkpt>
   <trkpt lat="37.481982" lon="126.9528934"></trkpt>
   <trkpt lat="37.4816574" lon="126.9526786"></trkpt>
   <trkpt lat="37.4815902" lon="126.9525614"></trkpt>
   <trkpt lat="37.4815757" lon="126.9525367"></trkpt>
   <trkpt lat="37.4815757" lon="126.9525367"></trkpt>
   <trkpt lat="37.481494" lon="126.9526221"></trkpt>
   <trkpt lat="37.4814716" lon="126.9526449"></trkpt>
   <trkpt lat="37.481114" lon="126.952514"></trkpt>
   <trkpt lat="37.4810958" lon="126.9524723"></trkpt>
   <trkpt lat="37.4810431" lon="126.9523732"></trkpt>
   <trkpt lat="37.4810431" lon="126.9523732"></trkpt>
   <trkpt lat="37.480902" lon="126.9524715"></trkpt>
   <trkpt lat="37.4808128" lon="126.9524812"></trkpt>
   <trkpt lat="37.4804908" lon="126.9524303"></trkpt>
   <trkpt lat="37.4802987" lon="126.9523956"></trkpt>
   <trkpt lat="37.4801976" lon="126.9523725"></trkpt>
   <trkpt lat="37.4800461" lon="126.9523499"></trkpt>
   <trkpt lat="37.4796411" lon="126.9522827"></trkpt>
   <trkpt lat="37.4792776" lon="126.9522288"></trkpt>
   <trkpt lat="37.4789168" lon="126.9521907"></trkpt>
   <trkpt lat="37.4788717" lon="126.9521809"></trkpt>
   <trkpt lat="37.4788447" lon="126.9521743"></trkpt>
   <trkpt lat="37.4788447" lon="126.9521743"></trkpt>
   <trkpt lat="37.4788256" lon="126.9521564"></trkpt>
   <trkpt lat="37.4788184" lon="126.9521394"></trkpt>
   <trkpt lat="37.4788119" lon="126.952109"></trkpt>
   <trkpt lat="37.4788551" lon="126.9515115"></trkpt>
   <trkpt lat="37.4788602" lon="126.9514492"></trkpt>
   <trkpt lat="37.4789345" lon="126.950744"></trkpt>
   <trkpt lat="37.47895" lon="126.9506071"></trkpt>
   <trkpt lat="37.4789749" lon="126.95034"></trkpt>
   <trkpt lat="37.4789809" lon="126.9502732"></trkpt>
   <trkpt lat="37.4789896" lon="126.9501861"></trkpt>
   <trkpt lat="37.4790225" lon="126.9499132"></trkpt>
   <trkpt lat="37.4790534" lon="126.9495748"></trkpt>
   <trkpt lat="37.4790629" lon="126.9494922"></trkpt>
   <trkpt lat="37.4790818" lon="126.9492828"></trkpt>
   <trkpt lat="37.4791179" lon="126.9489037"></trkpt>
   <trkpt lat="37.4791179" lon="126.9489037"></trkpt>
   <trkpt lat="37.4789708" lon="126.9488719"></trkpt>
   <trkpt lat="37.4789708" lon="126.9488719"></trkpt>
   <trkpt lat="37.4789802" lon="126.9487509"></trkpt>
   <trkpt lat="37.4790331" lon="126.9481126"></trkpt>
   <trkpt lat="37.4790639" lon="126.9477708"></trkpt>
   <trkpt lat="37.4790994" lon="126.9474595"></trkpt>
   <trkpt lat="37.4791123" lon="126.9473135"></trkpt>
   <trkpt lat="37.4791579" lon="126.9468687"></trkpt>
   <trkpt lat="37.4792513" lon="126.9460107"></trkpt>
   <trkpt lat="37.4792624" lon="126.9458749"></trkpt>
   <trkpt lat="37.4792763" lon="126.9457752"></trkpt>
   <trkpt lat="37.4793011" lon="126.9454979"></trkpt>
   <trkpt lat="37.4793303" lon="126.9451743"></trkpt>
   <trkpt lat="37.4793372" lon="126.9451063"></trkpt>
   <trkpt lat="37.4793733" lon="126.9447317"></trkpt>
   <trkpt lat="37.4793914" lon="126.9445585"></trkpt>
   <trkpt lat="37.4793965" lon="126.9445031"></trkpt>
   <trkpt lat="37.4793965" lon="126.9445031"></trkpt>
   <trkpt lat="37.4789528" lon="126.9444464"></trkpt>
   <trkpt lat="37.4788698" lon="126.9444368"></trkpt>
   <trkpt lat="37.4785568" lon="126.9443917"></trkpt>
   <trkpt lat="37.4780319" lon="126.9443186"></trkpt>
   <trkpt lat="37.4778831" lon="126.9442983"></trkpt>
   <trkpt lat="37.4773878" lon="126.9442114"></trkpt>
   <trkpt lat="37.4770045" lon="126.9441555"></trkpt>
   <trkpt lat="37.4769035" lon="126.9441404"></trkpt>
   <trkpt lat="37.4768845" lon="126.9441258"></trkpt>
   <trkpt lat="37.4768745" lon="126.9441089"></trkpt>
   <trkpt lat="37.4768743" lon="126.9440671"></trkpt>
   <trkpt lat="37.476889" lon="126.9439448"></trkpt>
   <trkpt lat="37.4769062" lon="126.9437649"></trkpt>
   <trkpt lat="37.4769052" lon="126.9437343"></trkpt>
   <trkpt lat="37.4769006" lon="126.9437163"></trkpt>
   <trkpt lat="37.4769006" lon="126.9437163"></trkpt>
   <trkpt lat="37.4768897" lon="126.9437028"></trkpt>
   <trkpt lat="37.4768644" lon="126.9436917"></trkpt>
   <trkpt lat="37.4754768" lon="126.9434181"></trkpt>
   <trkpt lat="37.475447" lon="126.9433991"></trkpt>
   <trkpt lat="37.4754251" lon="126.9433563"></trkpt>
   <trkpt lat="37.4754251" lon="126.9433563"></trkpt>
   <trkpt lat="37.4754017" lon="126.9433564"></trkpt>
   <trkpt lat="37.4752502" lon="126.9433282"></trkpt>
   <trkpt lat="37.475184" lon="126.9432619"></trkpt>
   <trkpt lat="37.4751377" lon="126.9431808"></trkpt>
   <trkpt lat="37.4751355" lon="126.9431096"></trkpt>
   <trkpt lat="37.4751326" lon="126.9430621"></trkpt>
   <trkpt lat="37.4751277" lon="126.9429819"></trkpt>
   <trkpt lat="37.4751221" lon="126.9429299"></trkpt>
   <trkpt lat="37.4750536" lon="126.9423581"></trkpt>
   <trkpt lat="37.4750329" lon="126.9421864"></trkpt>
   <trkpt lat="37.4750076" lon="126.9419739"></trkpt>
   <trkpt lat="37.4749898" lon="126.9418225"></trkpt>
   <trkpt lat="37.4749095" lon="126.9412373"></trkpt>
   <trkpt lat="37.4748471" lon="126.940817"></trkpt>
   <trkpt lat="37.4747578" lon="126.9402364"></trkpt>
   <trkpt lat="37.4747151" lon="126.93998"></trkpt>
   <trkpt lat="37.4746393" lon="126.9393755"></trkpt>
   <trkpt lat="37.4746393" lon="126.9393755"></trkpt>
   <trkpt lat="37.4746262" lon="126.9392749"></trkpt>
   <trkpt lat="37.4746055" lon="126.9391066"></trkpt>
   <trkpt lat="37.4744991" lon="126.9383247"></trkpt>
   <trkpt lat="37.4744787" lon="126.9382073"></trkpt>
   <trkpt lat="37.4744787" lon="126.9382073"></trkpt>
   <trkpt lat="37.4745749" lon="126.9381613"></trkpt>
   <trkpt lat="37.4749742" lon="126.9379615"></trkpt>
   <trkpt lat="37.4751091" lon="126.9378961"></trkpt>
   <trkpt lat="37.4752062" lon="126.937849"></trkpt>
   <trkpt lat="37.4756046" lon="126.9376549"></trkpt>
   <trkpt lat="37.4759742" lon="126.9374745"></trkpt>
   <trkpt lat="37.4760307" lon="126.9374198"></trkpt>
   <trkpt lat="37.4760307" lon="126.9374198"></trkpt>
   <trkpt lat="37.4760876" lon="126.9374386"></trkpt>
   <trkpt lat="37.4766008" lon="126.9375139"></trkpt>
   <trkpt lat="37.4768118" lon="126.9375338"></trkpt>
   <trkpt lat="37.4768316" lon="126.9375326"></trkpt>
   <trkpt lat="37.4769668" lon="126.9375236"></trkpt>
   <trkpt lat="37.4770001" lon="126.9375234"></trkpt>
   <trkpt lat="37.477029" lon="126.9375311"></trkpt>
   <trkpt lat="37.477029" lon="126.9375311"></trkpt>
   <trkpt lat="37.4770462" lon="126.9375491"></trkpt>
   <trkpt lat="37.4770653" lon="126.9375806"></trkpt>
   <trkpt lat="37.4771378" lon="126.9378424"></trkpt>
   <trkpt lat="37.4772472" lon="126.9383008"></trkpt>
   <trkpt lat="37.4772936" lon="126.9383898"></trkpt>
   <trkpt lat="37.4775389" lon="126.938794"></trkpt>
   <trkpt lat="37.4780446" lon="126.939574"></trkpt>
   <trkpt lat="37.4783098" lon="126.939986"></trkpt>
   <trkpt lat="37.4783098" lon="126.939986"></trkpt>
   <trkpt lat="37.4783492" lon="126.9399404"></trkpt>
   <trkpt lat="37.4784309" lon="126.9398674"></trkpt>
   <trkpt lat="37.4784309" lon="126.9398674"></trkpt>
   <trkpt lat="37.4784846" lon="126.9399699"></trkpt>
   <trkpt lat="37.4787263" lon="126.9403934"></trkpt>
   <trkpt lat="37.4789253" lon="126.9407143"></trkpt>
   <trkpt lat="37.479256" lon="126.9412683"></trkpt>
   <trkpt lat="37.479375" lon="126.9414676"></trkpt>
   <trkpt lat="37.4794268" lon="126.9415543"></trkpt>
   <trkpt lat="37.4796277" lon="126.9419204"></trkpt>
   <trkpt lat="37.4796844" lon="126.9420907"></trkpt>
   <trkpt lat="37.4797279" lon="126.9423256"></trkpt>
   <trkpt lat="37.479744" lon="126.9424974"></trkpt>
   <trkpt lat="37.4797346" lon="126.9426004"></trkpt>
   <trkpt lat="37.4797168" lon="126.9428336"></trkpt>
   <trkpt lat="37.4796894" lon="126.9431471"></trkpt>
   <trkpt lat="37.4796843" lon="126.9432036"></trkpt>
   <trkpt lat="37.4796559" lon="126.9435036"></trkpt>
   <trkpt lat="37.4796277" lon="126.9438216"></trkpt>
   <trkpt lat="37.4796277" lon="126.9438216"></trkpt>
   <trkpt lat="37.4796394" lon="126.9438249"></trkpt>
   <trkpt lat="37.4800968" lon="126.9439097"></trkpt>
   <trkpt lat="37.4803205" lon="126.9439409"></trkpt>
   <trkpt lat="37.4809509" lon="126.944029"></trkpt>
   <trkpt lat="37.481016" lon="126.9440647"></trkpt>
   <trkpt lat="37.4810846" lon="126.9440823"></trkpt>
   <trkpt lat="37.4812461" lon="126.944115"></trkpt>
   <trkpt lat="37.481487" lon="126.9441618"></trkpt>
   <trkpt lat="37.4817071" lon="126.9442055"></trkpt>
   <trkpt lat="37.4817713" lon="126.9440625"></trkpt>
   <trkpt lat="37.4817891" lon="126.9440103"></trkpt>
   <trkpt lat="37.4818068" lon="126.9439378"></trkpt>
   <trkpt lat="37.4818068" lon="126.9439378"></trkpt>
   <trkpt lat="37.4819199" lon="126.9440184"></trkpt>
   <trkpt lat="37.4819957" lon="126.9440404"></trkpt>
   <trkpt lat="37.4819957" lon="126.9440404"></trkpt>
   <trkpt lat="37.4820103" lon="126.9438854"></trkpt>
   <trkpt lat="37.4820207" lon="126.9438118"></trkpt>
   <trkpt lat="37.4820379" lon="126.943633"></trkpt>
   <trkpt lat="37.4820379" lon="126.943633"></trkpt>
   <trkpt lat="37.4820902" lon="126.9436371"></trkpt>
   <trkpt lat="37.4822886" lon="126.943665"></trkpt>
   <trkpt lat="37.482378" lon="126.9436802"></trkpt>
   <trkpt lat="37.482378" lon="126.9436802"></trkpt>
   <trkpt lat="37.4823563" lon="126.9438749"></trkpt>
   <trkpt lat="37.4822958" lon="126.9444251"></trkpt>
   <trkpt lat="37.4822352" lon="126.9449401"></trkpt>
   <trkpt lat="37.4822352" lon="126.9449401"></trkpt>
   <trkpt lat="37.482494" lon="126.9449744"></trkpt>
   <trkpt lat="37.4826004" lon="126.9449883"></trkpt>
   <trkpt lat="37.4826924" lon="126.9450001"></trkpt>
   <trkpt lat="37.4827907" lon="126.9450129"></trkpt>
   <trkpt lat="37.4827822" lon="126.9451058"></trkpt>
   <trkpt lat="37.4827822" lon="126.9451058"></trkpt>
   <trkpt lat="37.4830771" lon="126.9451522"></trkpt>
   <trkpt lat="37.4830771" lon="126.9451522"></trkpt>
   <trkpt lat="37.4830884" lon="126.9450628"></trkpt>
   <trkpt lat="37.4835746" lon="126.9451383"></trkpt>
   <trkpt lat="37.483939" lon="126.9452013"></trkpt>
   <trkpt lat="37.4842439" lon="126.9452409"></trkpt>
   <trkpt lat="37.4842439" lon="126.9452409"></trkpt>
   <trkpt lat="37.4842586" lon="126.9449286"></trkpt>
   <trkpt lat="37.4842586" lon="126.9449286"></trkpt>
   <trkpt lat="37.4847643" lon="126.9449305"></trkpt>
   <trkpt lat="37.4847643" lon="126.9449305"></trkpt>
   <trkpt lat="37.4842586" lon="126.9449286"></trkpt>
   <trkpt lat="37.4842586" lon="126.9449286"></trkpt>
   <trkpt lat="37.4842439" lon="126.9452409"></trkpt>
   <trkpt lat="37.4842439" lon="126.9452409"></trkpt>
   <trkpt lat="37.483939" lon="126.9452013"></trkpt>
   <trkpt lat="37.483939" lon="126.9452013"></trkpt>
   <trkpt lat="37.4838837" lon="126.9457095"></trkpt>
   <trkpt lat="37.4838517" lon="126.9459835"></trkpt>
   <trkpt lat="37.4838185" lon="126.9460222"></trkpt>
   <trkpt lat="37.4837775" lon="126.9465123"></trkpt>
   <trkpt lat="37.4837775" lon="126.9465123"></trkpt>
   <trkpt lat="37.4834465" lon="126.9464604"></trkpt>
   <trkpt lat="37.4830361" lon="126.9463978"></trkpt>
   <trkpt lat="37.4830009" lon="126.9463924"></trkpt>
   <trkpt lat="37.4829639" lon="126.946387"></trkpt>
   <trkpt lat="37.482969" lon="126.9463248"></trkpt>
   <trkpt lat="37.4829733" lon="126.9462784"></trkpt>
   <trkpt lat="37.4829733" lon="126.9462784"></trkpt>
   <trkpt lat="37.4826865" lon="126.9462375"></trkpt>
   <trkpt lat="37.4826663" lon="126.9465419"></trkpt>
   <trkpt lat="37.4826242" lon="126.9465977"></trkpt>
   <trkpt lat="37.4826242" lon="126.9465977"></trkpt>
   <trkpt lat="37.4825572" lon="126.9465292"></trkpt>
   <trkpt lat="37.4825038" lon="126.9464922"></trkpt>
   <trkpt lat="37.4820844" lon="126.9464218"></trkpt>
   <trkpt lat="37.4820844" lon="126.9464218"></trkpt>
   <trkpt lat="37.4819725" lon="126.9473682"></trkpt>
   <trkpt lat="37.4819682" lon="126.947409"></trkpt>
   <trkpt lat="37.481951" lon="126.947581"></trkpt>
   <trkpt lat="37.4819374" lon="126.9477542"></trkpt>
   <trkpt lat="37.4819228" lon="126.9479126"></trkpt>
   <trkpt lat="37.4818901" lon="126.9482567"></trkpt>
   <trkpt lat="37.4818025" lon="126.9491758"></trkpt>
   <trkpt lat="37.4817307" lon="126.9500201"></trkpt>
   <trkpt lat="37.4816931" lon="126.9504648"></trkpt>
   <trkpt lat="37.4816775" lon="126.9505894"></trkpt>
   <trkpt lat="37.4815536" lon="126.9518571"></trkpt>
   <trkpt lat="37.4815289" lon="126.9521785"></trkpt>
   <trkpt lat="37.4815236" lon="126.9524013"></trkpt>
   <trkpt lat="37.4815757" lon="126.9525367"></trkpt>
   <trkpt lat="37.4815757" lon="126.9525367"></trkpt>
   <trkpt lat="37.4815902" lon="126.9525614"></trkpt>
   <trkpt lat="37.4816574" lon="126.9526786"></trkpt>
   <trkpt lat="37.481982" lon="126.9528934"></trkpt>
   <trkpt lat="37.481982" lon="126.9528934"></trkpt>
   <trkpt lat="37.4820924" lon="126.9529842"></trkpt>
   <trkpt lat="37.4822443" lon="126.9530962"></trkpt>
   <trkpt lat="37.4822443" lon="126.9530962"></trkpt>
   <trkpt lat="37.4822624" lon="126.9531119"></trkpt>
   <trkpt lat="37.4825737" lon="126.9533664"></trkpt>
   <trkpt lat="37.4827737" lon="126.9535414"></trkpt>
  </trkseg>
 </trk>
</gpx>
