<?xml version="1.0" encoding="UTF-8"?>
<gpx creator="daengrun-naver-route" version="1.1" xmlns="http://www.topografix.com/GPX/1/1" xmlns:xsi="http://www.w3.org/2001/XMLSchema-instance" xsi:schemaLocation="http://www.topografix.com/GPX/1/1 http://www.topografix.com/GPX/1/1/gpx.xsd">
 <metadata>
  <name>광진 한강 자전거길 진입·구의공원 루프 4.77km</name>
  <desc>daengrun candidate geometry — measured 4.77km via Naver pedestrian router (o=flat, 계단회피). Elevation NOT available from this source. stairs=0 crosswalk=12 steppingstone=0 underpass=0 overpass=0</desc>
  <link href="naver:ckpswi"><text>daengrun route id</text></link>
  <copyright author="NAVER Corp."><license>https://map.naver.com/</license></copyright>
 </metadata>
 <trk>
  <name>광진 한강 자전거길 진입·구의공원 루프 4.77km</name>
  <trkseg>
   <trkpt lat="37.5419702" lon="127.0965316"></trkpt>
   <trkpt lat="37.5420057" lon="127.0966401"></trkpt>
   <trkpt lat="37.5420301" lon="127.0966615"></trkpt>
   <trkpt lat="37.5420635" lon="127.0966523"></trkpt>
   <trkpt lat="37.5421795" lon="127.0965962"></trkpt>
   <trkpt lat="37.5421795" lon="127.0965962"></trkpt>
   <trkpt lat="37.5422589" lon="127.0968674"></trkpt>
   <trkpt lat="37.5422924" lon="127.0969091"></trkpt>
   <trkpt lat="37.5422924" lon="127.0969091"></trkpt>
   <trkpt lat="37.5421387" lon="127.0970299"></trkpt>
   <trkpt lat="37.5420047" lon="127.097119"></trkpt>
   <trkpt lat="37.5417627" lon="127.0972697"></trkpt>
   <trkpt lat="37.5417627" lon="127.0972697"></trkpt>
   <trkpt lat="37.5417927" lon="127.0973408"></trkpt>
   <trkpt lat="37.5418091" lon="127.0973928"></trkpt>
   <trkpt lat="37.5418091" lon="127.0973928"></trkpt>
   <trkpt lat="37.5418228" lon="127.0974324"></trkpt>
   <trkpt lat="37.5419458" lon="127.0978426"></trkpt>
   <trkpt lat="37.5420626" lon="127.0982472"></trkpt>
   <trkpt lat="37.5420626" lon="127.0982472"></trkpt>
   <trkpt lat="37.5420844" lon="127.098306"></trkpt>
   <trkpt lat="37.5421072" lon="127.098367"></trkpt>
   <trkpt lat="37.5421072" lon="127.098367"></trkpt>
   <trkpt lat="37.5421427" lon="127.0984743"></trkpt>
   <trkpt lat="37.5424951" lon="127.0995206"></trkpt>
   <trkpt lat="37.5428629" lon="127.1006178"></trkpt>
   <trkpt lat="37.5429366" lon="127.1008291"></trkpt>
   <trkpt lat="37.5429366" lon="127.1008291"></trkpt>
   <trkpt lat="37.5429694" lon="127.1009308"></trkpt>
   <trkpt lat="37.5429849" lon="127.100976"></trkpt>
   <trkpt lat="37.5429849" lon="127.100976"></trkpt>
   <trkpt lat="37.5430132" lon="127.1010721"></trkpt>
   <trkpt lat="37.5433592" lon="127.1021049"></trkpt>
   <trkpt lat="37.5433592" lon="127.1021049"></trkpt>
   <trkpt lat="37.5432513" lon="127.1021802"></trkpt>
   <trkpt lat="37.5431452" lon="127.10226"></trkpt>
   <trkpt lat="37.5431452" lon="127.10226"></trkpt>
   <trkpt lat="37.5432071" lon="127.1024374"></trkpt>
   <trkpt lat="37.5432933" lon="127.1026045"></trkpt>
   <trkpt lat="37.5434076" lon="127.1028189"></trkpt>
   <trkpt lat="37.5436231" lon="127.1031166"></trkpt>
   <trkpt lat="37.5437081" lon="127.1032079"></trkpt>
   <trkpt lat="37.5438231" lon="127.1033488"></trkpt>
   <trkpt lat="37.5444885" lon="127.1039611"></trkpt>
   <trkpt lat="37.5446205" lon="127.1040826"></trkpt>
   <trkpt lat="37.5446649" lon="127.1041345"></trkpt>
   <trkpt lat="37.544712" lon="127.1042033"></trkpt>
   <trkpt lat="37.5447374" lon="127.1042631"></trkpt>
   <trkpt lat="37.5447474" lon="127.104297"></trkpt>
   <trkpt lat="37.5447583" lon="127.1043309"></trkpt>
   <trkpt lat="37.5447675" lon="127.104383"></trkpt>
   <trkpt lat="37.5447678" lon="127.1044622"></trkpt>
   <trkpt lat="37.5447644" lon="127.1045211"></trkpt>
   <trkpt lat="37.5447627" lon="127.1045403"></trkpt>
   <trkpt lat="37.5447627" lon="127.1045403"></trkpt>
   <trkpt lat="37.5452096" lon="127.1047655"></trkpt>
   <trkpt lat="37.5452306" lon="127.1048537"></trkpt>
   <trkpt lat="37.5452453" lon="127.1049238"></trkpt>
   <trkpt lat="37.5452453" lon="127.1049238"></trkpt>
   <trkpt lat="37.5453137" lon="127.1049053"></trkpt>
   <trkpt lat="37.5453841" lon="127.1049219"></trkpt>
   <trkpt lat="37.54545" lon="127.1049657"></trkpt>
   <trkpt lat="37.5456218" lon="127.1051131"></trkpt>
   <trkpt lat="37.5462347" lon="127.1056544"></trkpt>
   <trkpt lat="37.5463261" lon="127.1057524"></trkpt>
   <trkpt lat="37.5464003" lon="127.1058494"></trkpt>
   <trkpt lat="37.5464818" lon="127.1059769"></trkpt>
   <trkpt lat="37.5465145" lon="127.106048"></trkpt>
   <trkpt lat="37.5465364" lon="127.1061351"></trkpt>
   <trkpt lat="37.5465364" lon="127.1061351"></trkpt>
   <trkpt lat="37.5465478" lon="127.1063026"></trkpt>
   <trkpt lat="37.5465393" lon="127.106443"></trkpt>
   <trkpt lat="37.5465138" lon="127.1066401"></trkpt>
   <trkpt lat="37.5464715" lon="127.1069222"></trkpt>
   <trkpt lat="37.5464179" lon="127.107347"></trkpt>
   <trkpt lat="37.54641" lon="127.107407"></trkpt>
   <trkpt lat="37.5463527" lon="127.107516"></trkpt>
   <trkpt lat="37.5463527" lon="127.107516"></trkpt>
   <trkpt lat="37.5463393" lon="127.1075772"></trkpt>
   <trkpt lat="37.5463171" lon="127.1076577"></trkpt>
   <trkpt lat="37.5463171" lon="127.1076577"></trkpt>
   <trkpt lat="37.5462154" lon="127.1079729"></trkpt>
   <trkpt lat="37.5462002" lon="127.108024"></trkpt>
   <trkpt lat="37.5461868" lon="127.1080648"></trkpt>
   <trkpt lat="37.5460572" lon="127.1083836"></trkpt>
   <trkpt lat="37.5459855" lon="127.1084949"></trkpt>
   <trkpt lat="37.5459189" lon="127.108545"></trkpt>
   <trkpt lat="37.5458343" lon="127.1085738"></trkpt>
   <trkpt lat="37.5457694" lon="127.1085866"></trkpt>
   <trkpt lat="37.5456702" lon="127.1085701"></trkpt>
   <trkpt lat="37.5455691" lon="127.1085208"></trkpt>
   <trkpt lat="37.5454796" lon="127.1084409"></trkpt>
   <trkpt lat="37.5454796" lon="127.1084409"></trkpt>
   <trkpt lat="37.5455691" lon="127.1085208"></trkpt>
   <trkpt lat="37.5456702" lon="127.1085701"></trkpt>
   <trkpt lat="37.5457694" lon="127.1085866"></trkpt>
   <trkpt lat="37.5458343" lon="127.1085738"></trkpt>
   <trkpt lat="37.5459189" lon="127.108545"></trkpt>
   <trkpt lat="37.5459855" lon="127.1084949"></trkpt>
   <trkpt lat="37.5460572" lon="127.1083836"></trkpt>
   <trkpt lat="37.5461868" lon="127.1080648"></trkpt>
   <trkpt lat="37.5462002" lon="127.108024"></trkpt>
   <trkpt lat="37.5462154" lon="127.1079729"></trkpt>
   <trkpt lat="37.5463171" lon="127.1076577"></trkpt>
   <trkpt lat="37.5463171" lon="127.1076577"></trkpt>
   <trkpt lat="37.5463393" lon="127.1075772"></trkpt>
   <trkpt lat="37.5463527" lon="127.107516"></trkpt>
   <trkpt lat="37.5463527" lon="127.107516"></trkpt>
   <trkpt lat="37.54641" lon="127.107407"></trkpt>
   <trkpt lat="37.5464179" lon="127.107347"></trkpt>
   <trkpt lat="37.5464715" lon="127.1069222"></trkpt>
   <trkpt lat="37.5465138" lon="127.1066401"></trkpt>
   <trkpt lat="37.5465393" lon="127.106443"></trkpt>
   <trkpt lat="37.5465478" lon="127.1063026"></trkpt>
   <trkpt lat="37.5465364" lon="127.1061351"></trkpt>
   <trkpt lat="37.5465364" lon="127.1061351"></trkpt>
   <trkpt lat="37.5465145" lon="127.106048"></trkpt>
   <trkpt lat="37.5464818" lon="127.1059769"></trkpt>
   <trkpt lat="37.5464003" lon="127.1058494"></trkpt>
   <trkpt lat="37.5463261" lon="127.1057524"></trkpt>
   <trkpt lat="37.5462347" lon="127.1056544"></trkpt>
   <trkpt lat="37.5456218" lon="127.1051131"></trkpt>
   <trkpt lat="37.54545" lon="127.1049657"></trkpt>
   <trkpt lat="37.5453841" lon="127.1049219"></trkpt>
   <trkpt lat="37.5453137" lon="127.1049053"></trkpt>
   <trkpt lat="37.5452453" lon="127.1049238"></trkpt>
   <trkpt lat="37.5452453" lon="127.1049238"></trkpt>
   <trkpt lat="37.5452306" lon="127.1048537"></trkpt>
   <trkpt lat="37.5452096" lon="127.1047655"></trkpt>
   <trkpt lat="37.5447627" lon="127.1045403"></trkpt>
   <trkpt lat="37.5447627" lon="127.1045403"></trkpt>
   <trkpt lat="37.5447644" lon="127.1045211"></trkpt>
   <trkpt lat="37.5447678" lon="127.1044622"></trkpt>
   <trkpt lat="37.5447675" lon="127.104383"></trkpt>
   <trkpt lat="37.5447583" lon="127.1043309"></trkpt>
   <trkpt lat="37.5447474" lon="127.104297"></trkpt>
   <trkpt lat="37.5447374" lon="127.1042631"></trkpt>
   <trkpt lat="37.544712" lon="127.1042033"></trkpt>
   <trkpt lat="37.5446649" lon="127.1041345"></trkpt>
   <trkpt lat="37.5446205" lon="127.1040826"></trkpt>
   <trkpt lat="37.5444885" lon="127.1039611"></trkpt>
   <trkpt lat="37.5438231" lon="127.1033488"></trkpt>
   <trkpt lat="37.5437081" lon="127.1032079"></trkpt>
   <trkpt lat="37.5436231" lon="127.1031166"></trkpt>
   <trkpt lat="37.5434076" lon="127.1028189"></trkpt>
   <trkpt lat="37.5432933" lon="127.1026045"></trkpt>
   <trkpt lat="37.5432071" lon="127.1024374"></trkpt>
   <trkpt lat="37.5431452" lon="127.10226"></trkpt>
   <trkpt lat="37.5429859" lon="127.1018058"></trkpt>
   <trkpt lat="37.5428785" lon="127.101503"></trkpt>
   <trkpt lat="37.5428631" lon="127.1014646"></trkpt>
   <trkpt lat="37.5428631" lon="127.1014646"></trkpt>
   <trkpt lat="37.5428167" lon="127.1013437"></trkpt>
   <trkpt lat="37.5427921" lon="127.1012601"></trkpt>
   <trkpt lat="37.5427921" lon="127.1012601"></trkpt>
   <trkpt lat="37.542772" lon="127.1011979"></trkpt>
   <trkpt lat="37.5427292" lon="127.1010612"></trkpt>
   <trkpt lat="37.5422" lon="127.0994385"></trkpt>
   <trkpt lat="37.5419285" lon="127.0985875"></trkpt>
   <trkpt lat="37.5418739" lon="127.0984112"></trkpt>
   <trkpt lat="37.5417136" lon="127.0979265"></trkpt>
   <trkpt lat="37.5415696" lon="127.0974813"></trkpt>
   <trkpt lat="37.5414195" lon="127.0970576"></trkpt>
   <trkpt lat="37.5413767" lon="127.0969356"></trkpt>
   <trkpt lat="37.5412619" lon="127.0965864"></trkpt>
   <trkpt lat="37.5411999" lon="127.0963841"></trkpt>
   <trkpt lat="37.5411673" lon="127.096339"></trkpt>
   <trkpt lat="37.5411294" lon="127.09632"></trkpt>
   <trkpt lat="37.5410961" lon="127.0963168"></trkpt>
   <trkpt lat="37.5410961" lon="127.0963168"></trkpt>
   <trkpt lat="37.5410618" lon="127.0963192"></trkpt>
   <trkpt lat="37.5410285" lon="127.0963341"></trkpt>
   <trkpt lat="37.5409989" lon="127.0963614"></trkpt>
   <trkpt lat="37.5409513" lon="127.0964149"></trkpt>
   <trkpt lat="37.5401696" lon="127.0974254"></trkpt>
   <trkpt lat="37.5398089" lon="127.0978914"></trkpt>
   <trkpt lat="37.5395014" lon="127.0983809"></trkpt>
   <trkpt lat="37.5395014" lon="127.0983809"></trkpt>
   <trkpt lat="37.5394643" lon="127.0983415"></trkpt>
   <trkpt lat="37.5392641" lon="127.0980528"></trkpt>
   <trkpt lat="37.5392433" lon="127.098019"></trkpt>
   <trkpt lat="37.5392433" lon="127.098019"></trkpt>
   <trkpt lat="37.539228" lon="127.0980338"></trkpt>
   <trkpt lat="37.5392145" lon="127.0980418"></trkpt>
   <trkpt lat="37.539201" lon="127.0980452"></trkpt>
   <trkpt lat="37.5391866" lon="127.0980442"></trkpt>
   <trkpt lat="37.5391694" lon="127.0980296"></trkpt>
   <trkpt lat="37.539003" lon="127.0978629"></trkpt>
   <trkpt lat="37.5388409" lon="127.0976578"></trkpt>
   <trkpt lat="37.5382346" lon="127.0969344"></trkpt>
   <trkpt lat="37.5381604" lon="127.096851"></trkpt>
   <trkpt lat="37.537955" lon="127.0966257"></trkpt>
   <trkpt lat="37.5372401" lon="127.0957863"></trkpt>
   <trkpt lat="37.5370998" lon="127.0956229"></trkpt>
   <trkpt lat="37.5369803" lon="127.0954889"></trkpt>
   <trkpt lat="37.5365188" lon="127.0949537"></trkpt>
   <trkpt lat="37.5363605" lon="127.0947735"></trkpt>
   <trkpt lat="37.5363315" lon="127.0947238"></trkpt>
   <trkpt lat="37.536316" lon="127.0946843"></trkpt>
   <trkpt lat="37.536316" lon="127.0946843"></trkpt>
   <trkpt lat="37.5364249" lon="127.094635"></trkpt>
   <trkpt lat="37.5365293" lon="127.0945881"></trkpt>
   <trkpt lat="37.5369118" lon="127.0944275"></trkpt>
   <trkpt lat="37.5369118" lon="127.0944275"></trkpt>
   <trkpt lat="37.5365293" lon="127.0945881"></trkpt>
   <trkpt lat="37.5364249" lon="127.094635"></trkpt>
   <trkpt lat="37.536316" lon="127.0946843"></trkpt>
   <trkpt lat="37.536316" lon="127.0946843"></trkpt>
   <trkpt lat="37.5363315" lon="127.0947238"></trkpt>
   <trkpt lat="37.5363605" lon="127.0947735"></trkpt>
   <trkpt lat="37.5365188" lon="127.0949537"></trkpt>
   <trkpt lat="37.5369803" lon="127.0954889"></trkpt>
   <trkpt lat="37.5370998" lon="127.0956229"></trkpt>
   <trkpt lat="37.5372401" lon="127.0957863"></trkpt>
   <trkpt lat="37.537955" lon="127.0966257"></trkpt>
   <trkpt lat="37.5381604" lon="127.096851"></trkpt>
   <trkpt lat="37.5382346" lon="127.0969344"></trkpt>
   <trkpt lat="37.5388409" lon="127.0976578"></trkpt>
   <trkpt lat="37.539003" lon="127.0978629"></trkpt>
   <trkpt lat="37.5391694" lon="127.0980296"></trkpt>
   <trkpt lat="37.5391866" lon="127.0980442"></trkpt>
   <trkpt lat="37.539201" lon="127.0980452"></trkpt>
   <trkpt lat="37.5392145" lon="127.0980418"></trkpt>
   <trkpt lat="37.539228" lon="127.0980338"></trkpt>
   <trkpt lat="37.5392433" lon="127.098019"></trkpt>
   <trkpt lat="37.5392433" lon="127.098019"></trkpt>
   <trkpt lat="37.5392641" lon="127.0980528"></trkpt>
   <trkpt lat="37.5394643" lon="127.0983415"></trkpt>
   <trkpt lat="37.5395014" lon="127.0983809"></trkpt>
   <trkpt lat="37.5395014" lon="127.0983809"></trkpt>
   <trkpt lat="37.5398089" lon="127.0978914"></trkpt>
   <trkpt lat="37.5401696" lon="127.0974254"></trkpt>
   <trkpt lat="37.5409513" lon="127.0964149"></trkpt>
   <trkpt lat="37.5409989" lon="127.0963614"></trkpt>
   <trkpt lat="37.5410285" lon="127.0963341"></trkpt>
   <trkpt lat="37.5410618" lon="127.0963192"></trkpt>
   <trkpt lat="37.5410961" lon="127.0963168"></trkpt>
   <trkpt lat="37.5410961" lon="127.0963168"></trkpt>
   <trkpt lat="37.5411103" lon="127.0962544"></trkpt>
   <trkpt lat="37.5411308" lon="127.096183"></trkpt>
   <trkpt lat="37.5414364" lon="127.0959414"></trkpt>
   <trkpt lat="37.5416044" lon="127.0960548"></trkpt>
   <trkpt lat="37.5416775" lon="127.0960635"></trkpt>
   <trkpt lat="37.5416775" lon="127.0960635"></trkpt>
   <trkpt lat="37.5416522" lon="127.0963171"></trkpt>
   <trkpt lat="37.5416468" lon="127.0965922"></trkpt>
   <trkpt lat="37.5416519" lon="127.0967609"></trkpt>
   <trkpt lat="37.5416854" lon="127.0970516"></trkpt>
   <trkpt lat="37.5417236" lon="127.097168"></trkpt>
   <trkpt lat="37.5417509" lon="127.0972369"></trkpt>
   <trkpt lat="37.5417627" lon="127.0972697"></trkpt>
   <trkpt lat="37.5417627" lon="127.0972697"></trkpt>
   <trkpt lat="37.5420047" lon="127.097119"></trkpt>
   <trkpt lat="37.5421387" lon="127.0970299"></trkpt>
   <trkpt lat="37.5422924" lon="127.0969091"></trkpt>
   <trkpt lat="37.5422924" lon="127.0969091"></trkpt>
   <trkpt lat="37.5422589" lon="127.0968674"></trkpt>
   <trkpt lat="37.5421795" lon="127.0965962"></trkpt>
   <trkpt lat="37.5421795" lon="127.0965962"></trkpt>
   <trkpt lat="37.5420635" lon="127.0966523"></trkpt>
   <trkpt lat="37.5420301" lon="127.0966615"></trkpt>
   <trkpt lat="37.5420057" lon="127.0966401"></trkpt>
   <trkpt lat="37.5419702" lon="127.0965316"></trkpt>
  </trkseg>
 </trk>
</gpx>
