<?xml version="1.0" encoding="UTF-8"?>
<gpx creator="daengrun-naver-route" version="1.1" xmlns="http://www.topografix.com/GPX/1/1" xmlns:xsi="http://www.w3.org/2001/XMLSchema-instance" xsi:schemaLocation="http://www.topografix.com/GPX/1/1 http://www.topografix.com/GPX/1/1/gpx.xsd">
 <metadata>
  <name>구로 오류역 문화공원·오류천 루프 2.7km</name>
  <desc>daengrun candidate geometry — measured 2.70km via Naver pedestrian router (o=flat, 계단회피). Elevation NOT available from this source. stairs=0 crosswalk=5 steppingstone=0 underpass=2 overpass=0</desc>
  <link href="naver:4523jd"><text>daengrun route id</text></link>
  <copyright author="NAVER Corp."><license>https://map.naver.com/</license></copyright>
 </metadata>
 <trk>
  <name>구로 오류역 문화공원·오류천 루프 2.7km</name>
  <trkseg>
   <trkpt lat="37.4914911" lon="126.8392874"></trkpt>
   <trkpt lat="37.4915415" lon="126.8392858"></trkpt>
   <trkpt lat="37.4916538" lon="126.8392181"></trkpt>
   <trkpt lat="37.491679" lon="126.8392054"></trkpt>
   <trkpt lat="37.4918254" lon="126.8391125"></trkpt>
   <trkpt lat="37.4918955" lon="126.8390711"></trkpt>
   <trkpt lat="37.4919288" lon="126.8390629"></trkpt>
   <trkpt lat="37.4919288" lon="126.8390629"></trkpt>
   <trkpt lat="37.4919627" lon="126.8391723"></trkpt>
   <trkpt lat="37.4920497" lon="126.8394103"></trkpt>
   <trkpt lat="37.4921312" lon="126.839646"></trkpt>
   <trkpt lat="37.492208" lon="126.8398274"></trkpt>
   <trkpt lat="37.4923938" lon="126.8403405"></trkpt>
   <trkpt lat="37.4924213" lon="126.840416"></trkpt>
   <trkpt lat="37.4924224" lon="126.8404534"></trkpt>
   <trkpt lat="37.4924145" lon="126.8404908"></trkpt>
   <trkpt lat="37.4924145" lon="126.8404908"></trkpt>
   <trkpt lat="37.4924388" lon="126.8404973"></trkpt>
   <trkpt lat="37.4924704" lon="126.8405061"></trkpt>
   <trkpt lat="37.4924801" lon="126.8406225"></trkpt>
   <trkpt lat="37.4924879" lon="126.8407197"></trkpt>
   <trkpt lat="37.4924879" lon="126.8407197"></trkpt>
   <trkpt lat="37.4925527" lon="126.8407124"></trkpt>
   <trkpt lat="37.4925762" lon="126.8407224"></trkpt>
   <trkpt lat="37.4925907" lon="126.8407437"></trkpt>
   <trkpt lat="37.4926054" lon="126.8407787"></trkpt>
   <trkpt lat="37.4926698" lon="126.8410145"></trkpt>
   <trkpt lat="37.4926857" lon="126.8411309"></trkpt>
   <trkpt lat="37.4926889" lon="126.8412112"></trkpt>
   <trkpt lat="37.4926758" lon="126.8412928"></trkpt>
   <trkpt lat="37.4926457" lon="126.8413869"></trkpt>
   <trkpt lat="37.492562" lon="126.841563"></trkpt>
   <trkpt lat="37.4925057" lon="126.8416562"></trkpt>
   <trkpt lat="37.4925057" lon="126.8416562"></trkpt>
   <trkpt lat="37.4925775" lon="126.8417631"></trkpt>
   <trkpt lat="37.4925775" lon="126.8417631"></trkpt>
   <trkpt lat="37.4926211" lon="126.8418272"></trkpt>
   <trkpt lat="37.4928429" lon="126.8421589"></trkpt>
   <trkpt lat="37.4931685" lon="126.8426798"></trkpt>
   <trkpt lat="37.493244" lon="126.8428115"></trkpt>
   <trkpt lat="37.4934073" lon="126.8431676"></trkpt>
   <trkpt lat="37.493573" lon="126.8436254"></trkpt>
   <trkpt lat="37.4935968" lon="126.8436931"></trkpt>
   <trkpt lat="37.493661" lon="126.8438825"></trkpt>
   <trkpt lat="37.4936978" lon="126.8440248"></trkpt>
   <trkpt lat="37.4936978" lon="126.8440248"></trkpt>
   <trkpt lat="37.4937932" lon="126.8439877"></trkpt>
   <trkpt lat="37.4937932" lon="126.8439877"></trkpt>
   <trkpt lat="37.4938182" lon="126.8441052"></trkpt>
   <trkpt lat="37.4938357" lon="126.8441808"></trkpt>
   <trkpt lat="37.4939208" lon="126.8445749"></trkpt>
   <trkpt lat="37.4939208" lon="126.8445749"></trkpt>
   <trkpt lat="37.4939622" lon="126.8445598"></trkpt>
   <trkpt lat="37.493952" lon="126.844509"></trkpt>
   <trkpt lat="37.4943425" lon="126.8443902"></trkpt>
   <trkpt lat="37.4946283" lon="126.8456897"></trkpt>
   <trkpt lat="37.4946283" lon="126.8456897"></trkpt>
   <trkpt lat="37.4943425" lon="126.8443902"></trkpt>
   <trkpt lat="37.4946754" lon="126.8442832"></trkpt>
   <trkpt lat="37.4947483" lon="126.8442599"></trkpt>
   <trkpt lat="37.4947483" lon="126.8442599"></trkpt>
   <trkpt lat="37.4947289" lon="126.8441696"></trkpt>
   <trkpt lat="37.4947601" lon="126.8441082"></trkpt>
   <trkpt lat="37.4947398" lon="126.8440179"></trkpt>
   <trkpt lat="37.4947398" lon="126.8440179"></trkpt>
   <trkpt lat="37.4950999" lon="126.8439446"></trkpt>
   <trkpt lat="37.4951224" lon="126.8439422"></trkpt>
   <trkpt lat="37.4951258" lon="126.8439105"></trkpt>
   <trkpt lat="37.4951329" lon="126.8438787"></trkpt>
   <trkpt lat="37.4951489" lon="126.8438469"></trkpt>
   <trkpt lat="37.4951686" lon="126.8438264"></trkpt>
   <trkpt lat="37.4952208" lon="126.8438078"></trkpt>
   <trkpt lat="37.4952542" lon="126.8438086"></trkpt>
   <trkpt lat="37.4952822" lon="126.8438163"></trkpt>
   <trkpt lat="37.4953029" lon="126.843815"></trkpt>
   <trkpt lat="37.4953461" lon="126.8438033"></trkpt>
   <trkpt lat="37.4957513" lon="126.8435645"></trkpt>
   <trkpt lat="37.4957513" lon="126.8435645"></trkpt>
   <trkpt lat="37.4957211" lon="126.8434923"></trkpt>
   <trkpt lat="37.4954965" lon="126.8429705"></trkpt>
   <trkpt lat="37.4953459" lon="126.8426279"></trkpt>
   <trkpt lat="37.4951834" lon="126.8422583"></trkpt>
   <trkpt lat="37.4947726" lon="126.8413264"></trkpt>
   <trkpt lat="37.4946338" lon="126.841012"></trkpt>
   <trkpt lat="37.4945744" lon="126.8408722"></trkpt>
   <trkpt lat="37.4943223" lon="126.8402658"></trkpt>
   <trkpt lat="37.4943223" lon="126.8402658"></trkpt>
   <trkpt lat="37.4942802" lon="126.8401621"></trkpt>
   <trkpt lat="37.4942464" lon="126.8400787"></trkpt>
   <trkpt lat="37.4942464" lon="126.8400787"></trkpt>
   <trkpt lat="37.4942154" lon="126.8400066"></trkpt>
   <trkpt lat="37.4940055" lon="126.8395525"></trkpt>
   <trkpt lat="37.4938969" lon="126.8393035"></trkpt>
   <trkpt lat="37.4932267" lon="126.8379395"></trkpt>
   <trkpt lat="37.4931411" lon="126.8377717"></trkpt>
   <trkpt lat="37.4930655" lon="126.8376321"></trkpt>
   <trkpt lat="37.492864" lon="126.8372345"></trkpt>
   <trkpt lat="37.492864" lon="126.8372345"></trkpt>
   <trkpt lat="37.4929897" lon="126.8371395"></trkpt>
   <trkpt lat="37.4930866" lon="126.8370584"></trkpt>
   <trkpt lat="37.4930866" lon="126.8370584"></trkpt>
   <trkpt lat="37.4930683" lon="126.8370178"></trkpt>
   <trkpt lat="37.4928768" lon="126.8366156"></trkpt>
   <trkpt lat="37.4924992" lon="126.8351937"></trkpt>
   <trkpt lat="37.4923777" lon="126.8347389"></trkpt>
   <trkpt lat="37.4923777" lon="126.8347389"></trkpt>
   <trkpt lat="37.4925722" lon="126.8345392"></trkpt>
   <trkpt lat="37.4925722" lon="126.8345392"></trkpt>
   <trkpt lat="37.4923777" lon="126.8347389"></trkpt>
   <trkpt lat="37.4923777" lon="126.8347389"></trkpt>
   <trkpt lat="37.4923419" lon="126.8346193"></trkpt>
   <trkpt lat="37.4922931" lon="126.834433"></trkpt>
   <trkpt lat="37.4921625" lon="126.8339761"></trkpt>
   <trkpt lat="37.4921625" lon="126.8339761"></trkpt>
   <trkpt lat="37.4920483" lon="126.8340302"></trkpt>
   <trkpt lat="37.4919216" lon="126.8340902"></trkpt>
   <trkpt lat="37.4919216" lon="126.8340902"></trkpt>
   <trkpt lat="37.4919666" lon="126.8342504"></trkpt>
   <trkpt lat="37.4923257" lon="126.83559"></trkpt>
   <trkpt lat="37.4923315" lon="126.835651"></trkpt>
   <trkpt lat="37.4923315" lon="126.835651"></trkpt>
   <trkpt lat="37.492295" lon="126.8357452"></trkpt>
   <trkpt lat="37.4922837" lon="126.8358189"></trkpt>
   <trkpt lat="37.4922841" lon="126.8358856"></trkpt>
   <trkpt lat="37.4924227" lon="126.8364907"></trkpt>
   <trkpt lat="37.492492" lon="126.8367955"></trkpt>
   <trkpt lat="37.4924972" lon="126.8369131"></trkpt>
   <trkpt lat="37.4925003" lon="126.8369832"></trkpt>
   <trkpt lat="37.4925025" lon="126.8370488"></trkpt>
   <trkpt lat="37.4925031" lon="126.8373294"></trkpt>
   <trkpt lat="37.4924641" lon="126.8375989"></trkpt>
   <trkpt lat="37.4924226" lon="126.8377565"></trkpt>
   <trkpt lat="37.4923682" lon="126.8378554"></trkpt>
   <trkpt lat="37.4922965" lon="126.8379262"></trkpt>
   <trkpt lat="37.4921052" lon="126.8380535"></trkpt>
   <trkpt lat="37.4920441" lon="126.8380947"></trkpt>
   <trkpt lat="37.4919358" lon="126.8382212"></trkpt>
   <trkpt lat="37.4918979" lon="126.8383867"></trkpt>
   <trkpt lat="37.4918881" lon="126.8385542"></trkpt>
   <trkpt lat="37.4919064" lon="126.8389398"></trkpt>
   <trkpt lat="37.4919288" lon="126.8390629"></trkpt>
   <trkpt lat="37.4919288" lon="126.8390629"></trkpt>
   <trkpt lat="37.4918955" lon="126.8390711"></trkpt>
   <trkpt lat="37.4918254" lon="126.8391125"></trkpt>
   <trkpt lat="37.491679" lon="126.8392054"></trkpt>
   <trkpt lat="37.4916538" lon="126.8392181"></trkpt>
   <trkpt lat="37.4915415" lon="126.8392858"></trkpt>
   <trkpt lat="37.4914911" lon="126.8392874"></trkpt>
  </trkseg>
 </trk>
</gpx>
