<?xml version="1.0" encoding="UTF-8"?>
<gpx creator="daengrun-naver-route" version="1.1" xmlns="http://www.topografix.com/GPX/1/1" xmlns:xsi="http://www.w3.org/2001/XMLSchema-instance" xsi:schemaLocation="http://www.topografix.com/GPX/1/1 http://www.topografix.com/GPX/1/1/gpx.xsd">
 <metadata>
  <name>구로 연지근린공원·천왕 근린공원 루프 3.43km</name>
  <desc>daengrun candidate geometry — measured 3.43km via Naver pedestrian router (o=flat, 계단회피). Elevation NOT available from this source. stairs=0 crosswalk=6 steppingstone=0 underpass=0 overpass=0</desc>
  <link href="naver:1rbq8qm"><text>daengrun route id</text></link>
  <copyright author="NAVER Corp."><license>https://map.naver.com/</license></copyright>
 </metadata>
 <trk>
  <name>구로 연지근린공원·천왕 근린공원 루프 3.43km</name>
  <trkseg>
   <trkpt lat="37.4829596" lon="126.8447543"></trkpt>
   <trkpt lat="37.4829596" lon="126.8447554"></trkpt>
   <trkpt lat="37.4829986" lon="126.8448003"></trkpt>
   <trkpt lat="37.4830447" lon="126.8448248"></trkpt>
   <trkpt lat="37.4830753" lon="126.8448257"></trkpt>
   <trkpt lat="37.4831114" lon="126.8448265"></trkpt>
   <trkpt lat="37.4831545" lon="126.8447967"></trkpt>
   <trkpt lat="37.4831938" lon="126.8447308"></trkpt>
   <trkpt lat="37.4832292" lon="126.8446196"></trkpt>
   <trkpt lat="37.4833545" lon="126.8442916"></trkpt>
   <trkpt lat="37.4834502" lon="126.8439933"></trkpt>
   <trkpt lat="37.4835246" lon="126.8437608"></trkpt>
   <trkpt lat="37.4836267" lon="126.8434839"></trkpt>
   <trkpt lat="37.483704" lon="126.8432865"></trkpt>
   <trkpt lat="37.4837165" lon="126.8432547"></trkpt>
   <trkpt lat="37.4838074" lon="126.8430639"></trkpt>
   <trkpt lat="37.4838662" lon="126.8429502"></trkpt>
   <trkpt lat="37.4838912" lon="126.8429048"></trkpt>
   <trkpt lat="37.4838685" lon="126.8428665"></trkpt>
   <trkpt lat="37.4838728" lon="126.8428303"></trkpt>
   <trkpt lat="37.4838897" lon="126.8427951"></trkpt>
   <trkpt lat="37.4840541" lon="126.8425312"></trkpt>
   <trkpt lat="37.4840647" lon="126.8424949"></trkpt>
   <trkpt lat="37.4840647" lon="126.8424949"></trkpt>
   <trkpt lat="37.4840528" lon="126.8424713"></trkpt>
   <trkpt lat="37.4840365" lon="126.8424511"></trkpt>
   <trkpt lat="37.483597" lon="126.8420228"></trkpt>
   <trkpt lat="37.483471" lon="126.8419007"></trkpt>
   <trkpt lat="37.4834348" lon="126.8418727"></trkpt>
   <trkpt lat="37.483414" lon="126.8418661"></trkpt>
   <trkpt lat="37.4833861" lon="126.8418754"></trkpt>
   <trkpt lat="37.483361" lon="126.8418994"></trkpt>
   <trkpt lat="37.483361" lon="126.8418994"></trkpt>
   <trkpt lat="37.4831761" lon="126.8417076"></trkpt>
   <trkpt lat="37.4830871" lon="126.8417581"></trkpt>
   <trkpt lat="37.4830871" lon="126.8417581"></trkpt>
   <trkpt lat="37.4830581" lon="126.8417256"></trkpt>
   <trkpt lat="37.48303" lon="126.8417043"></trkpt>
   <trkpt lat="37.4829894" lon="126.8416968"></trkpt>
   <trkpt lat="37.4829426" lon="126.8417028"></trkpt>
   <trkpt lat="37.4828976" lon="126.8417213"></trkpt>
   <trkpt lat="37.4816591" lon="126.8425115"></trkpt>
   <trkpt lat="37.4810267" lon="126.8429016"></trkpt>
   <trkpt lat="37.4808333" lon="126.8429689"></trkpt>
   <trkpt lat="37.4806739" lon="126.8430019"></trkpt>
   <trkpt lat="37.4805055" lon="126.8430204"></trkpt>
   <trkpt lat="37.4791533" lon="126.8429994"></trkpt>
   <trkpt lat="37.4791533" lon="126.8429994"></trkpt>
   <trkpt lat="37.479152" lon="126.8429316"></trkpt>
   <trkpt lat="37.4791522" lon="126.8428015"></trkpt>
   <trkpt lat="37.4791519" lon="126.8427438"></trkpt>
   <trkpt lat="37.4791519" lon="126.8427438"></trkpt>
   <trkpt lat="37.4791636" lon="126.8427415"></trkpt>
   <trkpt lat="37.4791744" lon="126.8427323"></trkpt>
   <trkpt lat="37.4791779" lon="126.8427176"></trkpt>
   <trkpt lat="37.4791787" lon="126.8427051"></trkpt>
   <trkpt lat="37.4791774" lon="126.8426294"></trkpt>
   <trkpt lat="37.4791779" lon="126.8425604"></trkpt>
   <trkpt lat="37.4791849" lon="126.8418647"></trkpt>
   <trkpt lat="37.4791886" lon="126.8417256"></trkpt>
   <trkpt lat="37.4791994" lon="126.8412414"></trkpt>
   <trkpt lat="37.4792112" lon="126.8410909"></trkpt>
   <trkpt lat="37.4792376" lon="126.8409742"></trkpt>
   <trkpt lat="37.479281" lon="126.8408347"></trkpt>
   <trkpt lat="37.4793067" lon="126.8407654"></trkpt>
   <trkpt lat="37.4794049" lon="126.8405972"></trkpt>
   <trkpt lat="37.4794523" lon="126.8405323"></trkpt>
   <trkpt lat="37.4795338" lon="126.8404287"></trkpt>
   <trkpt lat="37.4797021" lon="126.8402168"></trkpt>
   <trkpt lat="37.4800655" lon="126.839777"></trkpt>
   <trkpt lat="37.4800897" lon="126.8397463"></trkpt>
   <trkpt lat="37.4800897" lon="126.8397463"></trkpt>
   <trkpt lat="37.4799699" lon="126.8395969"></trkpt>
   <trkpt lat="37.4794316" lon="126.8389219"></trkpt>
   <trkpt lat="37.4792892" lon="126.8387513"></trkpt>
   <trkpt lat="37.4792892" lon="126.8387513"></trkpt>
   <trkpt lat="37.4793885" lon="126.8386305"></trkpt>
   <trkpt lat="37.4794449" lon="126.8385621"></trkpt>
   <trkpt lat="37.4794661" lon="126.8384805"></trkpt>
   <trkpt lat="37.4794857" lon="126.8384464"></trkpt>
   <trkpt lat="37.4795198" lon="126.838419"></trkpt>
   <trkpt lat="37.47959" lon="126.8383901"></trkpt>
   <trkpt lat="37.4796795" lon="126.8382807"></trkpt>
   <trkpt lat="37.4796795" lon="126.8382807"></trkpt>
   <trkpt lat="37.4795609" lon="126.8381811"></trkpt>
   <trkpt lat="37.4795609" lon="126.8381811"></trkpt>
   <trkpt lat="37.4796029" lon="126.8381264"></trkpt>
   <trkpt lat="37.4796272" lon="126.8381081"></trkpt>
   <trkpt lat="37.4797116" lon="126.8380576"></trkpt>
   <trkpt lat="37.4797475" lon="126.8380279"></trkpt>
   <trkpt lat="37.4797842" lon="126.8379857"></trkpt>
   <trkpt lat="37.4798199" lon="126.8379209"></trkpt>
   <trkpt lat="37.4798367" lon="126.8378665"></trkpt>
   <trkpt lat="37.479842" lon="126.8378348"></trkpt>
   <trkpt lat="37.4798435" lon="126.8377839"></trkpt>
   <trkpt lat="37.4798435" lon="126.8377839"></trkpt>
   <trkpt lat="37.479842" lon="126.8378348"></trkpt>
   <trkpt lat="37.4798367" lon="126.8378665"></trkpt>
   <trkpt lat="37.4798199" lon="126.8379209"></trkpt>
   <trkpt lat="37.4797842" lon="126.8379857"></trkpt>
   <trkpt lat="37.4797475" lon="126.8380279"></trkpt>
   <trkpt lat="37.4797116" lon="126.8380576"></trkpt>
   <trkpt lat="37.4796272" lon="126.8381081"></trkpt>
   <trkpt lat="37.4796029" lon="126.8381264"></trkpt>
   <trkpt lat="37.4795609" lon="126.8381811"></trkpt>
   <trkpt lat="37.4794947" lon="126.8382676"></trkpt>
   <trkpt lat="37.4794758" lon="126.8382814"></trkpt>
   <trkpt lat="37.4794273" lon="126.8383033"></trkpt>
   <trkpt lat="37.4794057" lon="126.838325"></trkpt>
   <trkpt lat="37.4793879" lon="126.83835"></trkpt>
   <trkpt lat="37.4793433" lon="126.8384409"></trkpt>
   <trkpt lat="37.4793263" lon="126.8384682"></trkpt>
   <trkpt lat="37.4792976" lon="126.8384944"></trkpt>
   <trkpt lat="37.4792518" lon="126.8385265"></trkpt>
   <trkpt lat="37.4791856" lon="126.8386029"></trkpt>
   <trkpt lat="37.4791488" lon="126.8386349"></trkpt>
   <trkpt lat="37.4790887" lon="126.8386863"></trkpt>
   <trkpt lat="37.479011" lon="126.838808"></trkpt>
   <trkpt lat="37.4789877" lon="126.8388354"></trkpt>
   <trkpt lat="37.4789662" lon="126.8388559"></trkpt>
   <trkpt lat="37.478897" lon="126.8389097"></trkpt>
   <trkpt lat="37.4788505" lon="126.8389644"></trkpt>
   <trkpt lat="37.4787049" lon="126.8391986"></trkpt>
   <trkpt lat="37.4786629" lon="126.8392635"></trkpt>
   <trkpt lat="37.4785072" lon="126.8394729"></trkpt>
   <trkpt lat="37.4784015" lon="126.8395938"></trkpt>
   <trkpt lat="37.4783461" lon="126.8396678"></trkpt>
   <trkpt lat="37.4783238" lon="126.8397166"></trkpt>
   <trkpt lat="37.4783015" lon="126.8397598"></trkpt>
   <trkpt lat="37.4782711" lon="126.8398109"></trkpt>
   <trkpt lat="37.4782407" lon="126.839853"></trkpt>
   <trkpt lat="37.4781968" lon="126.8398885"></trkpt>
   <trkpt lat="37.4781509" lon="126.8399081"></trkpt>
   <trkpt lat="37.4781266" lon="126.8399185"></trkpt>
   <trkpt lat="37.4780764" lon="126.8399608"></trkpt>
   <trkpt lat="37.4780199" lon="126.8400156"></trkpt>
   <trkpt lat="37.4779671" lon="126.8400907"></trkpt>
   <trkpt lat="37.4779324" lon="126.84016"></trkpt>
   <trkpt lat="37.4779011" lon="126.8401999"></trkpt>
   <trkpt lat="37.4778087" lon="126.8402787"></trkpt>
   <trkpt lat="37.477772" lon="126.8403277"></trkpt>
   <trkpt lat="37.4777451" lon="126.840363"></trkpt>
   <trkpt lat="37.4777148" lon="126.8404232"></trkpt>
   <trkpt lat="37.4776072" lon="126.8405123"></trkpt>
   <trkpt lat="37.4775587" lon="126.8405456"></trkpt>
   <trkpt lat="37.477556" lon="126.840549"></trkpt>
   <trkpt lat="37.4775256" lon="126.8405922"></trkpt>
   <trkpt lat="37.4774909" lon="126.8406807"></trkpt>
   <trkpt lat="37.4774562" lon="126.8407625"></trkpt>
   <trkpt lat="37.4774348" lon="126.8407921"></trkpt>
   <trkpt lat="37.4774052" lon="126.8408251"></trkpt>
   <trkpt lat="37.4773333" lon="126.8408653"></trkpt>
   <trkpt lat="37.4772956" lon="126.8408996"></trkpt>
   <trkpt lat="37.477258" lon="126.8409384"></trkpt>
   <trkpt lat="37.4772348" lon="126.8409714"></trkpt>
   <trkpt lat="37.4771911" lon="126.8410555"></trkpt>
   <trkpt lat="37.4771598" lon="126.8411146"></trkpt>
   <trkpt lat="37.4771321" lon="126.8411442"></trkpt>
   <trkpt lat="37.4770944" lon="126.8411705"></trkpt>
   <trkpt lat="37.4770378" lon="126.8412095"></trkpt>
   <trkpt lat="37.4770002" lon="126.8412551"></trkpt>
   <trkpt lat="37.4769835" lon="126.8413287"></trkpt>
   <trkpt lat="37.4770323" lon="126.8415251"></trkpt>
   <trkpt lat="37.4770046" lon="126.8415581"></trkpt>
   <trkpt lat="37.4770672" lon="126.8416322"></trkpt>
   <trkpt lat="37.4771571" lon="126.8417479"></trkpt>
   <trkpt lat="37.4771571" lon="126.8417479"></trkpt>
   <trkpt lat="37.4771248" lon="126.8417878"></trkpt>
   <trkpt lat="37.4770452" lon="126.8418937"></trkpt>
   <trkpt lat="37.4770067" lon="126.8419449"></trkpt>
   <trkpt lat="37.4769614" lon="126.841891"></trkpt>
   <trkpt lat="37.4769123" lon="126.8418292"></trkpt>
   <trkpt lat="37.4768788" lon="126.8417866"></trkpt>
   <trkpt lat="37.4768788" lon="126.8417866"></trkpt>
   <trkpt lat="37.4768079" lon="126.8416933"></trkpt>
   <trkpt lat="37.4767659" lon="126.8417457"></trkpt>
   <trkpt lat="37.4767301" lon="126.8417913"></trkpt>
   <trkpt lat="37.4767301" lon="126.8417913"></trkpt>
   <trkpt lat="37.4766056" lon="126.8416091"></trkpt>
   <trkpt lat="37.4765393" lon="126.8415305"></trkpt>
   <trkpt lat="37.4765167" lon="126.8415194"></trkpt>
   <trkpt lat="37.4764878" lon="126.8415106"></trkpt>
   <trkpt lat="37.4761334" lon="126.8414776"></trkpt>
   <trkpt lat="37.4759395" lon="126.8414589"></trkpt>
   <trkpt lat="37.4756825" lon="126.8414351"></trkpt>
   <trkpt lat="37.4756825" lon="126.8414351"></trkpt>
   <trkpt lat="37.4759395" lon="126.8414589"></trkpt>
   <trkpt lat="37.4761334" lon="126.8414776"></trkpt>
   <trkpt lat="37.4764878" lon="126.8415106"></trkpt>
   <trkpt lat="37.4765167" lon="126.8415194"></trkpt>
   <trkpt lat="37.4765393" lon="126.8415305"></trkpt>
   <trkpt lat="37.4766056" lon="126.8416091"></trkpt>
   <trkpt lat="37.4767301" lon="126.8417913"></trkpt>
   <trkpt lat="37.4767301" lon="126.8417913"></trkpt>
   <trkpt lat="37.4767659" lon="126.8417457"></trkpt>
   <trkpt lat="37.4768079" lon="126.8416933"></trkpt>
   <trkpt lat="37.4768788" lon="126.8417866"></trkpt>
   <trkpt lat="37.4768788" lon="126.8417866"></trkpt>
   <trkpt lat="37.4769123" lon="126.8418292"></trkpt>
   <trkpt lat="37.4769614" lon="126.841891"></trkpt>
   <trkpt lat="37.4769614" lon="126.841891"></trkpt>
   <trkpt lat="37.4770067" lon="126.8419449"></trkpt>
   <trkpt lat="37.4770721" lon="126.8420314"></trkpt>
   <trkpt lat="37.4772827" lon="126.8422954"></trkpt>
   <trkpt lat="37.4774587" lon="126.8424974"></trkpt>
   <trkpt lat="37.4775239" lon="126.8425556"></trkpt>
   <trkpt lat="37.4776643" lon="126.8426788"></trkpt>
   <trkpt lat="37.4778868" lon="126.8428216"></trkpt>
   <trkpt lat="37.4780676" lon="126.8429139"></trkpt>
   <trkpt lat="37.4782418" lon="126.8429542"></trkpt>
   <trkpt lat="37.4784474" lon="126.8429807"></trkpt>
   <trkpt lat="37.4791533" lon="126.8429994"></trkpt>
   <trkpt lat="37.4805055" lon="126.8430204"></trkpt>
   <trkpt lat="37.4806739" lon="126.8430019"></trkpt>
   <trkpt lat="37.4808333" lon="126.8429689"></trkpt>
   <trkpt lat="37.4810267" lon="126.8429016"></trkpt>
   <trkpt lat="37.4816591" lon="126.8425115"></trkpt>
   <trkpt lat="37.4828976" lon="126.8417213"></trkpt>
   <trkpt lat="37.4829426" lon="126.8417028"></trkpt>
   <trkpt lat="37.4829894" lon="126.8416968"></trkpt>
   <trkpt lat="37.48303" lon="126.8417043"></trkpt>
   <trkpt lat="37.4830581" lon="126.8417256"></trkpt>
   <trkpt lat="37.4830871" lon="126.8417581"></trkpt>
   <trkpt lat="37.4830871" lon="126.8417581"></trkpt>
   <trkpt lat="37.4831761" lon="126.8417076"></trkpt>
   <trkpt lat="37.483361" lon="126.8418994"></trkpt>
   <trkpt lat="37.483361" lon="126.8418994"></trkpt>
   <trkpt lat="37.4833861" lon="126.8418754"></trkpt>
   <trkpt lat="37.483414" lon="126.8418661"></trkpt>
   <trkpt lat="37.4834348" lon="126.8418727"></trkpt>
   <trkpt lat="37.483471" lon="126.8419007"></trkpt>
   <trkpt lat="37.483597" lon="126.8420228"></trkpt>
   <trkpt lat="37.4840365" lon="126.8424511"></trkpt>
   <trkpt lat="37.4840528" lon="126.8424713"></trkpt>
   <trkpt lat="37.4840647" lon="126.8424949"></trkpt>
   <trkpt lat="37.4840647" lon="126.8424949"></trkpt>
   <trkpt lat="37.4840541" lon="126.8425312"></trkpt>
   <trkpt lat="37.4838897" lon="126.8427951"></trkpt>
   <trkpt lat="37.4838728" lon="126.8428303"></trkpt>
   <trkpt lat="37.4838685" lon="126.8428665"></trkpt>
   <trkpt lat="37.4838912" lon="126.8429048"></trkpt>
   <trkpt lat="37.4838662" lon="126.8429502"></trkpt>
   <trkpt lat="37.4838074" lon="126.8430639"></trkpt>
   <trkpt lat="37.4837165" lon="126.8432547"></trkpt>
   <trkpt lat="37.483704" lon="126.8432865"></trkpt>
   <trkpt lat="37.4836267" lon="126.8434839"></trkpt>
   <trkpt lat="37.4835246" lon="126.8437608"></trkpt>
   <trkpt lat="37.4834502" lon="126.8439933"></trkpt>
   <trkpt lat="37.4833545" lon="126.8442916"></trkpt>
   <trkpt lat="37.4832292" lon="126.8446196"></trkpt>
   <trkpt lat="37.4831938" lon="126.8447308"></trkpt>
   <trkpt lat="37.4831545" lon="126.8447967"></trkpt>
   <trkpt lat="37.4831114" lon="126.8448265"></trkpt>
   <trkpt lat="37.4830753" lon="126.8448257"></trkpt>
   <trkpt lat="37.4830447" lon="126.8448248"></trkpt>
   <trkpt lat="37.4829986" lon="126.8448003"></trkpt>
   <trkpt lat="37.4829596" lon="126.8447554"></trkpt>
   <trkpt lat="37.4829596" lon="126.8447543"></trkpt>
  </trkseg>
 </trk>
</gpx>
