<?xml version="1.0" encoding="UTF-8"?>
<gpx creator="daengrun-naver-route" version="1.1" xmlns="http://www.topografix.com/GPX/1/1" xmlns:xsi="http://www.w3.org/2001/XMLSchema-instance" xsi:schemaLocation="http://www.topografix.com/GPX/1/1 http://www.topografix.com/GPX/1/1/gpx.xsd">
 <metadata>
  <name>구로 덕의공원·가린열공원 루프 2.75km</name>
  <desc>daengrun candidate geometry — measured 2.75km via Naver pedestrian router (o=flat, 계단회피). Elevation NOT available from this source. stairs=0 crosswalk=7 steppingstone=0 underpass=0 overpass=0</desc>
  <link href="naver:1b4o1g7"><text>daengrun route id</text></link>
  <copyright author="NAVER Corp."><license>https://map.naver.com/</license></copyright>
 </metadata>
 <trk>
  <name>구로 덕의공원·가린열공원 루프 2.75km</name>
  <trkseg>
   <trkpt lat="37.5020097" lon="126.8478609"></trkpt>
   <trkpt lat="37.5021296" lon="126.8481868"></trkpt>
   <trkpt lat="37.5022119" lon="126.8483943"></trkpt>
   <trkpt lat="37.5022585" lon="126.8485172"></trkpt>
   <trkpt lat="37.5023445" lon="126.8487484"></trkpt>
   <trkpt lat="37.5023445" lon="126.8487484"></trkpt>
   <trkpt lat="37.5024038" lon="126.8487116"></trkpt>
   <trkpt lat="37.5024658" lon="126.8486749"></trkpt>
   <trkpt lat="37.5024658" lon="126.8486749"></trkpt>
   <trkpt lat="37.5024996" lon="126.8487527"></trkpt>
   <trkpt lat="37.5025644" lon="126.8489128"></trkpt>
   <trkpt lat="37.5026843" lon="126.8492342"></trkpt>
   <trkpt lat="37.5027117" lon="126.8493063"></trkpt>
   <trkpt lat="37.502838" lon="126.8496469"></trkpt>
   <trkpt lat="37.5029533" lon="126.849957"></trkpt>
   <trkpt lat="37.5029954" lon="126.8500811"></trkpt>
   <trkpt lat="37.5031527" lon="126.8504837"></trkpt>
   <trkpt lat="37.5033137" lon="126.850919"></trkpt>
   <trkpt lat="37.503397" lon="126.8511479"></trkpt>
   <trkpt lat="37.5034326" lon="126.8512438"></trkpt>
   <trkpt lat="37.5035891" lon="126.8516701"></trkpt>
   <trkpt lat="37.5037437" lon="126.8520772"></trkpt>
   <trkpt lat="37.5040282" lon="126.8528486"></trkpt>
   <trkpt lat="37.5040282" lon="126.8528486"></trkpt>
   <trkpt lat="37.5040849" lon="126.8529884"></trkpt>
   <trkpt lat="37.5040849" lon="126.8529884"></trkpt>
   <trkpt lat="37.5041745" lon="126.853232"></trkpt>
   <trkpt lat="37.5042861" lon="126.8535241"></trkpt>
   <trkpt lat="37.5043977" lon="126.8538195"></trkpt>
   <trkpt lat="37.5045211" lon="126.8541409"></trkpt>
   <trkpt lat="37.5045531" lon="126.8542266"></trkpt>
   <trkpt lat="37.504619" lon="126.854398"></trkpt>
   <trkpt lat="37.5047168" lon="126.8546472"></trkpt>
   <trkpt lat="37.5048201" lon="126.8549179"></trkpt>
   <trkpt lat="37.5051237" lon="126.8557141"></trkpt>
   <trkpt lat="37.5051237" lon="126.8557141"></trkpt>
   <trkpt lat="37.5052971" lon="126.8556073"></trkpt>
   <trkpt lat="37.5054238" lon="126.8555395"></trkpt>
   <trkpt lat="37.5055649" lon="126.8554591"></trkpt>
   <trkpt lat="37.5056844" lon="126.8553981"></trkpt>
   <trkpt lat="37.5057662" lon="126.8553567"></trkpt>
   <trkpt lat="37.5058433" lon="126.8552768"></trkpt>
   <trkpt lat="37.5058433" lon="126.8552768"></trkpt>
   <trkpt lat="37.5060107" lon="126.8557325"></trkpt>
   <trkpt lat="37.5060107" lon="126.8557325"></trkpt>
   <trkpt lat="37.5063204" lon="126.8558316"></trkpt>
   <trkpt lat="37.5064816" lon="126.8559683"></trkpt>
   <trkpt lat="37.5065423" lon="126.8560221"></trkpt>
   <trkpt lat="37.5066389" lon="126.8560506"></trkpt>
   <trkpt lat="37.5066338" lon="126.8561084"></trkpt>
   <trkpt lat="37.5066338" lon="126.8561084"></trkpt>
   <trkpt lat="37.5067186" lon="126.856119"></trkpt>
   <trkpt lat="37.5067186" lon="126.856119"></trkpt>
   <trkpt lat="37.5067153" lon="126.8561835"></trkpt>
   <trkpt lat="37.5067578" lon="126.8562035"></trkpt>
   <trkpt lat="37.5067799" lon="126.8561241"></trkpt>
   <trkpt lat="37.5067799" lon="126.8561241"></trkpt>
   <trkpt lat="37.5067578" lon="126.8562035"></trkpt>
   <trkpt lat="37.5067153" lon="126.8561835"></trkpt>
   <trkpt lat="37.5067186" lon="126.856119"></trkpt>
   <trkpt lat="37.5067186" lon="126.856119"></trkpt>
   <trkpt lat="37.5066338" lon="126.8561084"></trkpt>
   <trkpt lat="37.5066338" lon="126.8561084"></trkpt>
   <trkpt lat="37.5066389" lon="126.8560506"></trkpt>
   <trkpt lat="37.5065423" lon="126.8560221"></trkpt>
   <trkpt lat="37.5064816" lon="126.8559683"></trkpt>
   <trkpt lat="37.5063204" lon="126.8558316"></trkpt>
   <trkpt lat="37.5060107" lon="126.8557325"></trkpt>
   <trkpt lat="37.5060107" lon="126.8557325"></trkpt>
   <trkpt lat="37.5058433" lon="126.8552768"></trkpt>
   <trkpt lat="37.5058433" lon="126.8552768"></trkpt>
   <trkpt lat="37.5057662" lon="126.8553567"></trkpt>
   <trkpt lat="37.5056844" lon="126.8553981"></trkpt>
   <trkpt lat="37.5055649" lon="126.8554591"></trkpt>
   <trkpt lat="37.5054238" lon="126.8555395"></trkpt>
   <trkpt lat="37.5052971" lon="126.8556073"></trkpt>
   <trkpt lat="37.5051237" lon="126.8557141"></trkpt>
   <trkpt lat="37.5051237" lon="126.8557141"></trkpt>
   <trkpt lat="37.5051823" lon="126.8558742"></trkpt>
   <trkpt lat="37.5051823" lon="126.8558742"></trkpt>
   <trkpt lat="37.5051059" lon="126.8559201"></trkpt>
   <trkpt lat="37.5050574" lon="126.85595"></trkpt>
   <trkpt lat="37.5050574" lon="126.85595"></trkpt>
   <trkpt lat="37.5050437" lon="126.8559252"></trkpt>
   <trkpt lat="37.5050346" lon="126.8559106"></trkpt>
   <trkpt lat="37.5050229" lon="126.8558993"></trkpt>
   <trkpt lat="37.5050066" lon="126.855895"></trkpt>
   <trkpt lat="37.5049976" lon="126.8558962"></trkpt>
   <trkpt lat="37.5047891" lon="126.8560077"></trkpt>
   <trkpt lat="37.5044448" lon="126.8561804"></trkpt>
   <trkpt lat="37.5043765" lon="126.8562126"></trkpt>
   <trkpt lat="37.5039648" lon="126.8564243"></trkpt>
   <trkpt lat="37.5039648" lon="126.8564243"></trkpt>
   <trkpt lat="37.5039208" lon="126.8562912"></trkpt>
   <trkpt lat="37.5039208" lon="126.8562912"></trkpt>
   <trkpt lat="37.5038274" lon="126.8563429"></trkpt>
   <trkpt lat="37.5037752" lon="126.8563649"></trkpt>
   <trkpt lat="37.5037428" lon="126.8563742"></trkpt>
   <trkpt lat="37.5037428" lon="126.8563742"></trkpt>
   <trkpt lat="37.5036626" lon="126.8563692"></trkpt>
   <trkpt lat="37.5035381" lon="126.8563522"></trkpt>
   <trkpt lat="37.5032583" lon="126.8562788"></trkpt>
   <trkpt lat="37.5032285" lon="126.8562711"></trkpt>
   <trkpt lat="37.5030353" lon="126.856214"></trkpt>
   <trkpt lat="37.5026922" lon="126.8561106"></trkpt>
   <trkpt lat="37.5026335" lon="126.8560918"></trkpt>
   <trkpt lat="37.5023294" lon="126.8560175"></trkpt>
   <trkpt lat="37.5023095" lon="126.856012"></trkpt>
   <trkpt lat="37.5022502" lon="126.8560465"></trkpt>
   <trkpt lat="37.5022204" lon="126.8560388"></trkpt>
   <trkpt lat="37.5019911" lon="126.855974"></trkpt>
   <trkpt lat="37.5019911" lon="126.855974"></trkpt>
   <trkpt lat="37.5019993" lon="126.8558246"></trkpt>
   <trkpt lat="37.5019991" lon="126.8557873"></trkpt>
   <trkpt lat="37.5019746" lon="126.8557615"></trkpt>
   <trkpt lat="37.5018165" lon="126.855687"></trkpt>
   <trkpt lat="37.5014992" lon="126.8555246"></trkpt>
   <trkpt lat="37.5007428" lon="126.8551555"></trkpt>
   <trkpt lat="37.5007428" lon="126.8551555"></trkpt>
   <trkpt lat="37.5008492" lon="126.8548242"></trkpt>
   <trkpt lat="37.5008597" lon="126.8547845"></trkpt>
   <trkpt lat="37.5008597" lon="126.8547845"></trkpt>
   <trkpt lat="37.5009277" lon="126.8545215"></trkpt>
   <trkpt lat="37.5010413" lon="126.8541992"></trkpt>
   <trkpt lat="37.5011576" lon="126.8538746"></trkpt>
   <trkpt lat="37.5011743" lon="126.8537998"></trkpt>
   <trkpt lat="37.5012992" lon="126.8533994"></trkpt>
   <trkpt lat="37.5014493" lon="126.852975"></trkpt>
   <trkpt lat="37.5014493" lon="126.852975"></trkpt>
   <trkpt lat="37.5019916" lon="126.8532497"></trkpt>
   <trkpt lat="37.5020249" lon="126.8532494"></trkpt>
   <trkpt lat="37.5020411" lon="126.8532368"></trkpt>
   <trkpt lat="37.5020624" lon="126.8531869"></trkpt>
   <trkpt lat="37.5020943" lon="126.8530837"></trkpt>
   <trkpt lat="37.5021778" lon="126.8530275"></trkpt>
   <trkpt lat="37.5022866" lon="126.8529722"></trkpt>
   <trkpt lat="37.5024993" lon="126.8528052"></trkpt>
   <trkpt lat="37.5026475" lon="126.8527033"></trkpt>
   <trkpt lat="37.5026475" lon="126.8527033"></trkpt>
   <trkpt lat="37.5023401" lon="126.8520543"></trkpt>
   <trkpt lat="37.5023191" lon="126.8519933"></trkpt>
   <trkpt lat="37.5023034" lon="126.8519256"></trkpt>
   <trkpt lat="37.5023034" lon="126.8519256"></trkpt>
   <trkpt lat="37.5023412" lon="126.8519117"></trkpt>
   <trkpt lat="37.5024095" lon="126.8518873"></trkpt>
   <trkpt lat="37.5027537" lon="126.8516932"></trkpt>
   <trkpt lat="37.5028462" lon="126.8516358"></trkpt>
   <trkpt lat="37.5029908" lon="126.851544"></trkpt>
   <trkpt lat="37.5032775" lon="126.8513798"></trkpt>
   <trkpt lat="37.5033097" lon="126.8513467"></trkpt>
   <trkpt lat="37.5033097" lon="126.8513467"></trkpt>
   <trkpt lat="37.5032658" lon="126.8512237"></trkpt>
   <trkpt lat="37.5031697" lon="126.8509621"></trkpt>
   <trkpt lat="37.5030709" lon="126.8506948"></trkpt>
   <trkpt lat="37.5029529" lon="126.8503745"></trkpt>
   <trkpt lat="37.5028696" lon="126.850149"></trkpt>
   <trkpt lat="37.5028495" lon="126.8500971"></trkpt>
   <trkpt lat="37.5028495" lon="126.8500971"></trkpt>
   <trkpt lat="37.5028238" lon="126.8500238"></trkpt>
   <trkpt lat="37.5028138" lon="126.8499978"></trkpt>
   <trkpt lat="37.5028138" lon="126.8499978"></trkpt>
   <trkpt lat="37.5026967" lon="126.8496889"></trkpt>
   <trkpt lat="37.5025805" lon="126.8493765"></trkpt>
   <trkpt lat="37.5025558" lon="126.8493043"></trkpt>
   <trkpt lat="37.5024579" lon="126.8490517"></trkpt>
   <trkpt lat="37.5023728" lon="126.8488205"></trkpt>
   <trkpt lat="37.5023445" lon="126.8487484"></trkpt>
   <trkpt lat="37.5022585" lon="126.8485172"></trkpt>
   <trkpt lat="37.5022119" lon="126.8483943"></trkpt>
   <trkpt lat="37.5021296" lon="126.8481868"></trkpt>
   <trkpt lat="37.5020097" lon="126.8478609"></trkpt>
  </trkseg>
 </trk>
</gpx>
