<?xml version="1.0" encoding="UTF-8"?>
<gpx creator="StravaGPX" version="1.1" xmlns="http://www.topografix.com/GPX/1/1" xmlns:xsi="http://www.w3.org/2001/XMLSchema-instance" xsi:schemaLocation="http://www.topografix.com/GPX/1/1 http://www.topografix.com/GPX/1/1/gpx.xsd">
 <metadata>
  <name>구로 역곡천 항동 루프 5.09km</name>
  <desc>daengrun candidate geometry — measured 5.09km, gain 30</desc>
  <author>
   <name>S Kim</name>
   <link href="https://www.strava.com/athletes/558867461"/>
  </author>
  <copyright author="OpenStreetMap contributors">
   <year>2020</year>
   <license>https://www.openstreetmap.org/copyright</license>
  </copyright>
  <link href="https://www.strava.com/routes/3525021244456183730"/>
 </metadata>
 <trk>
  <name>구로 역곡천 항동 루프 5.09km</name>
  <desc>daengrun candidate geometry — measured 5.09km, gain 30</desc>
  <link href="https://www.strava.com/routes/3525021244456183730"/>
  <type>running</type>
  <trkseg>
   <trkpt lat="37.479600000000005" lon="126.82556000000001">
    <ele>33.29</ele>
   </trkpt>
   <trkpt lat="37.47909000000001" lon="126.82545">
    <ele>33.38</ele>
   </trkpt>
   <trkpt lat="37.47862000000001" lon="126.82520000000001">
    <ele>30.860000000000003</ele>
   </trkpt>
   <trkpt lat="37.47842" lon="126.82504000000002">
    <ele>30.8</ele>
   </trkpt>
   <trkpt lat="37.47831" lon="126.82494000000001">
    <ele>30.26</ele>
   </trkpt>
   <trkpt lat="37.478080000000006" lon="126.82468000000001">
    <ele>28.540000000000003</ele>
   </trkpt>
   <trkpt lat="37.477810000000005" lon="126.82423000000001">
    <ele>27.020000000000003</ele>
   </trkpt>
   <trkpt lat="37.47767" lon="126.82396000000001">
    <ele>26.060000000000002</ele>
   </trkpt>
   <trkpt lat="37.477540000000005" lon="126.82359000000001">
    <ele>25.87</ele>
   </trkpt>
   <trkpt lat="37.477470000000004" lon="126.82321000000002">
    <ele>25.220000000000002</ele>
   </trkpt>
   <trkpt lat="37.477430000000005" lon="126.82261000000001">
    <ele>24.46</ele>
   </trkpt>
   <trkpt lat="37.47746" lon="126.82213000000002">
    <ele>24.09</ele>
   </trkpt>
   <trkpt lat="37.477500000000006" lon="126.82200000000002">
    <ele>24.09</ele>
   </trkpt>
   <trkpt lat="37.477540000000005" lon="126.82176000000001">
    <ele>24.05</ele>
   </trkpt>
   <trkpt lat="37.477610000000006" lon="126.82148000000001">
    <ele>23.700000000000003</ele>
   </trkpt>
   <trkpt lat="37.477320000000006" lon="126.82141000000001">
    <ele>22.750000000000004</ele>
   </trkpt>
   <trkpt lat="37.47728" lon="126.82141000000001">
    <ele>21.53</ele>
   </trkpt>
   <trkpt lat="37.477230000000006" lon="126.82144000000001">
    <ele>21.53</ele>
   </trkpt>
   <trkpt lat="37.4769" lon="126.82132000000001">
    <ele>21.35</ele>
   </trkpt>
   <trkpt lat="37.47681" lon="126.82130000000001">
    <ele>21.35</ele>
   </trkpt>
   <trkpt lat="37.476620000000004" lon="126.82129">
    <ele>21.220000000000002</ele>
   </trkpt>
   <trkpt lat="37.47645" lon="126.82133000000002">
    <ele>21.220000000000002</ele>
   </trkpt>
   <trkpt lat="37.476240000000004" lon="126.82143">
    <ele>21.2</ele>
   </trkpt>
   <trkpt lat="37.476060000000004" lon="126.82146000000002">
    <ele>21.150000000000002</ele>
   </trkpt>
   <trkpt lat="37.475390000000004" lon="126.82142">
    <ele>20.26</ele>
   </trkpt>
   <trkpt lat="37.47482000005904" lon="126.82154500095483">
    <ele>20.09</ele>
   </trkpt>
   <trkpt lat="37.474250000000005" lon="126.82167000000001">
    <ele>20.220000000000002</ele>
   </trkpt>
   <trkpt lat="37.47393" lon="126.82180000000001">
    <ele>19.970000000000002</ele>
   </trkpt>
   <trkpt lat="37.4737" lon="126.82195000000002">
    <ele>19.950000000000003</ele>
   </trkpt>
   <trkpt lat="37.473220000651175" lon="126.82240500313169">
    <ele>19.900000000000002</ele>
   </trkpt>
   <trkpt lat="37.47274" lon="126.82286">
    <ele>19.860000000000003</ele>
   </trkpt>
   <trkpt lat="37.472590000000004" lon="126.82304">
    <ele>19.51</ele>
   </trkpt>
   <trkpt lat="37.47245" lon="126.82315000000001">
    <ele>19.51</ele>
   </trkpt>
   <trkpt lat="37.47231" lon="126.82321000000002">
    <ele>19.35</ele>
   </trkpt>
   <trkpt lat="37.47245" lon="126.82315000000001">
    <ele>19.51</ele>
   </trkpt>
   <trkpt lat="37.472590000000004" lon="126.82304">
    <ele>19.610000000000003</ele>
   </trkpt>
   <trkpt lat="37.47274" lon="126.82286">
    <ele>19.860000000000003</ele>
   </trkpt>
   <trkpt lat="37.47292" lon="126.82313">
    <ele>20.05</ele>
   </trkpt>
   <trkpt lat="37.47337500086151" lon="126.8226800027313">
    <ele>19.85</ele>
   </trkpt>
   <trkpt lat="37.47383" lon="126.82223">
    <ele>20.130000000000003</ele>
   </trkpt>
   <trkpt lat="37.474000000000004" lon="126.82212000000001">
    <ele>20.26</ele>
   </trkpt>
   <trkpt lat="37.47424" lon="126.82201">
    <ele>20.39</ele>
   </trkpt>
   <trkpt lat="37.47483000002622" lon="126.82187000111861">
    <ele>20.330000000000002</ele>
   </trkpt>
   <trkpt lat="37.47542" lon="126.82173000000002">
    <ele>20.580000000000002</ele>
   </trkpt>
   <trkpt lat="37.476060000000004" lon="126.82179000000001">
    <ele>21.400000000000002</ele>
   </trkpt>
   <trkpt lat="37.476240000000004" lon="126.82176000000001">
    <ele>21.460000000000004</ele>
   </trkpt>
   <trkpt lat="37.47663" lon="126.82161">
    <ele>21.460000000000004</ele>
   </trkpt>
   <trkpt lat="37.476760000000006" lon="126.82162000000001">
    <ele>21.66</ele>
   </trkpt>
   <trkpt lat="37.477250000000005" lon="126.82178">
    <ele>21.67</ele>
   </trkpt>
   <trkpt lat="37.477410000000006" lon="126.82191000000002">
    <ele>20.86</ele>
   </trkpt>
   <trkpt lat="37.477610000000006" lon="126.82196">
    <ele>20.89</ele>
   </trkpt>
   <trkpt lat="37.478120000000004" lon="126.82198000000001">
    <ele>22.22</ele>
   </trkpt>
   <trkpt lat="37.47862000000001" lon="126.82189000000001">
    <ele>22.26</ele>
   </trkpt>
   <trkpt lat="37.47883" lon="126.82181000000001">
    <ele>21.650000000000002</ele>
   </trkpt>
   <trkpt lat="37.478930000000005" lon="126.82173000000002">
    <ele>20.84</ele>
   </trkpt>
   <trkpt lat="37.47948" lon="126.82112000000001">
    <ele>22.590000000000003</ele>
   </trkpt>
   <trkpt lat="37.47994000142283" lon="126.82056000332398">
    <ele>22.67</ele>
   </trkpt>
   <trkpt lat="37.4804" lon="126.82000000000001">
    <ele>23.110000000000003</ele>
   </trkpt>
   <trkpt lat="37.48062" lon="126.81981">
    <ele>23.110000000000003</ele>
   </trkpt>
   <trkpt lat="37.480720000000005" lon="126.81980000000001">
    <ele>23.110000000000003</ele>
   </trkpt>
   <trkpt lat="37.480810000000005" lon="126.81982">
    <ele>23.28</ele>
   </trkpt>
   <trkpt lat="37.48145" lon="126.82015000000001">
    <ele>23.3</ele>
   </trkpt>
   <trkpt lat="37.48149" lon="126.82024000000001">
    <ele>23.770000000000003</ele>
   </trkpt>
   <trkpt lat="37.481570000000005" lon="126.82029000000001">
    <ele>24.03</ele>
   </trkpt>
   <trkpt lat="37.48174" lon="126.82034000000002">
    <ele>25.41</ele>
   </trkpt>
   <trkpt lat="37.481910000000006" lon="126.82033000000001">
    <ele>26.19</ele>
   </trkpt>
   <trkpt lat="37.48238000363815" lon="126.82098999165022">
    <ele>26.42</ele>
   </trkpt>
   <trkpt lat="37.48285000360514" lon="126.82164999160376">
    <ele>26.87</ele>
   </trkpt>
   <trkpt lat="37.483320000000006" lon="126.82231000000002">
    <ele>27.560000000000002</ele>
   </trkpt>
   <trkpt lat="37.483430000000006" lon="126.82235000000001">
    <ele>27.560000000000002</ele>
   </trkpt>
   <trkpt lat="37.48353" lon="126.82233000000001">
    <ele>27.680000000000003</ele>
   </trkpt>
   <trkpt lat="37.484210000000004" lon="126.82202000000001">
    <ele>28.85</ele>
   </trkpt>
   <trkpt lat="37.48418" lon="126.82226000000001">
    <ele>28.740000000000002</ele>
   </trkpt>
   <trkpt lat="37.484210000000004" lon="126.82240000000002">
    <ele>29.300000000000004</ele>
   </trkpt>
   <trkpt lat="37.48436" lon="126.82273">
    <ele>29.52</ele>
   </trkpt>
   <trkpt lat="37.48442" lon="126.82280000000002">
    <ele>29.560000000000002</ele>
   </trkpt>
   <trkpt lat="37.484590000000004" lon="126.82288000000001">
    <ele>29.490000000000002</ele>
   </trkpt>
   <trkpt lat="37.484570000000005" lon="126.82304">
    <ele>29.370000000000005</ele>
   </trkpt>
   <trkpt lat="37.48462" lon="126.82310000000001">
    <ele>29.370000000000005</ele>
   </trkpt>
   <trkpt lat="37.484455001195634" lon="126.8236350012157">
    <ele>28.740000000000002</ele>
   </trkpt>
   <trkpt lat="37.48429" lon="126.82417000000001">
    <ele>27.790000000000003</ele>
   </trkpt>
   <trkpt lat="37.484190000000005" lon="126.82411">
    <ele>27.590000000000003</ele>
   </trkpt>
   <trkpt lat="37.48411" lon="126.82410000000002">
    <ele>27.05</ele>
   </trkpt>
   <trkpt lat="37.48395" lon="126.82418000000001">
    <ele>26.750000000000004</ele>
   </trkpt>
   <trkpt lat="37.48389" lon="126.82406000000002">
    <ele>26.63</ele>
   </trkpt>
   <trkpt lat="37.483740000000004" lon="126.82421000000001">
    <ele>26.29</ele>
   </trkpt>
   <trkpt lat="37.483650000000004" lon="126.82410000000002">
    <ele>26.480000000000004</ele>
   </trkpt>
   <trkpt lat="37.483740000000004" lon="126.82421000000001">
    <ele>26.29</ele>
   </trkpt>
   <trkpt lat="37.48389" lon="126.82406000000002">
    <ele>26.63</ele>
   </trkpt>
   <trkpt lat="37.48395" lon="126.82418000000001">
    <ele>26.750000000000004</ele>
   </trkpt>
   <trkpt lat="37.48411" lon="126.82410000000002">
    <ele>27.05</ele>
   </trkpt>
   <trkpt lat="37.484190000000005" lon="126.82411">
    <ele>27.590000000000003</ele>
   </trkpt>
   <trkpt lat="37.48429" lon="126.82417000000001">
    <ele>27.91</ele>
   </trkpt>
   <trkpt lat="37.484350000000006" lon="126.82427000000001">
    <ele>27.930000000000003</ele>
   </trkpt>
   <trkpt lat="37.48424" lon="126.82458000000001">
    <ele>27.700000000000003</ele>
   </trkpt>
   <trkpt lat="37.484140000000004" lon="126.82477000000002">
    <ele>27.62</ele>
   </trkpt>
   <trkpt lat="37.484120000000004" lon="126.82486000000002">
    <ele>27.67</ele>
   </trkpt>
   <trkpt lat="37.484140000000004" lon="126.82505">
    <ele>27.83</ele>
   </trkpt>
   <trkpt lat="37.484320000000004" lon="126.82549000000002">
    <ele>28.62</ele>
   </trkpt>
   <trkpt lat="37.4844" lon="126.82581">
    <ele>29.120000000000005</ele>
   </trkpt>
   <trkpt lat="37.48449" lon="126.82583000000001">
    <ele>29.39</ele>
   </trkpt>
   <trkpt lat="37.48453000000001" lon="126.82586">
    <ele>29.39</ele>
   </trkpt>
   <trkpt lat="37.48462" lon="126.82605000000001">
    <ele>29.86</ele>
   </trkpt>
   <trkpt lat="37.48483" lon="126.82662">
    <ele>31.77</ele>
   </trkpt>
   <trkpt lat="37.484930000000006" lon="126.82682000000001">
    <ele>32.230000000000004</ele>
   </trkpt>
   <trkpt lat="37.48500000000001" lon="126.82689">
    <ele>32.650000000000006</ele>
   </trkpt>
   <trkpt lat="37.485330000000005" lon="126.82706000000002">
    <ele>35.18</ele>
   </trkpt>
   <trkpt lat="37.485170000000004" lon="126.82735000000001">
    <ele>35.02</ele>
   </trkpt>
   <trkpt lat="37.485330000000005" lon="126.82706000000002">
    <ele>35.18</ele>
   </trkpt>
   <trkpt lat="37.48500000000001" lon="126.82689">
    <ele>32.650000000000006</ele>
   </trkpt>
   <trkpt lat="37.484930000000006" lon="126.82682000000001">
    <ele>32.230000000000004</ele>
   </trkpt>
   <trkpt lat="37.48483" lon="126.82662">
    <ele>31.77</ele>
   </trkpt>
   <trkpt lat="37.48462" lon="126.82605000000001">
    <ele>29.86</ele>
   </trkpt>
   <trkpt lat="37.48453000000001" lon="126.82586">
    <ele>29.39</ele>
   </trkpt>
   <trkpt lat="37.48449" lon="126.82583000000001">
    <ele>29.39</ele>
   </trkpt>
   <trkpt lat="37.4844" lon="126.82581">
    <ele>29.120000000000005</ele>
   </trkpt>
   <trkpt lat="37.484320000000004" lon="126.82549000000002">
    <ele>28.62</ele>
   </trkpt>
   <trkpt lat="37.484140000000004" lon="126.82505">
    <ele>27.83</ele>
   </trkpt>
   <trkpt lat="37.484120000000004" lon="126.82486000000002">
    <ele>27.67</ele>
   </trkpt>
   <trkpt lat="37.484140000000004" lon="126.82477000000002">
    <ele>27.62</ele>
   </trkpt>
   <trkpt lat="37.48424" lon="126.82458000000001">
    <ele>27.700000000000003</ele>
   </trkpt>
   <trkpt lat="37.484350000000006" lon="126.82427000000001">
    <ele>27.930000000000003</ele>
   </trkpt>
   <trkpt lat="37.48429" lon="126.82417000000001">
    <ele>27.91</ele>
   </trkpt>
   <trkpt lat="37.48445500121669" lon="126.82363500114742">
    <ele>28.740000000000002</ele>
   </trkpt>
   <trkpt lat="37.48462" lon="126.82310000000001">
    <ele>29.370000000000005</ele>
   </trkpt>
   <trkpt lat="37.484570000000005" lon="126.82304">
    <ele>29.490000000000002</ele>
   </trkpt>
   <trkpt lat="37.484590000000004" lon="126.82288000000001">
    <ele>29.550000000000004</ele>
   </trkpt>
   <trkpt lat="37.48442" lon="126.82280000000002">
    <ele>29.560000000000002</ele>
   </trkpt>
   <trkpt lat="37.48436" lon="126.82273">
    <ele>29.52</ele>
   </trkpt>
   <trkpt lat="37.484210000000004" lon="126.82240000000002">
    <ele>28.740000000000002</ele>
   </trkpt>
   <trkpt lat="37.48418" lon="126.82226000000001">
    <ele>28.740000000000002</ele>
   </trkpt>
   <trkpt lat="37.484210000000004" lon="126.82202000000001">
    <ele>28.85</ele>
   </trkpt>
   <trkpt lat="37.48353" lon="126.82233000000001">
    <ele>27.680000000000003</ele>
   </trkpt>
   <trkpt lat="37.483430000000006" lon="126.82235000000001">
    <ele>27.560000000000002</ele>
   </trkpt>
   <trkpt lat="37.483320000000006" lon="126.82231000000002">
    <ele>27.560000000000002</ele>
   </trkpt>
   <trkpt lat="37.4828700017043" lon="126.82167999625007">
    <ele>26.87</ele>
   </trkpt>
   <trkpt lat="37.482420000000005" lon="126.82105000000001">
    <ele>26.580000000000002</ele>
   </trkpt>
   <trkpt lat="37.482330000000005" lon="126.82114000000001">
    <ele>26.580000000000002</ele>
   </trkpt>
   <trkpt lat="37.482130000000005" lon="126.82128000000002">
    <ele>26.6</ele>
   </trkpt>
   <trkpt lat="37.48187" lon="126.82141000000001">
    <ele>26.570000000000004</ele>
   </trkpt>
   <trkpt lat="37.48138" lon="126.82156">
    <ele>26.570000000000004</ele>
   </trkpt>
   <trkpt lat="37.48073" lon="126.82182000000002">
    <ele>26.72</ele>
   </trkpt>
   <trkpt lat="37.48049" lon="126.82196">
    <ele>26.87</ele>
   </trkpt>
   <trkpt lat="37.479960000000005" lon="126.82232">
    <ele>27.73</ele>
   </trkpt>
   <trkpt lat="37.48032000104593" lon="126.82280999768581">
    <ele>27.98</ele>
   </trkpt>
   <trkpt lat="37.48068" lon="126.82330000000002">
    <ele>28.270000000000003</ele>
   </trkpt>
   <trkpt lat="37.48119000193404" lon="126.82396499555306">
    <ele>29.060000000000002</ele>
   </trkpt>
   <trkpt lat="37.481700000000004" lon="126.82463000000001">
    <ele>31.020000000000003</ele>
   </trkpt>
   <trkpt lat="37.481590000000004" lon="126.82476000000001">
    <ele>30.71</ele>
   </trkpt>
   <trkpt lat="37.481230000000004" lon="126.82511000000001">
    <ele>36.99</ele>
   </trkpt>
   <trkpt lat="37.48111" lon="126.82523">
    <ele>34.11</ele>
   </trkpt>
   <trkpt lat="37.48082" lon="126.82542000000001">
    <ele>32.510000000000005</ele>
   </trkpt>
   <trkpt lat="37.48051" lon="126.82552000000001">
    <ele>32.57</ele>
   </trkpt>
   <trkpt lat="37.48017" lon="126.82559">
    <ele>33.1</ele>
   </trkpt>
   <trkpt lat="37.48001" lon="126.82560000000001">
    <ele>33.160000000000004</ele>
   </trkpt>
   <trkpt lat="37.47961" lon="126.82556000000001">
    <ele>33.29</ele>
   </trkpt>
  </trkseg>
 </trk>
</gpx>
