<?xml version="1.0" encoding="UTF-8"?>
<gpx creator="daengrun-naver-route" version="1.1" xmlns="http://www.topografix.com/GPX/1/1" xmlns:xsi="http://www.w3.org/2001/XMLSchema-instance" xsi:schemaLocation="http://www.topografix.com/GPX/1/1 http://www.topografix.com/GPX/1/1/gpx.xsd">
 <metadata>
  <name>금천 시흥계곡복합환경생태·시흥천 루프 1.84km</name>
  <desc>daengrun candidate geometry — measured 1.84km via Naver pedestrian router (o=flat, 계단회피). Elevation NOT available from this source. stairs=0 crosswalk=4 steppingstone=0 underpass=0 overpass=0</desc>
  <link href="naver:1mrk24i"><text>daengrun route id</text></link>
  <copyright author="NAVER Corp."><license>https://map.naver.com/</license></copyright>
 </metadata>
 <trk>
  <name>금천 시흥계곡복합환경생태·시흥천 루프 1.84km</name>
  <trkseg>
   <trkpt lat="37.4489905" lon="126.9136363"></trkpt>
   <trkpt lat="37.4489991" lon="126.9135492"></trkpt>
   <trkpt lat="37.4490493" lon="126.9134991"></trkpt>
   <trkpt lat="37.4490744" lon="126.9134615"></trkpt>
   <trkpt lat="37.4490911" lon="126.9133868"></trkpt>
   <trkpt lat="37.4491256" lon="126.91307"></trkpt>
   <trkpt lat="37.4492334" lon="126.9128147"></trkpt>
   <trkpt lat="37.4492334" lon="126.9128147"></trkpt>
   <trkpt lat="37.4493302" lon="126.9128818"></trkpt>
   <trkpt lat="37.4494034" lon="126.9129118"></trkpt>
   <trkpt lat="37.4496333" lon="126.9129269"></trkpt>
   <trkpt lat="37.4497694" lon="126.9129361"></trkpt>
   <trkpt lat="37.4499949" lon="126.9129524"></trkpt>
   <trkpt lat="37.4499949" lon="126.9129524"></trkpt>
   <trkpt lat="37.4500162" lon="126.9125373"></trkpt>
   <trkpt lat="37.4500219" lon="126.9124004"></trkpt>
   <trkpt lat="37.4500219" lon="126.9124004"></trkpt>
   <trkpt lat="37.4500306" lon="126.9123495"></trkpt>
   <trkpt lat="37.4500393" lon="126.9122929"></trkpt>
   <trkpt lat="37.4500393" lon="126.9122929"></trkpt>
   <trkpt lat="37.4499797" lon="126.9122662"></trkpt>
   <trkpt lat="37.4496717" lon="126.9121285"></trkpt>
   <trkpt lat="37.4493787" lon="126.911934"></trkpt>
   <trkpt lat="37.4492937" lon="126.9118827"></trkpt>
   <trkpt lat="37.4492116" lon="126.9118686"></trkpt>
   <trkpt lat="37.4490718" lon="126.911855"></trkpt>
   <trkpt lat="37.4489357" lon="126.9118538"></trkpt>
   <trkpt lat="37.4488346" lon="126.911832"></trkpt>
   <trkpt lat="37.4487632" lon="126.9117919"></trkpt>
   <trkpt lat="37.4486537" lon="126.9117"></trkpt>
   <trkpt lat="37.4485158" lon="126.9115157"></trkpt>
   <trkpt lat="37.4484569" lon="126.9114574"></trkpt>
   <trkpt lat="37.4484072" lon="126.9114227"></trkpt>
   <trkpt lat="37.4483368" lon="126.911421"></trkpt>
   <trkpt lat="37.4483052" lon="126.911393"></trkpt>
   <trkpt lat="37.4482736" lon="126.9113887"></trkpt>
   <trkpt lat="37.4482068" lon="126.9113779"></trkpt>
   <trkpt lat="37.4479795" lon="126.9113447"></trkpt>
   <trkpt lat="37.4476826" lon="126.9112622"></trkpt>
   <trkpt lat="37.447483" lon="126.9111993"></trkpt>
   <trkpt lat="37.4473512" lon="126.9111483"></trkpt>
   <trkpt lat="37.4473512" lon="126.9111483"></trkpt>
   <trkpt lat="37.447483" lon="126.9111993"></trkpt>
   <trkpt lat="37.4476826" lon="126.9112622"></trkpt>
   <trkpt lat="37.4479795" lon="126.9113447"></trkpt>
   <trkpt lat="37.4482068" lon="126.9113779"></trkpt>
   <trkpt lat="37.4482736" lon="126.9113887"></trkpt>
   <trkpt lat="37.4483052" lon="126.911393"></trkpt>
   <trkpt lat="37.4483368" lon="126.911421"></trkpt>
   <trkpt lat="37.4484072" lon="126.9114227"></trkpt>
   <trkpt lat="37.4484569" lon="126.9114574"></trkpt>
   <trkpt lat="37.4485158" lon="126.9115157"></trkpt>
   <trkpt lat="37.4486537" lon="126.9117"></trkpt>
   <trkpt lat="37.4487632" lon="126.9117919"></trkpt>
   <trkpt lat="37.4488346" lon="126.911832"></trkpt>
   <trkpt lat="37.4489357" lon="126.9118538"></trkpt>
   <trkpt lat="37.4490718" lon="126.911855"></trkpt>
   <trkpt lat="37.4492116" lon="126.9118686"></trkpt>
   <trkpt lat="37.4492937" lon="126.9118827"></trkpt>
   <trkpt lat="37.4493787" lon="126.911934"></trkpt>
   <trkpt lat="37.4496717" lon="126.9121285"></trkpt>
   <trkpt lat="37.4499797" lon="126.9122662"></trkpt>
   <trkpt lat="37.4500393" lon="126.9122929"></trkpt>
   <trkpt lat="37.4500393" lon="126.9122929"></trkpt>
   <trkpt lat="37.4501156" lon="126.9120391"></trkpt>
   <trkpt lat="37.450272" lon="126.9115958"></trkpt>
   <trkpt lat="37.4503067" lon="126.9114915"></trkpt>
   <trkpt lat="37.4503067" lon="126.9114915"></trkpt>
   <trkpt lat="37.4503281" lon="126.9114438"></trkpt>
   <trkpt lat="37.4503583" lon="126.9113577"></trkpt>
   <trkpt lat="37.450368" lon="126.9113259"></trkpt>
   <trkpt lat="37.4503823" lon="126.9112874"></trkpt>
   <trkpt lat="37.4504392" lon="126.9113163"></trkpt>
   <trkpt lat="37.4505332" lon="126.9113608"></trkpt>
   <trkpt lat="37.4505332" lon="126.9113608"></trkpt>
   <trkpt lat="37.450585" lon="126.9110846"></trkpt>
   <trkpt lat="37.4506277" lon="126.9106207"></trkpt>
   <trkpt lat="37.4506883" lon="126.9101148"></trkpt>
   <trkpt lat="37.4507124" lon="126.9100592"></trkpt>
   <trkpt lat="37.4507392" lon="126.9100262"></trkpt>
   <trkpt lat="37.4507392" lon="126.9100262"></trkpt>
   <trkpt lat="37.4507599" lon="126.9100159"></trkpt>
   <trkpt lat="37.4507951" lon="126.9100258"></trkpt>
   <trkpt lat="37.4511677" lon="126.9104604"></trkpt>
   <trkpt lat="37.4512937" lon="126.9105872"></trkpt>
   <trkpt lat="37.4513742" lon="126.91066"></trkpt>
   <trkpt lat="37.4516038" lon="126.9107826"></trkpt>
   <trkpt lat="37.4516519" lon="126.9108388"></trkpt>
   <trkpt lat="37.4516864" lon="126.9108928"></trkpt>
   <trkpt lat="37.4517164" lon="126.9109502"></trkpt>
   <trkpt lat="37.4517164" lon="126.9109502"></trkpt>
   <trkpt lat="37.4516864" lon="126.9108928"></trkpt>
   <trkpt lat="37.4516519" lon="126.9108388"></trkpt>
   <trkpt lat="37.4516038" lon="126.9107826"></trkpt>
   <trkpt lat="37.4513742" lon="126.91066"></trkpt>
   <trkpt lat="37.4512937" lon="126.9105872"></trkpt>
   <trkpt lat="37.4511677" lon="126.9104604"></trkpt>
   <trkpt lat="37.4507951" lon="126.9100258"></trkpt>
   <trkpt lat="37.4507599" lon="126.9100159"></trkpt>
   <trkpt lat="37.4507392" lon="126.9100262"></trkpt>
   <trkpt lat="37.4507392" lon="126.9100262"></trkpt>
   <trkpt lat="37.4507124" lon="126.9100592"></trkpt>
   <trkpt lat="37.4506883" lon="126.9101148"></trkpt>
   <trkpt lat="37.4506277" lon="126.9106207"></trkpt>
   <trkpt lat="37.450585" lon="126.9110846"></trkpt>
   <trkpt lat="37.4505332" lon="126.9113608"></trkpt>
   <trkpt lat="37.450502" lon="126.9114436"></trkpt>
   <trkpt lat="37.4504673" lon="126.9115377"></trkpt>
   <trkpt lat="37.4502548" lon="126.9121126"></trkpt>
   <trkpt lat="37.4501769" lon="126.9124026"></trkpt>
   <trkpt lat="37.4501569" lon="126.912552"></trkpt>
   <trkpt lat="37.4501569" lon="126.912552"></trkpt>
   <trkpt lat="37.450092" lon="126.9125435"></trkpt>
   <trkpt lat="37.4500162" lon="126.9125373"></trkpt>
   <trkpt lat="37.4500162" lon="126.9125373"></trkpt>
   <trkpt lat="37.4499949" lon="126.9129524"></trkpt>
   <trkpt lat="37.4499949" lon="126.9129524"></trkpt>
   <trkpt lat="37.4497694" lon="126.9129361"></trkpt>
   <trkpt lat="37.4496333" lon="126.9129269"></trkpt>
   <trkpt lat="37.4494034" lon="126.9129118"></trkpt>
   <trkpt lat="37.4493302" lon="126.9128818"></trkpt>
   <trkpt lat="37.4492334" lon="126.9128147"></trkpt>
   <trkpt lat="37.4492334" lon="126.9128147"></trkpt>
   <trkpt lat="37.4491256" lon="126.91307"></trkpt>
   <trkpt lat="37.4490911" lon="126.9133868"></trkpt>
   <trkpt lat="37.4490744" lon="126.9134615"></trkpt>
   <trkpt lat="37.4490493" lon="126.9134991"></trkpt>
   <trkpt lat="37.4489991" lon="126.9135492"></trkpt>
   <trkpt lat="37.4489905" lon="126.9136363"></trkpt>
  </trkseg>
 </trk>
</gpx>
