<?xml version="1.0" encoding="UTF-8"?>
<gpx creator="daengrun-naver-route" version="1.1" xmlns="http://www.topografix.com/GPX/1/1" xmlns:xsi="http://www.w3.org/2001/XMLSchema-instance" xsi:schemaLocation="http://www.topografix.com/GPX/1/1 http://www.topografix.com/GPX/1/1/gpx.xsd">
 <metadata>
  <name>노원 골마을 근린공원·경춘숲공원 루프 3.44km</name>
  <desc>daengrun candidate geometry — measured 3.44km via Naver pedestrian router (o=flat, 계단회피). Elevation NOT available from this source. stairs=0 crosswalk=11 steppingstone=0 underpass=1 overpass=0</desc>
  <link href="naver:1tlissf"><text>daengrun route id</text></link>
  <copyright author="NAVER Corp."><license>https://map.naver.com/</license></copyright>
 </metadata>
 <trk>
  <name>노원 골마을 근린공원·경춘숲공원 루프 3.44km</name>
  <trkseg>
   <trkpt lat="37.6326931" lon="127.0647057"></trkpt>
   <trkpt lat="37.6329565" lon="127.0645251"></trkpt>
   <trkpt lat="37.6329962" lon="127.0645214"></trkpt>
   <trkpt lat="37.633071" lon="127.0645176"></trkpt>
   <trkpt lat="37.6330989" lon="127.0645072"></trkpt>
   <trkpt lat="37.6331079" lon="127.0645038"></trkpt>
   <trkpt lat="37.6333443" lon="127.0643392"></trkpt>
   <trkpt lat="37.6333443" lon="127.0643392"></trkpt>
   <trkpt lat="37.6334578" lon="127.0645516"></trkpt>
   <trkpt lat="37.6335122" lon="127.0646408"></trkpt>
   <trkpt lat="37.6336345" lon="127.0648237"></trkpt>
   <trkpt lat="37.6340224" lon="127.065404"></trkpt>
   <trkpt lat="37.634424" lon="127.0660171"></trkpt>
   <trkpt lat="37.6344331" lon="127.0660522"></trkpt>
   <trkpt lat="37.6344333" lon="127.0660873"></trkpt>
   <trkpt lat="37.6344243" lon="127.0661146"></trkpt>
   <trkpt lat="37.6344019" lon="127.0661396"></trkpt>
   <trkpt lat="37.6344019" lon="127.0661396"></trkpt>
   <trkpt lat="37.6344418" lon="127.0662051"></trkpt>
   <trkpt lat="37.634507" lon="127.0662977"></trkpt>
   <trkpt lat="37.6345502" lon="127.0662827"></trkpt>
   <trkpt lat="37.6345818" lon="127.0662814"></trkpt>
   <trkpt lat="37.6346053" lon="127.0663016"></trkpt>
   <trkpt lat="37.6346261" lon="127.066331"></trkpt>
   <trkpt lat="37.6347053" lon="127.0662999"></trkpt>
   <trkpt lat="37.6348574" lon="127.0662367"></trkpt>
   <trkpt lat="37.6348574" lon="127.0662367"></trkpt>
   <trkpt lat="37.6354681" lon="127.0670855"></trkpt>
   <trkpt lat="37.6358445" lon="127.0677259"></trkpt>
   <trkpt lat="37.6359532" lon="127.067893"></trkpt>
   <trkpt lat="37.6359704" lon="127.0679088"></trkpt>
   <trkpt lat="37.6359939" lon="127.0679234"></trkpt>
   <trkpt lat="37.6359939" lon="127.0679234"></trkpt>
   <trkpt lat="37.6360372" lon="127.0679265"></trkpt>
   <trkpt lat="37.636093" lon="127.0679172"></trkpt>
   <trkpt lat="37.636148" lon="127.0679089"></trkpt>
   <trkpt lat="37.6362722" lon="127.0678662"></trkpt>
   <trkpt lat="37.6366664" lon="127.0677053"></trkpt>
   <trkpt lat="37.6366736" lon="127.0677018"></trkpt>
   <trkpt lat="37.6370345" lon="127.0675558"></trkpt>
   <trkpt lat="37.6370345" lon="127.0675558"></trkpt>
   <trkpt lat="37.6370219" lon="127.0675729"></trkpt>
   <trkpt lat="37.6369886" lon="127.0675867"></trkpt>
   <trkpt lat="37.6370352" lon="127.0677485"></trkpt>
   <trkpt lat="37.6370781" lon="127.0678922"></trkpt>
   <trkpt lat="37.6371213" lon="127.0678727"></trkpt>
   <trkpt lat="37.6371349" lon="127.06791"></trkpt>
   <trkpt lat="37.6371349" lon="127.06791"></trkpt>
   <trkpt lat="37.6369199" lon="127.0680121"></trkpt>
   <trkpt lat="37.6367795" lon="127.0680775"></trkpt>
   <trkpt lat="37.6367696" lon="127.0680821"></trkpt>
   <trkpt lat="37.6363791" lon="127.0682646"></trkpt>
   <trkpt lat="37.6363404" lon="127.0682852"></trkpt>
   <trkpt lat="37.6363037" lon="127.0683342"></trkpt>
   <trkpt lat="37.6363037" lon="127.0683342"></trkpt>
   <trkpt lat="37.6363048" lon="127.0683886"></trkpt>
   <trkpt lat="37.6364574" lon="127.0687232"></trkpt>
   <trkpt lat="37.6366281" lon="127.0690679"></trkpt>
   <trkpt lat="37.6368079" lon="127.0694148"></trkpt>
   <trkpt lat="37.6372151" lon="127.0701152"></trkpt>
   <trkpt lat="37.6372541" lon="127.070175"></trkpt>
   <trkpt lat="37.6372731" lon="127.0701919"></trkpt>
   <trkpt lat="37.6372911" lon="127.0701941"></trkpt>
   <trkpt lat="37.6373037" lon="127.0701917"></trkpt>
   <trkpt lat="37.6373622" lon="127.0701732"></trkpt>
   <trkpt lat="37.6373622" lon="127.0701732"></trkpt>
   <trkpt lat="37.6374076" lon="127.0702489"></trkpt>
   <trkpt lat="37.6374557" lon="127.0703393"></trkpt>
   <trkpt lat="37.6374557" lon="127.0703393"></trkpt>
   <trkpt lat="37.637435" lon="127.0703485"></trkpt>
   <trkpt lat="37.6374134" lon="127.070369"></trkpt>
   <trkpt lat="37.6374099" lon="127.0704042"></trkpt>
   <trkpt lat="37.6374282" lon="127.0704528"></trkpt>
   <trkpt lat="37.6374644" lon="127.0705195"></trkpt>
   <trkpt lat="37.6376567" lon="127.0708312"></trkpt>
   <trkpt lat="37.6377229" lon="127.0709385"></trkpt>
   <trkpt lat="37.6377428" lon="127.0709815"></trkpt>
   <trkpt lat="37.6377428" lon="127.0709815"></trkpt>
   <trkpt lat="37.6377574" lon="127.0710131"></trkpt>
   <trkpt lat="37.637781" lon="127.0710753"></trkpt>
   <trkpt lat="37.637781" lon="127.0710753"></trkpt>
   <trkpt lat="37.6377929" lon="127.0711104"></trkpt>
   <trkpt lat="37.6379167" lon="127.0714565"></trkpt>
   <trkpt lat="37.6380252" lon="127.071788"></trkpt>
   <trkpt lat="37.6380603" lon="127.0720156"></trkpt>
   <trkpt lat="37.6380682" lon="127.0722252"></trkpt>
   <trkpt lat="37.6380799" lon="127.0724484"></trkpt>
   <trkpt lat="37.6380849" lon="127.0725958"></trkpt>
   <trkpt lat="37.6381357" lon="127.0734444"></trkpt>
   <trkpt lat="37.6381875" lon="127.0737909"></trkpt>
   <trkpt lat="37.6382332" lon="127.0739834"></trkpt>
   <trkpt lat="37.6382451" lon="127.074032"></trkpt>
   <trkpt lat="37.6383072" lon="127.0742357"></trkpt>
   <trkpt lat="37.6383072" lon="127.0742357"></trkpt>
   <trkpt lat="37.6383476" lon="127.0742105"></trkpt>
   <trkpt lat="37.6387039" lon="127.0740306"></trkpt>
   <trkpt lat="37.6387039" lon="127.0740306"></trkpt>
   <trkpt lat="37.6383476" lon="127.0742105"></trkpt>
   <trkpt lat="37.6383072" lon="127.0742357"></trkpt>
   <trkpt lat="37.6383072" lon="127.0742357"></trkpt>
   <trkpt lat="37.6382451" lon="127.074032"></trkpt>
   <trkpt lat="37.6382332" lon="127.0739834"></trkpt>
   <trkpt lat="37.6381875" lon="127.0737909"></trkpt>
   <trkpt lat="37.6381357" lon="127.0734444"></trkpt>
   <trkpt lat="37.6380849" lon="127.0725958"></trkpt>
   <trkpt lat="37.6380799" lon="127.0724484"></trkpt>
   <trkpt lat="37.6380682" lon="127.0722252"></trkpt>
   <trkpt lat="37.6380603" lon="127.0720156"></trkpt>
   <trkpt lat="37.6380252" lon="127.071788"></trkpt>
   <trkpt lat="37.6379167" lon="127.0714565"></trkpt>
   <trkpt lat="37.6377929" lon="127.0711104"></trkpt>
   <trkpt lat="37.637781" lon="127.0710753"></trkpt>
   <trkpt lat="37.637781" lon="127.0710753"></trkpt>
   <trkpt lat="37.6377574" lon="127.0710131"></trkpt>
   <trkpt lat="37.6377428" lon="127.0709815"></trkpt>
   <trkpt lat="37.6377428" lon="127.0709815"></trkpt>
   <trkpt lat="37.6377229" lon="127.0709385"></trkpt>
   <trkpt lat="37.6376567" lon="127.0708312"></trkpt>
   <trkpt lat="37.6374644" lon="127.0705195"></trkpt>
   <trkpt lat="37.6374282" lon="127.0704528"></trkpt>
   <trkpt lat="37.6374282" lon="127.0704528"></trkpt>
   <trkpt lat="37.6373265" lon="127.0704965"></trkpt>
   <trkpt lat="37.6371959" lon="127.0705403"></trkpt>
   <trkpt lat="37.6371705" lon="127.0704849"></trkpt>
   <trkpt lat="37.6371542" lon="127.0704714"></trkpt>
   <trkpt lat="37.6371326" lon="127.0704727"></trkpt>
   <trkpt lat="37.6370444" lon="127.0705049"></trkpt>
   <trkpt lat="37.6369954" lon="127.0704315"></trkpt>
   <trkpt lat="37.6369537" lon="127.0703649"></trkpt>
   <trkpt lat="37.6369537" lon="127.0703649"></trkpt>
   <trkpt lat="37.6369996" lon="127.0703431"></trkpt>
   <trkpt lat="37.6370086" lon="127.0703226"></trkpt>
   <trkpt lat="37.6370075" lon="127.0702932"></trkpt>
   <trkpt lat="37.6369848" lon="127.070248"></trkpt>
   <trkpt lat="37.6366229" lon="127.0696051"></trkpt>
   <trkpt lat="37.636058" lon="127.0687028"></trkpt>
   <trkpt lat="37.6359792" lon="127.0685729"></trkpt>
   <trkpt lat="37.6359665" lon="127.0685526"></trkpt>
   <trkpt lat="37.6359042" lon="127.0685326"></trkpt>
   <trkpt lat="37.6359042" lon="127.0685326"></trkpt>
   <trkpt lat="37.6358465" lon="127.0685374"></trkpt>
   <trkpt lat="37.6357988" lon="127.068549"></trkpt>
   <trkpt lat="37.635689" lon="127.0686029"></trkpt>
   <trkpt lat="37.635644" lon="127.0686247"></trkpt>
   <trkpt lat="37.6330972" lon="127.0697139"></trkpt>
   <trkpt lat="37.6330972" lon="127.0697139"></trkpt>
   <trkpt lat="37.6330388" lon="127.0697448"></trkpt>
   <trkpt lat="37.6329947" lon="127.0697677"></trkpt>
   <trkpt lat="37.6329947" lon="127.0697677"></trkpt>
   <trkpt lat="37.6322081" lon="127.0700839"></trkpt>
   <trkpt lat="37.6318355" lon="127.0702391"></trkpt>
   <trkpt lat="37.6318089" lon="127.0703628"></trkpt>
   <trkpt lat="37.6318089" lon="127.0703628"></trkpt>
   <trkpt lat="37.6317764" lon="127.0703562"></trkpt>
   <trkpt lat="37.6317024" lon="127.070343"></trkpt>
   <trkpt lat="37.6317024" lon="127.070343"></trkpt>
   <trkpt lat="37.6317165" lon="127.0702545"></trkpt>
   <trkpt lat="37.6316904" lon="127.0702626"></trkpt>
   <trkpt lat="37.6315725" lon="127.0703007"></trkpt>
   <trkpt lat="37.6314492" lon="127.0703388"></trkpt>
   <trkpt lat="37.6313042" lon="127.0703906"></trkpt>
   <trkpt lat="37.6312466" lon="127.0704068"></trkpt>
   <trkpt lat="37.6312007" lon="127.0704207"></trkpt>
   <trkpt lat="37.6312007" lon="127.0704207"></trkpt>
   <trkpt lat="37.6312096" lon="127.0703946"></trkpt>
   <trkpt lat="37.6312396" lon="127.0702232"></trkpt>
   <trkpt lat="37.6312467" lon="127.0701801"></trkpt>
   <trkpt lat="37.6312467" lon="127.0701801"></trkpt>
   <trkpt lat="37.6311845" lon="127.0701828"></trkpt>
   <trkpt lat="37.6311575" lon="127.0701852"></trkpt>
   <trkpt lat="37.6311575" lon="127.0701852"></trkpt>
   <trkpt lat="37.6311927" lon="127.0699504"></trkpt>
   <trkpt lat="37.631217" lon="127.0696986"></trkpt>
   <trkpt lat="37.6312261" lon="127.0694935"></trkpt>
   <trkpt lat="37.6312261" lon="127.0694935"></trkpt>
   <trkpt lat="37.6310966" lon="127.0695531"></trkpt>
   <trkpt lat="37.6310732" lon="127.0695646"></trkpt>
   <trkpt lat="37.6310426" lon="127.069575"></trkpt>
   <trkpt lat="37.6310426" lon="127.0695739"></trkpt>
   <trkpt lat="37.6310426" lon="127.0695739"></trkpt>
   <trkpt lat="37.6310426" lon="127.069575"></trkpt>
   <trkpt lat="37.6310732" lon="127.0695646"></trkpt>
   <trkpt lat="37.6310966" lon="127.0695531"></trkpt>
   <trkpt lat="37.6312261" lon="127.0694935"></trkpt>
   <trkpt lat="37.6312261" lon="127.0694935"></trkpt>
   <trkpt lat="37.6312276" lon="127.0693971"></trkpt>
   <trkpt lat="37.6312329" lon="127.069116"></trkpt>
   <trkpt lat="37.6311907" lon="127.0686867"></trkpt>
   <trkpt lat="37.6311705" lon="127.0685713"></trkpt>
   <trkpt lat="37.6310305" lon="127.0677663"></trkpt>
   <trkpt lat="37.6310143" lon="127.067772"></trkpt>
   <trkpt lat="37.6309918" lon="127.0677778"></trkpt>
   <trkpt lat="37.6309918" lon="127.0677778"></trkpt>
   <trkpt lat="37.6309267" lon="127.0674575"></trkpt>
   <trkpt lat="37.6309267" lon="127.0674575"></trkpt>
   <trkpt lat="37.63096" lon="127.0674448"></trkpt>
   <trkpt lat="37.6309726" lon="127.0674413"></trkpt>
   <trkpt lat="37.6309625" lon="127.0673915"></trkpt>
   <trkpt lat="37.630674" lon="127.0659097"></trkpt>
   <trkpt lat="37.6306253" lon="127.0656606"></trkpt>
   <trkpt lat="37.6306242" lon="127.0656085"></trkpt>
   <trkpt lat="37.630643" lon="127.0655608"></trkpt>
   <trkpt lat="37.630643" lon="127.0655608"></trkpt>
   <trkpt lat="37.6307167" lon="127.0655037"></trkpt>
   <trkpt lat="37.6308084" lon="127.0654329"></trkpt>
   <trkpt lat="37.6309414" lon="127.0653347"></trkpt>
   <trkpt lat="37.6310008" lon="127.0652992"></trkpt>
   <trkpt lat="37.6311501" lon="127.065236"></trkpt>
   <trkpt lat="37.6312141" lon="127.0652266"></trkpt>
   <trkpt lat="37.6312691" lon="127.0652398"></trkpt>
   <trkpt lat="37.6313116" lon="127.0652702"></trkpt>
   <trkpt lat="37.6313406" lon="127.0653074"></trkpt>
   <trkpt lat="37.6313589" lon="127.0653776"></trkpt>
   <trkpt lat="37.6313589" lon="127.0653776"></trkpt>
   <trkpt lat="37.6317964" lon="127.0652232"></trkpt>
   <trkpt lat="37.6318279" lon="127.0652139"></trkpt>
   <trkpt lat="37.6320295" lon="127.0651402"></trkpt>
   <trkpt lat="37.6320565" lon="127.0651242"></trkpt>
   <trkpt lat="37.6322876" lon="127.0649846"></trkpt>
   <trkpt lat="37.6326931" lon="127.0647057"></trkpt>
  </trkseg>
 </trk>
</gpx>
