<?xml version="1.0" encoding="UTF-8"?>
<gpx creator="daengrun-naver-route" version="1.1" xmlns="http://www.topografix.com/GPX/1/1" xmlns:xsi="http://www.w3.org/2001/XMLSchema-instance" xsi:schemaLocation="http://www.topografix.com/GPX/1/1 http://www.topografix.com/GPX/1/1/gpx.xsd">
 <metadata>
  <name>노원 한내근린공원·나래공원 루프 1.98km</name>
  <desc>daengrun candidate geometry — measured 1.98km via Naver pedestrian router (o=flat, 계단회피). Elevation NOT available from this source. stairs=0 crosswalk=6 steppingstone=0 underpass=0 overpass=2</desc>
  <link href="naver:eojyh2"><text>daengrun route id</text></link>
  <copyright author="NAVER Corp."><license>https://map.naver.com/</license></copyright>
 </metadata>
 <trk>
  <name>노원 한내근린공원·나래공원 루프 1.98km</name>
  <trkseg>
   <trkpt lat="37.6234197" lon="127.0672823"></trkpt>
   <trkpt lat="37.6234142" lon="127.0670194"></trkpt>
   <trkpt lat="37.6233938" lon="127.0668631"></trkpt>
   <trkpt lat="37.6233938" lon="127.0668631"></trkpt>
   <trkpt lat="37.6233032" lon="127.0669996"></trkpt>
   <trkpt lat="37.6232405" lon="127.0670929"></trkpt>
   <trkpt lat="37.6232405" lon="127.0670929"></trkpt>
   <trkpt lat="37.6233087" lon="127.0672602"></trkpt>
   <trkpt lat="37.6233087" lon="127.0672602"></trkpt>
   <trkpt lat="37.6232359" lon="127.0673105"></trkpt>
   <trkpt lat="37.6231757" lon="127.0673528"></trkpt>
   <trkpt lat="37.6231757" lon="127.0673528"></trkpt>
   <trkpt lat="37.6234894" lon="127.068125"></trkpt>
   <trkpt lat="37.6235013" lon="127.0681623"></trkpt>
   <trkpt lat="37.623497" lon="127.0682224"></trkpt>
   <trkpt lat="37.6234746" lon="127.0682576"></trkpt>
   <trkpt lat="37.6234287" lon="127.068284"></trkpt>
   <trkpt lat="37.6234287" lon="127.068284"></trkpt>
   <trkpt lat="37.6234534" lon="127.068387"></trkpt>
   <trkpt lat="37.62349" lon="127.0685148"></trkpt>
   <trkpt lat="37.62349" lon="127.0685148"></trkpt>
   <trkpt lat="37.6235314" lon="127.0684998"></trkpt>
   <trkpt lat="37.6235539" lon="127.068494"></trkpt>
   <trkpt lat="37.6235656" lon="127.0684962"></trkpt>
   <trkpt lat="37.6235388" lon="127.06857"></trkpt>
   <trkpt lat="37.6235121" lon="127.0686416"></trkpt>
   <trkpt lat="37.6235121" lon="127.0686416"></trkpt>
   <trkpt lat="37.6232898" lon="127.0687335"></trkpt>
   <trkpt lat="37.6231178" lon="127.0687844"></trkpt>
   <trkpt lat="37.6229639" lon="127.0688453"></trkpt>
   <trkpt lat="37.6227902" lon="127.0689302"></trkpt>
   <trkpt lat="37.6226364" lon="127.0690025"></trkpt>
   <trkpt lat="37.6225708" lon="127.0690618"></trkpt>
   <trkpt lat="37.6225359" lon="127.0691311"></trkpt>
   <trkpt lat="37.6225359" lon="127.0691311"></trkpt>
   <trkpt lat="37.6224971" lon="127.0691166"></trkpt>
   <trkpt lat="37.6224439" lon="127.069126"></trkpt>
   <trkpt lat="37.6223667" lon="127.0692057"></trkpt>
   <trkpt lat="37.6223667" lon="127.0692057"></trkpt>
   <trkpt lat="37.6223625" lon="127.0692771"></trkpt>
   <trkpt lat="37.6223798" lon="127.0693246"></trkpt>
   <trkpt lat="37.6223798" lon="127.0693246"></trkpt>
   <trkpt lat="37.6223625" lon="127.0692771"></trkpt>
   <trkpt lat="37.6223667" lon="127.0692057"></trkpt>
   <trkpt lat="37.6223667" lon="127.0692057"></trkpt>
   <trkpt lat="37.6224439" lon="127.069126"></trkpt>
   <trkpt lat="37.6224971" lon="127.0691166"></trkpt>
   <trkpt lat="37.6225359" lon="127.0691311"></trkpt>
   <trkpt lat="37.6225359" lon="127.0691311"></trkpt>
   <trkpt lat="37.6225708" lon="127.0690618"></trkpt>
   <trkpt lat="37.6226364" lon="127.0690025"></trkpt>
   <trkpt lat="37.6227902" lon="127.0689302"></trkpt>
   <trkpt lat="37.6229639" lon="127.0688453"></trkpt>
   <trkpt lat="37.6231178" lon="127.0687844"></trkpt>
   <trkpt lat="37.6232898" lon="127.0687335"></trkpt>
   <trkpt lat="37.6235121" lon="127.0686416"></trkpt>
   <trkpt lat="37.6235121" lon="127.0686416"></trkpt>
   <trkpt lat="37.6235388" lon="127.06857"></trkpt>
   <trkpt lat="37.6235656" lon="127.0684962"></trkpt>
   <trkpt lat="37.6235539" lon="127.068494"></trkpt>
   <trkpt lat="37.6235314" lon="127.0684998"></trkpt>
   <trkpt lat="37.62349" lon="127.0685148"></trkpt>
   <trkpt lat="37.62349" lon="127.0685148"></trkpt>
   <trkpt lat="37.6234534" lon="127.068387"></trkpt>
   <trkpt lat="37.6234287" lon="127.068284"></trkpt>
   <trkpt lat="37.6234746" lon="127.0682576"></trkpt>
   <trkpt lat="37.623497" lon="127.0682224"></trkpt>
   <trkpt lat="37.6235013" lon="127.0681623"></trkpt>
   <trkpt lat="37.6234894" lon="127.068125"></trkpt>
   <trkpt lat="37.623556" lon="127.0680872"></trkpt>
   <trkpt lat="37.6236243" lon="127.0680426"></trkpt>
   <trkpt lat="37.6236598" lon="127.0681195"></trkpt>
   <trkpt lat="37.6236923" lon="127.0681442"></trkpt>
   <trkpt lat="37.6237311" lon="127.0681485"></trkpt>
   <trkpt lat="37.6237905" lon="127.0681312"></trkpt>
   <trkpt lat="37.6238225" lon="127.068259"></trkpt>
   <trkpt lat="37.62385" lon="127.0683665"></trkpt>
   <trkpt lat="37.62385" lon="127.0683665"></trkpt>
   <trkpt lat="37.6238105" lon="127.0684087"></trkpt>
   <trkpt lat="37.6237926" lon="127.0684654"></trkpt>
   <trkpt lat="37.6237975" lon="127.0685515"></trkpt>
   <trkpt lat="37.6238939" lon="127.068789"></trkpt>
   <trkpt lat="37.6246367" lon="127.0705502"></trkpt>
   <trkpt lat="37.6247385" lon="127.0707967"></trkpt>
   <trkpt lat="37.6247385" lon="127.0707967"></trkpt>
   <trkpt lat="37.6247862" lon="127.0707749"></trkpt>
   <trkpt lat="37.6247988" lon="127.0707692"></trkpt>
   <trkpt lat="37.6247924" lon="127.0707499"></trkpt>
   <trkpt lat="37.6247924" lon="127.0707499"></trkpt>
   <trkpt lat="37.6247852" lon="127.0707534"></trkpt>
   <trkpt lat="37.6247754" lon="127.0707614"></trkpt>
   <trkpt lat="37.6247763" lon="127.0707738"></trkpt>
   <trkpt lat="37.6247863" lon="127.0708044"></trkpt>
   <trkpt lat="37.6248009" lon="127.0708428"></trkpt>
   <trkpt lat="37.6248364" lon="127.070931"></trkpt>
   <trkpt lat="37.6249472" lon="127.0711763"></trkpt>
   <trkpt lat="37.625019" lon="127.0713402"></trkpt>
   <trkpt lat="37.6250635" lon="127.0714374"></trkpt>
   <trkpt lat="37.6250789" lon="127.0714497"></trkpt>
   <trkpt lat="37.6250916" lon="127.0714565"></trkpt>
   <trkpt lat="37.6251042" lon="127.0714621"></trkpt>
   <trkpt lat="37.6251042" lon="127.0714621"></trkpt>
   <trkpt lat="37.6251168" lon="127.0714631"></trkpt>
   <trkpt lat="37.6251294" lon="127.0714631"></trkpt>
   <trkpt lat="37.6251619" lon="127.0714538"></trkpt>
   <trkpt lat="37.625458" lon="127.0713558"></trkpt>
   <trkpt lat="37.625774" lon="127.0712463"></trkpt>
   <trkpt lat="37.6261917" lon="127.0711102"></trkpt>
   <trkpt lat="37.6263232" lon="127.0710641"></trkpt>
   <trkpt lat="37.6265194" lon="127.0710006"></trkpt>
   <trkpt lat="37.6268795" lon="127.0708852"></trkpt>
   <trkpt lat="37.6268795" lon="127.0708852"></trkpt>
   <trkpt lat="37.6268955" lon="127.070824"></trkpt>
   <trkpt lat="37.6269115" lon="127.0707604"></trkpt>
   <trkpt lat="37.626931" lon="127.0706538"></trkpt>
   <trkpt lat="37.626931" lon="127.0706538"></trkpt>
   <trkpt lat="37.6269625" lon="127.0706581"></trkpt>
   <trkpt lat="37.6269625" lon="127.0706581"></trkpt>
   <trkpt lat="37.626931" lon="127.0706538"></trkpt>
   <trkpt lat="37.626931" lon="127.0706538"></trkpt>
   <trkpt lat="37.6269115" lon="127.0707604"></trkpt>
   <trkpt lat="37.6268955" lon="127.070824"></trkpt>
   <trkpt lat="37.6268795" lon="127.0708852"></trkpt>
   <trkpt lat="37.6268795" lon="127.0708852"></trkpt>
   <trkpt lat="37.6265194" lon="127.0710006"></trkpt>
   <trkpt lat="37.6263232" lon="127.0710641"></trkpt>
   <trkpt lat="37.6261917" lon="127.0711102"></trkpt>
   <trkpt lat="37.625774" lon="127.0712463"></trkpt>
   <trkpt lat="37.625458" lon="127.0713558"></trkpt>
   <trkpt lat="37.6251619" lon="127.0714538"></trkpt>
   <trkpt lat="37.6251294" lon="127.0714631"></trkpt>
   <trkpt lat="37.6251168" lon="127.0714631"></trkpt>
   <trkpt lat="37.6251042" lon="127.0714621"></trkpt>
   <trkpt lat="37.6251042" lon="127.0714621"></trkpt>
   <trkpt lat="37.6250916" lon="127.0714565"></trkpt>
   <trkpt lat="37.6250789" lon="127.0714497"></trkpt>
   <trkpt lat="37.6250635" lon="127.0714374"></trkpt>
   <trkpt lat="37.625019" lon="127.0713402"></trkpt>
   <trkpt lat="37.6249472" lon="127.0711763"></trkpt>
   <trkpt lat="37.6248364" lon="127.070931"></trkpt>
   <trkpt lat="37.6248009" lon="127.0708428"></trkpt>
   <trkpt lat="37.6247863" lon="127.0708044"></trkpt>
   <trkpt lat="37.6247763" lon="127.0707738"></trkpt>
   <trkpt lat="37.6247754" lon="127.0707614"></trkpt>
   <trkpt lat="37.6247754" lon="127.0707614"></trkpt>
   <trkpt lat="37.6247852" lon="127.0707534"></trkpt>
   <trkpt lat="37.6247924" lon="127.0707499"></trkpt>
   <trkpt lat="37.6247924" lon="127.0707499"></trkpt>
   <trkpt lat="37.6247988" lon="127.0707692"></trkpt>
   <trkpt lat="37.6247862" lon="127.0707749"></trkpt>
   <trkpt lat="37.6247385" lon="127.0707967"></trkpt>
   <trkpt lat="37.6247385" lon="127.0707967"></trkpt>
   <trkpt lat="37.6246367" lon="127.0705502"></trkpt>
   <trkpt lat="37.6238939" lon="127.068789"></trkpt>
   <trkpt lat="37.6237975" lon="127.0685515"></trkpt>
   <trkpt lat="37.6237926" lon="127.0684654"></trkpt>
   <trkpt lat="37.6238105" lon="127.0684087"></trkpt>
   <trkpt lat="37.62385" lon="127.0683665"></trkpt>
   <trkpt lat="37.62385" lon="127.0683665"></trkpt>
   <trkpt lat="37.6238225" lon="127.068259"></trkpt>
   <trkpt lat="37.6237905" lon="127.0681312"></trkpt>
   <trkpt lat="37.6237905" lon="127.0681312"></trkpt>
   <trkpt lat="37.6237311" lon="127.0681485"></trkpt>
   <trkpt lat="37.6236923" lon="127.0681442"></trkpt>
   <trkpt lat="37.6236598" lon="127.0681195"></trkpt>
   <trkpt lat="37.6236243" lon="127.0680426"></trkpt>
   <trkpt lat="37.6233087" lon="127.0672602"></trkpt>
   <trkpt lat="37.6232405" lon="127.0670929"></trkpt>
   <trkpt lat="37.6232405" lon="127.0670929"></trkpt>
   <trkpt lat="37.6233032" lon="127.0669996"></trkpt>
   <trkpt lat="37.6233938" lon="127.0668631"></trkpt>
   <trkpt lat="37.6233938" lon="127.0668631"></trkpt>
   <trkpt lat="37.6234142" lon="127.0670194"></trkpt>
   <trkpt lat="37.6234197" lon="127.0672823"></trkpt>
  </trkseg>
 </trk>
</gpx>
