<?xml version="1.0" encoding="UTF-8"?>
<gpx creator="daengrun-naver-route" version="1.1" xmlns="http://www.topografix.com/GPX/1/1" xmlns:xsi="http://www.w3.org/2001/XMLSchema-instance" xsi:schemaLocation="http://www.topografix.com/GPX/1/1 http://www.topografix.com/GPX/1/1/gpx.xsd">
 <metadata>
  <name>노원 비석골근린공원·창3동 마을마당 루프 5.14km</name>
  <desc>daengrun candidate geometry — measured 5.14km via Naver pedestrian router (o=flat, 계단회피). Elevation NOT available from this source. stairs=0 crosswalk=6 steppingstone=0 underpass=0 overpass=0</desc>
  <link href="naver:1meinkh"><text>daengrun route id</text></link>
  <copyright author="NAVER Corp."><license>https://map.naver.com/</license></copyright>
 </metadata>
 <trk>
  <name>노원 비석골근린공원·창3동 마을마당 루프 5.14km</name>
  <trkseg>
   <trkpt lat="37.6305106" lon="127.0443165"></trkpt>
   <trkpt lat="37.6305051" lon="127.044304"></trkpt>
   <trkpt lat="37.6305788" lon="127.0442571"></trkpt>
   <trkpt lat="37.6304843" lon="127.0440582"></trkpt>
   <trkpt lat="37.6304608" lon="127.044038"></trkpt>
   <trkpt lat="37.6304392" lon="127.0440347"></trkpt>
   <trkpt lat="37.6301468" lon="127.0441804"></trkpt>
   <trkpt lat="37.6301189" lon="127.0441806"></trkpt>
   <trkpt lat="37.6300455" lon="127.0440858"></trkpt>
   <trkpt lat="37.6300056" lon="127.0440181"></trkpt>
   <trkpt lat="37.6300056" lon="127.0440181"></trkpt>
   <trkpt lat="37.6297992" lon="127.0442483"></trkpt>
   <trkpt lat="37.6297731" lon="127.044279"></trkpt>
   <trkpt lat="37.6297049" lon="127.0443565"></trkpt>
   <trkpt lat="37.6295936" lon="127.0444694"></trkpt>
   <trkpt lat="37.6293465" lon="127.0446635"></trkpt>
   <trkpt lat="37.6292299" lon="127.0448116"></trkpt>
   <trkpt lat="37.629194" lon="127.0448685"></trkpt>
   <trkpt lat="37.6290491" lon="127.045147"></trkpt>
   <trkpt lat="37.6289767" lon="127.0453061"></trkpt>
   <trkpt lat="37.6288865" lon="127.0455107"></trkpt>
   <trkpt lat="37.6288748" lon="127.0455368"></trkpt>
   <trkpt lat="37.628806" lon="127.0456868"></trkpt>
   <trkpt lat="37.6283311" lon="127.0466496"></trkpt>
   <trkpt lat="37.6283213" lon="127.0466746"></trkpt>
   <trkpt lat="37.6283178" lon="127.0467052"></trkpt>
   <trkpt lat="37.6283233" lon="127.0467324"></trkpt>
   <trkpt lat="37.628336" lon="127.0467606"></trkpt>
   <trkpt lat="37.628336" lon="127.0467606"></trkpt>
   <trkpt lat="37.6283092" lon="127.0468254"></trkpt>
   <trkpt lat="37.6282833" lon="127.0468833"></trkpt>
   <trkpt lat="37.6282833" lon="127.0468833"></trkpt>
   <trkpt lat="37.6282626" lon="127.0468801"></trkpt>
   <trkpt lat="37.6282455" lon="127.0468858"></trkpt>
   <trkpt lat="37.6282293" lon="127.0468961"></trkpt>
   <trkpt lat="37.6282168" lon="127.0469166"></trkpt>
   <trkpt lat="37.6281541" lon="127.0470348"></trkpt>
   <trkpt lat="37.6280933" lon="127.0471667"></trkpt>
   <trkpt lat="37.6280531" lon="127.0472417"></trkpt>
   <trkpt lat="37.6279286" lon="127.0474487"></trkpt>
   <trkpt lat="37.6277106" lon="127.04773"></trkpt>
   <trkpt lat="37.6276972" lon="127.047747"></trkpt>
   <trkpt lat="37.6276972" lon="127.047747"></trkpt>
   <trkpt lat="37.6280564" lon="127.0483523"></trkpt>
   <trkpt lat="37.6281254" lon="127.048472"></trkpt>
   <trkpt lat="37.6284457" lon="127.0490333"></trkpt>
   <trkpt lat="37.6284639" lon="127.0490819"></trkpt>
   <trkpt lat="37.6284704" lon="127.0491261"></trkpt>
   <trkpt lat="37.6284687" lon="127.0491578"></trkpt>
   <trkpt lat="37.6284544" lon="127.0491806"></trkpt>
   <trkpt lat="37.6284301" lon="127.0492079"></trkpt>
   <trkpt lat="37.6283889" lon="127.0492569"></trkpt>
   <trkpt lat="37.6278009" lon="127.049894"></trkpt>
   <trkpt lat="37.6277919" lon="127.0499042"></trkpt>
   <trkpt lat="37.6277866" lon="127.0499133"></trkpt>
   <trkpt lat="37.6277848" lon="127.0499235"></trkpt>
   <trkpt lat="37.6277848" lon="127.0499235"></trkpt>
   <trkpt lat="37.6277903" lon="127.049936"></trkpt>
   <trkpt lat="37.6277984" lon="127.0499461"></trkpt>
   <trkpt lat="37.6279698" lon="127.0502182"></trkpt>
   <trkpt lat="37.6280142" lon="127.0502859"></trkpt>
   <trkpt lat="37.6280359" lon="127.0503062"></trkpt>
   <trkpt lat="37.6280738" lon="127.0503162"></trkpt>
   <trkpt lat="37.6282983" lon="127.0503318"></trkpt>
   <trkpt lat="37.6284228" lon="127.0503571"></trkpt>
   <trkpt lat="37.6286673" lon="127.050418"></trkpt>
   <trkpt lat="37.6287287" lon="127.0504358"></trkpt>
   <trkpt lat="37.629215" lon="127.0505824"></trkpt>
   <trkpt lat="37.6295662" lon="127.0507208"></trkpt>
   <trkpt lat="37.6297016" lon="127.0507801"></trkpt>
   <trkpt lat="37.6298281" lon="127.0508598"></trkpt>
   <trkpt lat="37.629941" lon="127.0509282"></trkpt>
   <trkpt lat="37.6300747" lon="127.0509966"></trkpt>
   <trkpt lat="37.6301397" lon="127.0510211"></trkpt>
   <trkpt lat="37.6306423" lon="127.0511813"></trkpt>
   <trkpt lat="37.6307488" lon="127.0512101"></trkpt>
   <trkpt lat="37.6310423" lon="127.0511188"></trkpt>
   <trkpt lat="37.6312359" lon="127.051061"></trkpt>
   <trkpt lat="37.6312944" lon="127.0510414"></trkpt>
   <trkpt lat="37.6317139" lon="127.0509051"></trkpt>
   <trkpt lat="37.6317958" lon="127.0508797"></trkpt>
   <trkpt lat="37.6318544" lon="127.050868"></trkpt>
   <trkpt lat="37.6320831" lon="127.0508269"></trkpt>
   <trkpt lat="37.6322516" lon="127.0508044"></trkpt>
   <trkpt lat="37.6322642" lon="127.0507975"></trkpt>
   <trkpt lat="37.6322741" lon="127.0507827"></trkpt>
   <trkpt lat="37.6322741" lon="127.0507827"></trkpt>
   <trkpt lat="37.6322803" lon="127.0507612"></trkpt>
   <trkpt lat="37.6322801" lon="127.0507226"></trkpt>
   <trkpt lat="37.632278" lon="127.0506308"></trkpt>
   <trkpt lat="37.6322767" lon="127.050539"></trkpt>
   <trkpt lat="37.6322755" lon="127.0504552"></trkpt>
   <trkpt lat="37.6322489" lon="127.0496337"></trkpt>
   <trkpt lat="37.6322579" lon="127.0496098"></trkpt>
   <trkpt lat="37.6322935" lon="127.0495133"></trkpt>
   <trkpt lat="37.6322925" lon="127.0494679"></trkpt>
   <trkpt lat="37.6322582" lon="127.0494716"></trkpt>
   <trkpt lat="37.632233" lon="127.049474"></trkpt>
   <trkpt lat="37.6317184" lon="127.0494975"></trkpt>
   <trkpt lat="37.6316662" lon="127.0494989"></trkpt>
   <trkpt lat="37.6312327" lon="127.0495197"></trkpt>
   <trkpt lat="37.6312327" lon="127.0495197"></trkpt>
   <trkpt lat="37.6312152" lon="127.0494325"></trkpt>
   <trkpt lat="37.6311785" lon="127.0492491"></trkpt>
   <trkpt lat="37.6311656" lon="127.0491846"></trkpt>
   <trkpt lat="37.6311029" lon="127.0490581"></trkpt>
   <trkpt lat="37.6310541" lon="127.0490119"></trkpt>
   <trkpt lat="37.6309428" lon="127.0489038"></trkpt>
   <trkpt lat="37.6308478" lon="127.0487989"></trkpt>
   <trkpt lat="37.6308478" lon="127.0487989"></trkpt>
   <trkpt lat="37.6309428" lon="127.0489038"></trkpt>
   <trkpt lat="37.6310541" lon="127.0490119"></trkpt>
   <trkpt lat="37.6311029" lon="127.0490581"></trkpt>
   <trkpt lat="37.6311656" lon="127.0491846"></trkpt>
   <trkpt lat="37.6311785" lon="127.0492491"></trkpt>
   <trkpt lat="37.6312152" lon="127.0494325"></trkpt>
   <trkpt lat="37.6312327" lon="127.0495197"></trkpt>
   <trkpt lat="37.6312327" lon="127.0495197"></trkpt>
   <trkpt lat="37.6316662" lon="127.0494989"></trkpt>
   <trkpt lat="37.6317184" lon="127.0494975"></trkpt>
   <trkpt lat="37.632233" lon="127.049474"></trkpt>
   <trkpt lat="37.6322582" lon="127.0494716"></trkpt>
   <trkpt lat="37.6322925" lon="127.0494679"></trkpt>
   <trkpt lat="37.6322935" lon="127.0495133"></trkpt>
   <trkpt lat="37.6322579" lon="127.0496098"></trkpt>
   <trkpt lat="37.6322489" lon="127.0496337"></trkpt>
   <trkpt lat="37.6322755" lon="127.0504552"></trkpt>
   <trkpt lat="37.6322767" lon="127.050539"></trkpt>
   <trkpt lat="37.632278" lon="127.0506308"></trkpt>
   <trkpt lat="37.6322801" lon="127.0507226"></trkpt>
   <trkpt lat="37.6322803" lon="127.0507612"></trkpt>
   <trkpt lat="37.6322741" lon="127.0507827"></trkpt>
   <trkpt lat="37.6322642" lon="127.0507975"></trkpt>
   <trkpt lat="37.6322516" lon="127.0508044"></trkpt>
   <trkpt lat="37.6322516" lon="127.0508044"></trkpt>
   <trkpt lat="37.6322562" lon="127.0508395"></trkpt>
   <trkpt lat="37.6322656" lon="127.0509188"></trkpt>
   <trkpt lat="37.6322656" lon="127.0509188"></trkpt>
   <trkpt lat="37.6322809" lon="127.0509266"></trkpt>
   <trkpt lat="37.6322945" lon="127.0509492"></trkpt>
   <trkpt lat="37.6322965" lon="127.0509855"></trkpt>
   <trkpt lat="37.6322957" lon="127.0510285"></trkpt>
   <trkpt lat="37.6322988" lon="127.0511192"></trkpt>
   <trkpt lat="37.6323357" lon="127.0520642"></trkpt>
   <trkpt lat="37.6323404" lon="127.0521197"></trkpt>
   <trkpt lat="37.6323433" lon="127.0521673"></trkpt>
   <trkpt lat="37.6323425" lon="127.0521809"></trkpt>
   <trkpt lat="37.6323389" lon="127.0522058"></trkpt>
   <trkpt lat="37.6323389" lon="127.0522058"></trkpt>
   <trkpt lat="37.6323327" lon="127.0522138"></trkpt>
   <trkpt lat="37.6323129" lon="127.0522298"></trkpt>
   <trkpt lat="37.6321023" lon="127.0523138"></trkpt>
   <trkpt lat="37.6318422" lon="127.052423"></trkpt>
   <trkpt lat="37.6313663" lon="127.0526639"></trkpt>
   <trkpt lat="37.6312765" lon="127.0527369"></trkpt>
   <trkpt lat="37.6299435" lon="127.0539632"></trkpt>
   <trkpt lat="37.6298259" lon="127.0540716"></trkpt>
   <trkpt lat="37.6296777" lon="127.0542096"></trkpt>
   <trkpt lat="37.629216" lon="127.0546407"></trkpt>
   <trkpt lat="37.6290364" lon="127.0548152"></trkpt>
   <trkpt lat="37.6289133" lon="127.0549225"></trkpt>
   <trkpt lat="37.6289133" lon="127.0549225"></trkpt>
   <trkpt lat="37.6288145" lon="127.0550024"></trkpt>
   <trkpt lat="37.6288145" lon="127.0550024"></trkpt>
   <trkpt lat="37.6287866" lon="127.0550286"></trkpt>
   <trkpt lat="37.6282431" lon="127.0554988"></trkpt>
   <trkpt lat="37.6281739" lon="127.0555604"></trkpt>
   <trkpt lat="37.6281559" lon="127.0555673"></trkpt>
   <trkpt lat="37.6281559" lon="127.0555673"></trkpt>
   <trkpt lat="37.6281297" lon="127.0555369"></trkpt>
   <trkpt lat="37.6280934" lon="127.0554781"></trkpt>
   <trkpt lat="37.6271676" lon="127.0540047"></trkpt>
   <trkpt lat="37.6271331" lon="127.0539506"></trkpt>
   <trkpt lat="37.6270723" lon="127.0538523"></trkpt>
   <trkpt lat="37.6264059" lon="127.0527933"></trkpt>
   <trkpt lat="37.626317" lon="127.0526533"></trkpt>
   <trkpt lat="37.6259634" lon="127.0521035"></trkpt>
   <trkpt lat="37.6258817" lon="127.051959"></trkpt>
   <trkpt lat="37.6258817" lon="127.051959"></trkpt>
   <trkpt lat="37.6258436" lon="127.0519003"></trkpt>
   <trkpt lat="37.6257738" lon="127.0517896"></trkpt>
   <trkpt lat="37.6257738" lon="127.0517896"></trkpt>
   <trkpt lat="37.6257656" lon="127.0517761"></trkpt>
   <trkpt lat="37.625752" lon="127.0517546"></trkpt>
   <trkpt lat="37.625296" lon="127.0510502"></trkpt>
   <trkpt lat="37.6251527" lon="127.050829"></trkpt>
   <trkpt lat="37.6250521" lon="127.0506789"></trkpt>
   <trkpt lat="37.6247884" lon="127.050311"></trkpt>
   <trkpt lat="37.6247667" lon="127.0502749"></trkpt>
   <trkpt lat="37.6247557" lon="127.0502364"></trkpt>
   <trkpt lat="37.6247556" lon="127.0502058"></trkpt>
   <trkpt lat="37.6247556" lon="127.0502058"></trkpt>
   <trkpt lat="37.6246698" lon="127.0501531"></trkpt>
   <trkpt lat="37.6246173" lon="127.0501205"></trkpt>
   <trkpt lat="37.6246173" lon="127.0501205"></trkpt>
   <trkpt lat="37.6244097" lon="127.0497852"></trkpt>
   <trkpt lat="37.6243852" lon="127.0497435"></trkpt>
   <trkpt lat="37.6243725" lon="127.0497231"></trkpt>
   <trkpt lat="37.6243643" lon="127.049696"></trkpt>
   <trkpt lat="37.6243587" lon="127.0496598"></trkpt>
   <trkpt lat="37.6243587" lon="127.0496598"></trkpt>
   <trkpt lat="37.6243604" lon="127.0496246"></trkpt>
   <trkpt lat="37.6243684" lon="127.0496008"></trkpt>
   <trkpt lat="37.6244106" lon="127.0495608"></trkpt>
   <trkpt lat="37.6247025" lon="127.0492837"></trkpt>
   <trkpt lat="37.6257005" lon="127.0483994"></trkpt>
   <trkpt lat="37.6266464" lon="127.0475619"></trkpt>
   <trkpt lat="37.6267874" lon="127.0474318"></trkpt>
   <trkpt lat="37.6268673" lon="127.0473486"></trkpt>
   <trkpt lat="37.6271179" lon="127.0471069"></trkpt>
   <trkpt lat="37.6272766" lon="127.0469042"></trkpt>
   <trkpt lat="37.6273626" lon="127.0467586"></trkpt>
   <trkpt lat="37.6275728" lon="127.0463471"></trkpt>
   <trkpt lat="37.6278806" lon="127.0457446"></trkpt>
   <trkpt lat="37.6282382" lon="127.0449967"></trkpt>
   <trkpt lat="37.6284121" lon="127.0447372"></trkpt>
   <trkpt lat="37.6286729" lon="127.0443458"></trkpt>
   <trkpt lat="37.6287652" lon="127.044207"></trkpt>
   <trkpt lat="37.6289015" lon="127.0440339"></trkpt>
   <trkpt lat="37.6289419" lon="127.0439872"></trkpt>
   <trkpt lat="37.6296347" lon="127.0432214"></trkpt>
   <trkpt lat="37.6300017" lon="127.0427964"></trkpt>
   <trkpt lat="37.6300941" lon="127.0426621"></trkpt>
   <trkpt lat="37.630146" lon="127.0425858"></trkpt>
   <trkpt lat="37.6305796" lon="127.0418907"></trkpt>
   <trkpt lat="37.6306333" lon="127.0418054"></trkpt>
   <trkpt lat="37.630696" lon="127.0416996"></trkpt>
   <trkpt lat="37.630696" lon="127.0416996"></trkpt>
   <trkpt lat="37.6307293" lon="127.0416745"></trkpt>
   <trkpt lat="37.6307518" lon="127.0416664"></trkpt>
   <trkpt lat="37.6307761" lon="127.0416674"></trkpt>
   <trkpt lat="37.630832" lon="127.0416761"></trkpt>
   <trkpt lat="37.6313597" lon="127.0417624"></trkpt>
   <trkpt lat="37.631384" lon="127.0417645"></trkpt>
   <trkpt lat="37.6313904" lon="127.0417758"></trkpt>
   <trkpt lat="37.6313958" lon="127.0417883"></trkpt>
   <trkpt lat="37.6313986" lon="127.0418086"></trkpt>
   <trkpt lat="37.6313924" lon="127.0418268"></trkpt>
   <trkpt lat="37.6313924" lon="127.0418268"></trkpt>
   <trkpt lat="37.6314349" lon="127.041864"></trkpt>
   <trkpt lat="37.6314774" lon="127.0419034"></trkpt>
   <trkpt lat="37.6314774" lon="127.0419034"></trkpt>
   <trkpt lat="37.6315653" lon="127.0418042"></trkpt>
   <trkpt lat="37.6315653" lon="127.0418042"></trkpt>
   <trkpt lat="37.632176" lon="127.042383"></trkpt>
   <trkpt lat="37.632176" lon="127.042383"></trkpt>
   <trkpt lat="37.6325321" lon="127.0421746"></trkpt>
   <trkpt lat="37.6328657" lon="127.0419798"></trkpt>
   <trkpt lat="37.6332973" lon="127.041712"></trkpt>
   <trkpt lat="37.6332973" lon="127.041712"></trkpt>
   <trkpt lat="37.6328657" lon="127.0419798"></trkpt>
   <trkpt lat="37.6325321" lon="127.0421746"></trkpt>
   <trkpt lat="37.632176" lon="127.042383"></trkpt>
   <trkpt lat="37.632176" lon="127.042383"></trkpt>
   <trkpt lat="37.632308" lon="127.0424989"></trkpt>
   <trkpt lat="37.6323579" lon="127.0425746"></trkpt>
   <trkpt lat="37.6324244" lon="127.0427498"></trkpt>
   <trkpt lat="37.6324244" lon="127.0427498"></trkpt>
   <trkpt lat="37.6322077" lon="127.0428996"></trkpt>
   <trkpt lat="37.6318912" lon="127.0430999"></trkpt>
   <trkpt lat="37.6315243" lon="127.0433243"></trkpt>
   <trkpt lat="37.6314327" lon="127.0433872"></trkpt>
   <trkpt lat="37.6313749" lon="127.0433762"></trkpt>
   <trkpt lat="37.6313453" lon="127.0433956"></trkpt>
   <trkpt lat="37.6312958" lon="127.0434367"></trkpt>
   <trkpt lat="37.6312465" lon="127.0434869"></trkpt>
   <trkpt lat="37.6312071" lon="127.0435631"></trkpt>
   <trkpt lat="37.6311691" lon="127.0437548"></trkpt>
   <trkpt lat="37.6311453" lon="127.0438898"></trkpt>
   <trkpt lat="37.6311275" lon="127.0439568"></trkpt>
   <trkpt lat="37.6310076" lon="127.0441865"></trkpt>
   <trkpt lat="37.6310076" lon="127.0441865"></trkpt>
   <trkpt lat="37.6309732" lon="127.0441561"></trkpt>
   <trkpt lat="37.6309398" lon="127.0441223"></trkpt>
   <trkpt lat="37.6308405" lon="127.0438577"></trkpt>
   <trkpt lat="37.6306758" lon="127.0439244"></trkpt>
   <trkpt lat="37.6306758" lon="127.0439244"></trkpt>
   <trkpt lat="37.6307523" lon="127.044137"></trkpt>
   <trkpt lat="37.6307479" lon="127.0441563"></trkpt>
   <trkpt lat="37.6305788" lon="127.0442571"></trkpt>
   <trkpt lat="37.6305051" lon="127.044304"></trkpt>
   <trkpt lat="37.6305051" lon="127.044304"></trkpt>
   <trkpt lat="37.6305106" lon="127.0443165"></trkpt>
  </trkseg>
 </trk>
</gpx>
