<?xml version="1.0" encoding="UTF-8"?>
<gpx creator="daengrun-naver-route" version="1.1" xmlns="http://www.topografix.com/GPX/1/1" xmlns:xsi="http://www.w3.org/2001/XMLSchema-instance" xsi:schemaLocation="http://www.topografix.com/GPX/1/1 http://www.topografix.com/GPX/1/1/gpx.xsd">
 <metadata>
  <name>노원 한글비근린공원·등나무근린공원 루프 2.13km</name>
  <desc>daengrun candidate geometry — measured 2.13km via Naver pedestrian router (o=flat, 계단회피). Elevation NOT available from this source. stairs=0 crosswalk=6 steppingstone=0 underpass=0 overpass=0</desc>
  <link href="naver:1eknhdt"><text>daengrun route id</text></link>
  <copyright author="NAVER Corp."><license>https://map.naver.com/</license></copyright>
 </metadata>
 <trk>
  <name>노원 한글비근린공원·등나무근린공원 루프 2.13km</name>
  <trkseg>
   <trkpt lat="37.6437699" lon="127.0706725"></trkpt>
   <trkpt lat="37.6437655" lon="127.070711"></trkpt>
   <trkpt lat="37.6436198" lon="127.0707878"></trkpt>
   <trkpt lat="37.6436198" lon="127.0707878"></trkpt>
   <trkpt lat="37.6437249" lon="127.0711874"></trkpt>
   <trkpt lat="37.643716" lon="127.0712373"></trkpt>
   <trkpt lat="37.6434947" lon="127.0713315"></trkpt>
   <trkpt lat="37.643339" lon="127.0713981"></trkpt>
   <trkpt lat="37.6432814" lon="127.0714211"></trkpt>
   <trkpt lat="37.6431131" lon="127.0714901"></trkpt>
   <trkpt lat="37.6430692" lon="127.0715754"></trkpt>
   <trkpt lat="37.6430692" lon="127.0715754"></trkpt>
   <trkpt lat="37.643091" lon="127.0716274"></trkpt>
   <trkpt lat="37.6431082" lon="127.0716432"></trkpt>
   <trkpt lat="37.643129" lon="127.0716533"></trkpt>
   <trkpt lat="37.6431614" lon="127.0716508"></trkpt>
   <trkpt lat="37.6432127" lon="127.0716301"></trkpt>
   <trkpt lat="37.6432127" lon="127.0716301"></trkpt>
   <trkpt lat="37.6432565" lon="127.0717625"></trkpt>
   <trkpt lat="37.6432975" lon="127.0718915"></trkpt>
   <trkpt lat="37.6432975" lon="127.0718915"></trkpt>
   <trkpt lat="37.6432733" lon="127.0719279"></trkpt>
   <trkpt lat="37.6432618" lon="127.0719812"></trkpt>
   <trkpt lat="37.6437033" lon="127.0729467"></trkpt>
   <trkpt lat="37.6441387" lon="127.0739462"></trkpt>
   <trkpt lat="37.6442159" lon="127.074109"></trkpt>
   <trkpt lat="37.6443285" lon="127.0743555"></trkpt>
   <trkpt lat="37.6443285" lon="127.0743555"></trkpt>
   <trkpt lat="37.6443744" lon="127.0743224"></trkpt>
   <trkpt lat="37.6444859" lon="127.0742684"></trkpt>
   <trkpt lat="37.6445094" lon="127.0742626"></trkpt>
   <trkpt lat="37.6445709" lon="127.0743292"></trkpt>
   <trkpt lat="37.644626" lon="127.0743731"></trkpt>
   <trkpt lat="37.6446937" lon="127.0743988"></trkpt>
   <trkpt lat="37.6446937" lon="127.0743988"></trkpt>
   <trkpt lat="37.6447699" lon="127.0742872"></trkpt>
   <trkpt lat="37.6447699" lon="127.0742872"></trkpt>
   <trkpt lat="37.6446937" lon="127.0743988"></trkpt>
   <trkpt lat="37.6446937" lon="127.0743988"></trkpt>
   <trkpt lat="37.644626" lon="127.0743731"></trkpt>
   <trkpt lat="37.6445709" lon="127.0743292"></trkpt>
   <trkpt lat="37.6445094" lon="127.0742626"></trkpt>
   <trkpt lat="37.6444859" lon="127.0742684"></trkpt>
   <trkpt lat="37.6443744" lon="127.0743224"></trkpt>
   <trkpt lat="37.6443285" lon="127.0743555"></trkpt>
   <trkpt lat="37.6443285" lon="127.0743555"></trkpt>
   <trkpt lat="37.6442159" lon="127.074109"></trkpt>
   <trkpt lat="37.6441387" lon="127.0739462"></trkpt>
   <trkpt lat="37.6437033" lon="127.0729467"></trkpt>
   <trkpt lat="37.6432618" lon="127.0719812"></trkpt>
   <trkpt lat="37.6432733" lon="127.0719279"></trkpt>
   <trkpt lat="37.6432975" lon="127.0718915"></trkpt>
   <trkpt lat="37.6432975" lon="127.0718915"></trkpt>
   <trkpt lat="37.6432565" lon="127.0717625"></trkpt>
   <trkpt lat="37.6432127" lon="127.0716301"></trkpt>
   <trkpt lat="37.6432127" lon="127.0716301"></trkpt>
   <trkpt lat="37.6431614" lon="127.0716508"></trkpt>
   <trkpt lat="37.643129" lon="127.0716533"></trkpt>
   <trkpt lat="37.6431082" lon="127.0716432"></trkpt>
   <trkpt lat="37.643091" lon="127.0716274"></trkpt>
   <trkpt lat="37.6430692" lon="127.0715754"></trkpt>
   <trkpt lat="37.6426322" lon="127.0706348"></trkpt>
   <trkpt lat="37.6425341" lon="127.0704121"></trkpt>
   <trkpt lat="37.6424158" lon="127.0701147"></trkpt>
   <trkpt lat="37.6423228" lon="127.0698205"></trkpt>
   <trkpt lat="37.6421557" lon="127.069223"></trkpt>
   <trkpt lat="37.6419886" lon="127.0686402"></trkpt>
   <trkpt lat="37.6419347" lon="127.0684399"></trkpt>
   <trkpt lat="37.6419219" lon="127.0683821"></trkpt>
   <trkpt lat="37.6419236" lon="127.0683538"></trkpt>
   <trkpt lat="37.6419236" lon="127.0683538"></trkpt>
   <trkpt lat="37.6416932" lon="127.0682055"></trkpt>
   <trkpt lat="37.6416932" lon="127.0682055"></trkpt>
   <trkpt lat="37.6416976" lon="127.0681692"></trkpt>
   <trkpt lat="37.641682" lon="127.0681149"></trkpt>
   <trkpt lat="37.6415233" lon="127.0675808"></trkpt>
   <trkpt lat="37.6415087" lon="127.0675389"></trkpt>
   <trkpt lat="37.6414852" lon="127.0675119"></trkpt>
   <trkpt lat="37.6414581" lon="127.0675086"></trkpt>
   <trkpt lat="37.6413825" lon="127.0675385"></trkpt>
   <trkpt lat="37.6413825" lon="127.0675385"></trkpt>
   <trkpt lat="37.6413497" lon="127.0674435"></trkpt>
   <trkpt lat="37.6413278" lon="127.0673824"></trkpt>
   <trkpt lat="37.6413278" lon="127.0673824"></trkpt>
   <trkpt lat="37.6410759" lon="127.0674882"></trkpt>
   <trkpt lat="37.6408869" lon="127.0675675"></trkpt>
   <trkpt lat="37.6403479" lon="127.0678211"></trkpt>
   <trkpt lat="37.6403299" lon="127.0678291"></trkpt>
   <trkpt lat="37.6403299" lon="127.0678291"></trkpt>
   <trkpt lat="37.6403244" lon="127.0678054"></trkpt>
   <trkpt lat="37.6402988" lon="127.0677024"></trkpt>
   <trkpt lat="37.6401609" lon="127.0672101"></trkpt>
   <trkpt lat="37.6401609" lon="127.0672101"></trkpt>
   <trkpt lat="37.6402988" lon="127.0677024"></trkpt>
   <trkpt lat="37.6403244" lon="127.0678054"></trkpt>
   <trkpt lat="37.6403299" lon="127.0678291"></trkpt>
   <trkpt lat="37.6403299" lon="127.0678291"></trkpt>
   <trkpt lat="37.6403479" lon="127.0678211"></trkpt>
   <trkpt lat="37.6408869" lon="127.0675675"></trkpt>
   <trkpt lat="37.6410759" lon="127.0674882"></trkpt>
   <trkpt lat="37.6413278" lon="127.0673824"></trkpt>
   <trkpt lat="37.6413278" lon="127.0673824"></trkpt>
   <trkpt lat="37.6413497" lon="127.0674435"></trkpt>
   <trkpt lat="37.6413825" lon="127.0675385"></trkpt>
   <trkpt lat="37.6413825" lon="127.0675385"></trkpt>
   <trkpt lat="37.6414581" lon="127.0675086"></trkpt>
   <trkpt lat="37.6414852" lon="127.0675119"></trkpt>
   <trkpt lat="37.6415087" lon="127.0675389"></trkpt>
   <trkpt lat="37.6415233" lon="127.0675808"></trkpt>
   <trkpt lat="37.641682" lon="127.0681149"></trkpt>
   <trkpt lat="37.6416976" lon="127.0681692"></trkpt>
   <trkpt lat="37.6416932" lon="127.0682055"></trkpt>
   <trkpt lat="37.6416932" lon="127.0682055"></trkpt>
   <trkpt lat="37.6419236" lon="127.0683538"></trkpt>
   <trkpt lat="37.6419236" lon="127.0683538"></trkpt>
   <trkpt lat="37.6419219" lon="127.0683821"></trkpt>
   <trkpt lat="37.6419347" lon="127.0684399"></trkpt>
   <trkpt lat="37.6419886" lon="127.0686402"></trkpt>
   <trkpt lat="37.6421557" lon="127.069223"></trkpt>
   <trkpt lat="37.6423228" lon="127.0698205"></trkpt>
   <trkpt lat="37.6424158" lon="127.0701147"></trkpt>
   <trkpt lat="37.6425341" lon="127.0704121"></trkpt>
   <trkpt lat="37.6426322" lon="127.0706348"></trkpt>
   <trkpt lat="37.6426322" lon="127.0706348"></trkpt>
   <trkpt lat="37.643013" lon="127.0704921"></trkpt>
   <trkpt lat="37.6431408" lon="127.0704562"></trkpt>
   <trkpt lat="37.643481" lon="127.0703114"></trkpt>
   <trkpt lat="37.643481" lon="127.0703114"></trkpt>
   <trkpt lat="37.643513" lon="127.0704314"></trkpt>
   <trkpt lat="37.643513" lon="127.0704314"></trkpt>
   <trkpt lat="37.6436615" lon="127.0703693"></trkpt>
   <trkpt lat="37.6436868" lon="127.0703816"></trkpt>
   <trkpt lat="37.6437443" lon="127.0705865"></trkpt>
   <trkpt lat="37.643769" lon="127.0706725"></trkpt>
   <trkpt lat="37.6437699" lon="127.0706725"></trkpt>
  </trkseg>
 </trk>
</gpx>
