<?xml version="1.0" encoding="UTF-8"?>
<gpx creator="StravaGPX" version="1.1" xmlns="http://www.topografix.com/GPX/1/1" xmlns:xsi="http://www.w3.org/2001/XMLSchema-instance" xsi:schemaLocation="http://www.topografix.com/GPX/1/1 http://www.topografix.com/GPX/1/1/gpx.xsd">
 <metadata>
  <name>도곡 매봉산 양재천 루프 7.66km</name>
  <desc>daengrun candidate geometry — measured 7.66km, gain 71</desc>
  <author>
   <name>S Kim</name>
   <link href="https://www.strava.com/athletes/558867461"/>
  </author>
  <copyright author="OpenStreetMap contributors">
   <year>2020</year>
   <license>https://www.openstreetmap.org/copyright</license>
  </copyright>
  <link href="https://www.strava.com/routes/3523230401769556678"/>
 </metadata>
 <trk>
  <name>도곡 매봉산 양재천 루프 7.66km</name>
  <desc>daengrun candidate geometry — measured 7.66km, gain 71</desc>
  <link href="https://www.strava.com/routes/3523230401769556678"/>
  <type>running</type>
  <trkseg>
   <trkpt lat="37.492960000000004" lon="127.04896000000001">
    <ele>48.43</ele>
   </trkpt>
   <trkpt lat="37.492920000000005" lon="127.04899">
    <ele>48.34</ele>
   </trkpt>
   <trkpt lat="37.492850000000004" lon="127.04912000000002">
    <ele>47.93000000000001</ele>
   </trkpt>
   <trkpt lat="37.49286" lon="127.04926">
    <ele>47.830000000000005</ele>
   </trkpt>
   <trkpt lat="37.492920000000005" lon="127.04936000000001">
    <ele>47.510000000000005</ele>
   </trkpt>
   <trkpt lat="37.492990000000006" lon="127.04941000000001">
    <ele>47.510000000000005</ele>
   </trkpt>
   <trkpt lat="37.49313" lon="127.04934000000002">
    <ele>46.99</ele>
   </trkpt>
   <trkpt lat="37.493210000000005" lon="127.04920000000001">
    <ele>47.00000000000001</ele>
   </trkpt>
   <trkpt lat="37.49333" lon="127.04916000000001">
    <ele>46.99</ele>
   </trkpt>
   <trkpt lat="37.493950000000005" lon="127.04880000000001">
    <ele>38.11000000000001</ele>
   </trkpt>
   <trkpt lat="37.49419" lon="127.04873">
    <ele>35.980000000000004</ele>
   </trkpt>
   <trkpt lat="37.494780000000006" lon="127.04845000000002">
    <ele>31.86</ele>
   </trkpt>
   <trkpt lat="37.49450000288893" lon="127.04762499696734">
    <ele>33.06</ele>
   </trkpt>
   <trkpt lat="37.494220000000006" lon="127.0468">
    <ele>35.14</ele>
   </trkpt>
   <trkpt lat="37.4936900003876" lon="127.04706000179469">
    <ele>37.09</ele>
   </trkpt>
   <trkpt lat="37.49316" lon="127.04732000000001">
    <ele>38.45</ele>
   </trkpt>
   <trkpt lat="37.492705000372204" lon="127.04760500171751">
    <ele>38.38</ele>
   </trkpt>
   <trkpt lat="37.492250000000006" lon="127.04789000000001">
    <ele>37.2</ele>
   </trkpt>
   <trkpt lat="37.49173500020771" lon="127.04818500212515">
    <ele>35.24</ele>
   </trkpt>
   <trkpt lat="37.491220000000006" lon="127.04848000000001">
    <ele>33.59</ele>
   </trkpt>
   <trkpt lat="37.49070000037515" lon="127.04877500204896">
    <ele>31.93</ele>
   </trkpt>
   <trkpt lat="37.49018" lon="127.04907000000001">
    <ele>30.250000000000004</ele>
   </trkpt>
   <trkpt lat="37.48953500036949" lon="127.04936000249731">
    <ele>26.38</ele>
   </trkpt>
   <trkpt lat="37.488890000000005" lon="127.04965000000001">
    <ele>22.250000000000004</ele>
   </trkpt>
   <trkpt lat="37.488490000000006" lon="127.04987000000001">
    <ele>20.740000000000002</ele>
   </trkpt>
   <trkpt lat="37.48814500235454" lon="127.04911499640882">
    <ele>20.52</ele>
   </trkpt>
   <trkpt lat="37.4878" lon="127.04836000000002">
    <ele>20.580000000000002</ele>
   </trkpt>
   <trkpt lat="37.487455006765735" lon="127.0476274898139">
    <ele>20.950000000000003</ele>
   </trkpt>
   <trkpt lat="37.487110009009136" lon="127.04689498639355">
    <ele>21.34</ele>
   </trkpt>
   <trkpt lat="37.48676500673029" lon="127.04616248973892">
    <ele>21.71</ele>
   </trkpt>
   <trkpt lat="37.48642" lon="127.04543000000001">
    <ele>22.410000000000004</ele>
   </trkpt>
   <trkpt lat="37.486270000000005" lon="127.04547000000001">
    <ele>22.36</ele>
   </trkpt>
   <trkpt lat="37.4859" lon="127.04570000000001">
    <ele>22.7</ele>
   </trkpt>
   <trkpt lat="37.48563" lon="127.04592000000001">
    <ele>22.490000000000002</ele>
   </trkpt>
   <trkpt lat="37.48519500052713" lon="127.04623500175519">
    <ele>22.480000000000004</ele>
   </trkpt>
   <trkpt lat="37.48476" lon="127.04655000000001">
    <ele>22.71</ele>
   </trkpt>
   <trkpt lat="37.48449" lon="127.04673000000001">
    <ele>22.6</ele>
   </trkpt>
   <trkpt lat="37.48386500084987" lon="127.04719500393553">
    <ele>22.21</ele>
   </trkpt>
   <trkpt lat="37.48324" lon="127.04766000000001">
    <ele>21.630000000000003</ele>
   </trkpt>
   <trkpt lat="37.48335" lon="127.04786000000001">
    <ele>21.900000000000002</ele>
   </trkpt>
   <trkpt lat="37.48315" lon="127.04805">
    <ele>24.720000000000002</ele>
   </trkpt>
   <trkpt lat="37.48273000609889" lon="127.04735498826733">
    <ele>24.740000000000002</ele>
   </trkpt>
   <trkpt lat="37.482310008126774" lon="127.04665998434825">
    <ele>24.93</ele>
   </trkpt>
   <trkpt lat="37.48189000608377" lon="127.04596498824264">
    <ele>24.92</ele>
   </trkpt>
   <trkpt lat="37.48147" lon="127.04527000000002">
    <ele>25.130000000000003</ele>
   </trkpt>
   <trkpt lat="37.4812" lon="127.04488">
    <ele>25.39</ele>
   </trkpt>
   <trkpt lat="37.48082" lon="127.04438">
    <ele>25.640000000000004</ele>
   </trkpt>
   <trkpt lat="37.48037" lon="127.04389">
    <ele>26.26</ele>
   </trkpt>
   <trkpt lat="37.48077" lon="127.04466000000001">
    <ele>18.13</ele>
   </trkpt>
   <trkpt lat="37.48033" lon="127.04422000000001">
    <ele>18.13</ele>
   </trkpt>
   <trkpt lat="37.479780000000005" lon="127.04378000000001">
    <ele>18.430000000000003</ele>
   </trkpt>
   <trkpt lat="37.47940000021143" lon="127.04344999810698">
    <ele>18.63</ele>
   </trkpt>
   <trkpt lat="37.479020000000006" lon="127.04312000000002">
    <ele>18.950000000000003</ele>
   </trkpt>
   <trkpt lat="37.478345001566744" lon="127.04251499455704">
    <ele>18.660000000000004</ele>
   </trkpt>
   <trkpt lat="37.47767" lon="127.04191000000002">
    <ele>19.380000000000003</ele>
   </trkpt>
   <trkpt lat="37.47724500065801" lon="127.04153999796642">
    <ele>18.930000000000003</ele>
   </trkpt>
   <trkpt lat="37.476820000000004" lon="127.04117000000001">
    <ele>19.180000000000003</ele>
   </trkpt>
   <trkpt lat="37.47668" lon="127.0412">
    <ele>19.12</ele>
   </trkpt>
   <trkpt lat="37.476510000000005" lon="127.04113000000001">
    <ele>19.180000000000003</ele>
   </trkpt>
   <trkpt lat="37.476350000000004" lon="127.04101000000001">
    <ele>19.71</ele>
   </trkpt>
   <trkpt lat="37.47617" lon="127.04132000000001">
    <ele>19.49</ele>
   </trkpt>
   <trkpt lat="37.47587" lon="127.04103">
    <ele>19.470000000000002</ele>
   </trkpt>
   <trkpt lat="37.475370000000005" lon="127.04065000000001">
    <ele>20.610000000000003</ele>
   </trkpt>
   <trkpt lat="37.475280000000005" lon="127.04061000000002">
    <ele>20.830000000000002</ele>
   </trkpt>
   <trkpt lat="37.47498" lon="127.04032000000001">
    <ele>21.36</ele>
   </trkpt>
   <trkpt lat="37.474830000000004" lon="127.04015000000001">
    <ele>21.36</ele>
   </trkpt>
   <trkpt lat="37.47428" lon="127.03926000000001">
    <ele>21.7</ele>
   </trkpt>
   <trkpt lat="37.4741" lon="127.03893000000001">
    <ele>21.68</ele>
   </trkpt>
   <trkpt lat="37.4741" lon="127.03892">
    <ele>21.68</ele>
   </trkpt>
   <trkpt lat="37.47428" lon="127.03926000000001">
    <ele>21.7</ele>
   </trkpt>
   <trkpt lat="37.474830000000004" lon="127.04015000000001">
    <ele>21.36</ele>
   </trkpt>
   <trkpt lat="37.47498" lon="127.04032000000001">
    <ele>21.36</ele>
   </trkpt>
   <trkpt lat="37.475280000000005" lon="127.04061000000002">
    <ele>20.830000000000002</ele>
   </trkpt>
   <trkpt lat="37.475370000000005" lon="127.04065000000001">
    <ele>20.610000000000003</ele>
   </trkpt>
   <trkpt lat="37.47587" lon="127.04103">
    <ele>19.470000000000002</ele>
   </trkpt>
   <trkpt lat="37.47617" lon="127.04132000000001">
    <ele>19.49</ele>
   </trkpt>
   <trkpt lat="37.47668" lon="127.04177000000001">
    <ele>19.41</ele>
   </trkpt>
   <trkpt lat="37.47715000081381" lon="127.04214499781808">
    <ele>19.040000000000003</ele>
   </trkpt>
   <trkpt lat="37.47762" lon="127.04252000000001">
    <ele>18.9</ele>
   </trkpt>
   <trkpt lat="37.478100000814536" lon="127.04294999726973">
    <ele>18.76</ele>
   </trkpt>
   <trkpt lat="37.47858" lon="127.04338000000001">
    <ele>18.63</ele>
   </trkpt>
   <trkpt lat="37.47917" lon="127.04387000000001">
    <ele>18.410000000000004</ele>
   </trkpt>
   <trkpt lat="37.479420000000005" lon="127.04345">
    <ele>18.590000000000003</ele>
   </trkpt>
   <trkpt lat="37.479780000000005" lon="127.04378000000001">
    <ele>18.430000000000003</ele>
   </trkpt>
   <trkpt lat="37.48033" lon="127.04422000000001">
    <ele>18.13</ele>
   </trkpt>
   <trkpt lat="37.48077" lon="127.04466000000001">
    <ele>18.13</ele>
   </trkpt>
   <trkpt lat="37.48037" lon="127.04389">
    <ele>26.26</ele>
   </trkpt>
   <trkpt lat="37.48082" lon="127.04438">
    <ele>25.640000000000004</ele>
   </trkpt>
   <trkpt lat="37.4812" lon="127.04488">
    <ele>25.39</ele>
   </trkpt>
   <trkpt lat="37.48147" lon="127.04527000000002">
    <ele>25.130000000000003</ele>
   </trkpt>
   <trkpt lat="37.48189000611377" lon="127.04596498829225">
    <ele>24.92</ele>
   </trkpt>
   <trkpt lat="37.482310008156766" lon="127.04665998439786">
    <ele>24.93</ele>
   </trkpt>
   <trkpt lat="37.482730006128875" lon="127.04735498831694">
    <ele>24.740000000000002</ele>
   </trkpt>
   <trkpt lat="37.48315" lon="127.04805">
    <ele>24.0</ele>
   </trkpt>
   <trkpt lat="37.48335" lon="127.04786000000001">
    <ele>21.62</ele>
   </trkpt>
   <trkpt lat="37.48324" lon="127.04766000000001">
    <ele>21.630000000000003</ele>
   </trkpt>
   <trkpt lat="37.48386500097249" lon="127.04719500384428">
    <ele>22.21</ele>
   </trkpt>
   <trkpt lat="37.48449" lon="127.04673000000001">
    <ele>22.6</ele>
   </trkpt>
   <trkpt lat="37.48476" lon="127.04655000000001">
    <ele>22.71</ele>
   </trkpt>
   <trkpt lat="37.48519500030913" lon="127.04623500191305">
    <ele>22.480000000000004</ele>
   </trkpt>
   <trkpt lat="37.48563" lon="127.04592000000001">
    <ele>22.490000000000002</ele>
   </trkpt>
   <trkpt lat="37.4859" lon="127.04570000000001">
    <ele>22.7</ele>
   </trkpt>
   <trkpt lat="37.486270000000005" lon="127.04547000000001">
    <ele>22.36</ele>
   </trkpt>
   <trkpt lat="37.48642" lon="127.04543000000001">
    <ele>22.410000000000004</ele>
   </trkpt>
   <trkpt lat="37.48674500203754" lon="127.04612499698077">
    <ele>21.71</ele>
   </trkpt>
   <trkpt lat="37.48707" lon="127.04682000000001">
    <ele>21.16</ele>
   </trkpt>
   <trkpt lat="37.487680000000005" lon="127.04638000000001">
    <ele>22.11</ele>
   </trkpt>
   <trkpt lat="37.487930000000006" lon="127.04615000000001">
    <ele>22.78</ele>
   </trkpt>
   <trkpt lat="37.48809" lon="127.04627">
    <ele>22.2</ele>
   </trkpt>
   <trkpt lat="37.488310000000006" lon="127.04627">
    <ele>21.970000000000002</ele>
   </trkpt>
   <trkpt lat="37.488420000000005" lon="127.04624000000001">
    <ele>21.970000000000002</ele>
   </trkpt>
   <trkpt lat="37.48847" lon="127.04623000000001">
    <ele>26.990000000000002</ele>
   </trkpt>
   <trkpt lat="37.48856" lon="127.04610000000001">
    <ele>26.990000000000002</ele>
   </trkpt>
   <trkpt lat="37.488730000000004" lon="127.04615000000001">
    <ele>26.990000000000002</ele>
   </trkpt>
   <trkpt lat="37.48912" lon="127.04616000000001">
    <ele>32.0</ele>
   </trkpt>
   <trkpt lat="37.489230000000006" lon="127.04609">
    <ele>31.62</ele>
   </trkpt>
   <trkpt lat="37.48931" lon="127.04598000000001">
    <ele>31.740000000000002</ele>
   </trkpt>
   <trkpt lat="37.48942" lon="127.04593000000001">
    <ele>32.14</ele>
   </trkpt>
   <trkpt lat="37.48931" lon="127.04598000000001">
    <ele>31.740000000000002</ele>
   </trkpt>
   <trkpt lat="37.489230000000006" lon="127.04609">
    <ele>31.740000000000002</ele>
   </trkpt>
   <trkpt lat="37.48912" lon="127.04616000000001">
    <ele>32.93</ele>
   </trkpt>
   <trkpt lat="37.488730000000004" lon="127.04615000000001">
    <ele>26.990000000000002</ele>
   </trkpt>
   <trkpt lat="37.48856" lon="127.04610000000001">
    <ele>26.990000000000002</ele>
   </trkpt>
   <trkpt lat="37.48847" lon="127.04623000000001">
    <ele>21.970000000000002</ele>
   </trkpt>
   <trkpt lat="37.488420000000005" lon="127.04624000000001">
    <ele>21.970000000000002</ele>
   </trkpt>
   <trkpt lat="37.488310000000006" lon="127.04627">
    <ele>21.970000000000002</ele>
   </trkpt>
   <trkpt lat="37.48809" lon="127.04627">
    <ele>22.2</ele>
   </trkpt>
   <trkpt lat="37.487930000000006" lon="127.04615000000001">
    <ele>22.78</ele>
   </trkpt>
   <trkpt lat="37.487680000000005" lon="127.04638000000001">
    <ele>22.11</ele>
   </trkpt>
   <trkpt lat="37.48707" lon="127.04682000000001">
    <ele>21.34</ele>
   </trkpt>
   <trkpt lat="37.48743500253778" lon="127.0475899963205">
    <ele>20.950000000000003</ele>
   </trkpt>
   <trkpt lat="37.4878" lon="127.04836000000002">
    <ele>20.580000000000002</ele>
   </trkpt>
   <trkpt lat="37.488145002449855" lon="127.04911499661742">
    <ele>20.52</ele>
   </trkpt>
   <trkpt lat="37.488490000000006" lon="127.04987000000001">
    <ele>21.210000000000004</ele>
   </trkpt>
   <trkpt lat="37.488890000000005" lon="127.04965000000001">
    <ele>22.250000000000004</ele>
   </trkpt>
   <trkpt lat="37.48953500033934" lon="127.04936000251091">
    <ele>26.38</ele>
   </trkpt>
   <trkpt lat="37.49018" lon="127.04907000000001">
    <ele>30.250000000000004</ele>
   </trkpt>
   <trkpt lat="37.490870001311876" lon="127.04867667392921">
    <ele>32.32</ele>
   </trkpt>
   <trkpt lat="37.49156000131979" lon="127.04828334059147">
    <ele>34.260000000000005</ele>
   </trkpt>
   <trkpt lat="37.492250000000006" lon="127.04789000000001">
    <ele>37.2</ele>
   </trkpt>
   <trkpt lat="37.49270500031242" lon="127.04760500175493">
    <ele>38.38</ele>
   </trkpt>
   <trkpt lat="37.49316" lon="127.04732000000001">
    <ele>38.45</ele>
   </trkpt>
   <trkpt lat="37.4936900001822" lon="127.04706000189546">
    <ele>37.09</ele>
   </trkpt>
   <trkpt lat="37.494220000000006" lon="127.0468">
    <ele>35.14</ele>
   </trkpt>
   <trkpt lat="37.494500002847964" lon="127.04762499684662">
    <ele>33.06</ele>
   </trkpt>
   <trkpt lat="37.494780000000006" lon="127.04845000000002">
    <ele>31.86</ele>
   </trkpt>
   <trkpt lat="37.49419" lon="127.04873">
    <ele>35.980000000000004</ele>
   </trkpt>
   <trkpt lat="37.493950000000005" lon="127.04880000000001">
    <ele>38.11000000000001</ele>
   </trkpt>
   <trkpt lat="37.49333" lon="127.04916000000001">
    <ele>46.99</ele>
   </trkpt>
   <trkpt lat="37.493210000000005" lon="127.04920000000001">
    <ele>47.00000000000001</ele>
   </trkpt>
   <trkpt lat="37.49313" lon="127.04934000000002">
    <ele>46.99</ele>
   </trkpt>
   <trkpt lat="37.492990000000006" lon="127.04941000000001">
    <ele>47.510000000000005</ele>
   </trkpt>
   <trkpt lat="37.492920000000005" lon="127.04936000000001">
    <ele>47.510000000000005</ele>
   </trkpt>
   <trkpt lat="37.49286" lon="127.04926">
    <ele>47.830000000000005</ele>
   </trkpt>
   <trkpt lat="37.492850000000004" lon="127.04912000000002">
    <ele>48.050000000000004</ele>
   </trkpt>
   <trkpt lat="37.492920000000005" lon="127.04899">
    <ele>48.45</ele>
   </trkpt>
   <trkpt lat="37.492960000000004" lon="127.04895">
    <ele>48.45</ele>
   </trkpt>
  </trkseg>
 </trk>
</gpx>
