<?xml version="1.0" encoding="UTF-8"?>
<gpx creator="daengrun-naver-route" version="1.1" xmlns="http://www.topografix.com/GPX/1/1" xmlns:xsi="http://www.w3.org/2001/XMLSchema-instance" xsi:schemaLocation="http://www.topografix.com/GPX/1/1 http://www.topografix.com/GPX/1/1/gpx.xsd">
 <metadata>
  <name>도봉 초안산 숲속 공원·느티울근린공원 루프 3.98km</name>
  <desc>daengrun candidate geometry — measured 3.98km via Naver pedestrian router (o=flat, 계단회피). Elevation NOT available from this source. stairs=0 crosswalk=10 steppingstone=0 underpass=2 overpass=0</desc>
  <link href="naver:vawk57"><text>daengrun route id</text></link>
  <copyright author="NAVER Corp."><license>https://map.naver.com/</license></copyright>
 </metadata>
 <trk>
  <name>도봉 초안산 숲속 공원·느티울근린공원 루프 3.98km</name>
  <trkseg>
   <trkpt lat="37.6470582" lon="127.0542146"></trkpt>
   <trkpt lat="37.6470542" lon="127.0538836"></trkpt>
   <trkpt lat="37.6470474" lon="127.0530267"></trkpt>
   <trkpt lat="37.6470474" lon="127.0530267"></trkpt>
   <trkpt lat="37.6468671" lon="127.0530289"></trkpt>
   <trkpt lat="37.6466382" lon="127.0530212"></trkpt>
   <trkpt lat="37.6463262" lon="127.0529992"></trkpt>
   <trkpt lat="37.6463262" lon="127.0529992"></trkpt>
   <trkpt lat="37.6463364" lon="127.0528201"></trkpt>
   <trkpt lat="37.6463364" lon="127.0528201"></trkpt>
   <trkpt lat="37.6463057" lon="127.0528169"></trkpt>
   <trkpt lat="37.6462832" lon="127.0528136"></trkpt>
   <trkpt lat="37.646257" lon="127.0528069"></trkpt>
   <trkpt lat="37.6462326" lon="127.0527912"></trkpt>
   <trkpt lat="37.6462181" lon="127.0527675"></trkpt>
   <trkpt lat="37.6462144" lon="127.0527347"></trkpt>
   <trkpt lat="37.646246" lon="127.0525202"></trkpt>
   <trkpt lat="37.6462683" lon="127.0522265"></trkpt>
   <trkpt lat="37.646264" lon="127.0520542"></trkpt>
   <trkpt lat="37.6462482" lon="127.0519047"></trkpt>
   <trkpt lat="37.6461578" lon="127.0513747"></trkpt>
   <trkpt lat="37.6460821" lon="127.0511383"></trkpt>
   <trkpt lat="37.646063" lon="127.0510885"></trkpt>
   <trkpt lat="37.6460431" lon="127.0510818"></trkpt>
   <trkpt lat="37.6460161" lon="127.0510843"></trkpt>
   <trkpt lat="37.6459859" lon="127.0509745"></trkpt>
   <trkpt lat="37.6459706" lon="127.0509814"></trkpt>
   <trkpt lat="37.6457574" lon="127.0510779"></trkpt>
   <trkpt lat="37.6457574" lon="127.0510779"></trkpt>
   <trkpt lat="37.6457409" lon="127.0510111"></trkpt>
   <trkpt lat="37.6457256" lon="127.051018"></trkpt>
   <trkpt lat="37.6457092" lon="127.050958"></trkpt>
   <trkpt lat="37.6456836" lon="127.0508595"></trkpt>
   <trkpt lat="37.6457186" lon="127.0508435"></trkpt>
   <trkpt lat="37.6456903" lon="127.050736"></trkpt>
   <trkpt lat="37.6456903" lon="127.050736"></trkpt>
   <trkpt lat="37.6457011" lon="127.0507268"></trkpt>
   <trkpt lat="37.6457011" lon="127.0507268"></trkpt>
   <trkpt lat="37.6456783" lon="127.0506714"></trkpt>
   <trkpt lat="37.6456783" lon="127.0506714"></trkpt>
   <trkpt lat="37.6456954" lon="127.0506577"></trkpt>
   <trkpt lat="37.6457089" lon="127.0506406"></trkpt>
   <trkpt lat="37.645707" lon="127.0506191"></trkpt>
   <trkpt lat="37.6456613" lon="127.0504527"></trkpt>
   <trkpt lat="37.6456503" lon="127.050412"></trkpt>
   <trkpt lat="37.645537" lon="127.0500103"></trkpt>
   <trkpt lat="37.6453737" lon="127.0492665"></trkpt>
   <trkpt lat="37.6453618" lon="127.0492133"></trkpt>
   <trkpt lat="37.6453288" lon="127.0490673"></trkpt>
   <trkpt lat="37.6452251" lon="127.0485805"></trkpt>
   <trkpt lat="37.6451922" lon="127.0484639"></trkpt>
   <trkpt lat="37.6451922" lon="127.0484639"></trkpt>
   <trkpt lat="37.6448286" lon="127.0486067"></trkpt>
   <trkpt lat="37.6447071" lon="127.0486539"></trkpt>
   <trkpt lat="37.6447071" lon="127.0486539"></trkpt>
   <trkpt lat="37.644741" lon="127.0487965"></trkpt>
   <trkpt lat="37.6447876" lon="127.0489629"></trkpt>
   <trkpt lat="37.6447876" lon="127.0489629"></trkpt>
   <trkpt lat="37.644741" lon="127.0487965"></trkpt>
   <trkpt lat="37.6447071" lon="127.0486539"></trkpt>
   <trkpt lat="37.6447071" lon="127.0486539"></trkpt>
   <trkpt lat="37.6448286" lon="127.0486067"></trkpt>
   <trkpt lat="37.6451922" lon="127.0484639"></trkpt>
   <trkpt lat="37.6451922" lon="127.0484639"></trkpt>
   <trkpt lat="37.6452251" lon="127.0485805"></trkpt>
   <trkpt lat="37.6453288" lon="127.0490673"></trkpt>
   <trkpt lat="37.6453618" lon="127.0492133"></trkpt>
   <trkpt lat="37.6453737" lon="127.0492665"></trkpt>
   <trkpt lat="37.645537" lon="127.0500103"></trkpt>
   <trkpt lat="37.6456503" lon="127.050412"></trkpt>
   <trkpt lat="37.6456613" lon="127.0504527"></trkpt>
   <trkpt lat="37.645707" lon="127.0506191"></trkpt>
   <trkpt lat="37.6457089" lon="127.0506406"></trkpt>
   <trkpt lat="37.6456954" lon="127.0506577"></trkpt>
   <trkpt lat="37.6456783" lon="127.0506714"></trkpt>
   <trkpt lat="37.6456783" lon="127.0506714"></trkpt>
   <trkpt lat="37.6457011" lon="127.0507268"></trkpt>
   <trkpt lat="37.6457011" lon="127.0507268"></trkpt>
   <trkpt lat="37.6456903" lon="127.050736"></trkpt>
   <trkpt lat="37.6456903" lon="127.050736"></trkpt>
   <trkpt lat="37.6457186" lon="127.0508435"></trkpt>
   <trkpt lat="37.6456836" lon="127.0508595"></trkpt>
   <trkpt lat="37.6457092" lon="127.050958"></trkpt>
   <trkpt lat="37.6457256" lon="127.051018"></trkpt>
   <trkpt lat="37.6457409" lon="127.0510111"></trkpt>
   <trkpt lat="37.6457574" lon="127.0510779"></trkpt>
   <trkpt lat="37.6457574" lon="127.0510779"></trkpt>
   <trkpt lat="37.6459706" lon="127.0509814"></trkpt>
   <trkpt lat="37.6459859" lon="127.0509745"></trkpt>
   <trkpt lat="37.6460161" lon="127.0510843"></trkpt>
   <trkpt lat="37.6460431" lon="127.0510818"></trkpt>
   <trkpt lat="37.646063" lon="127.0510885"></trkpt>
   <trkpt lat="37.6460821" lon="127.0511383"></trkpt>
   <trkpt lat="37.6461578" lon="127.0513747"></trkpt>
   <trkpt lat="37.6462482" lon="127.0519047"></trkpt>
   <trkpt lat="37.646264" lon="127.0520542"></trkpt>
   <trkpt lat="37.6462683" lon="127.0522265"></trkpt>
   <trkpt lat="37.646246" lon="127.0525202"></trkpt>
   <trkpt lat="37.6462144" lon="127.0527347"></trkpt>
   <trkpt lat="37.6462181" lon="127.0527675"></trkpt>
   <trkpt lat="37.6462326" lon="127.0527912"></trkpt>
   <trkpt lat="37.646257" lon="127.0528069"></trkpt>
   <trkpt lat="37.6462832" lon="127.0528136"></trkpt>
   <trkpt lat="37.6463057" lon="127.0528169"></trkpt>
   <trkpt lat="37.6463364" lon="127.0528201"></trkpt>
   <trkpt lat="37.6463364" lon="127.0528201"></trkpt>
   <trkpt lat="37.6463262" lon="127.0529992"></trkpt>
   <trkpt lat="37.6463262" lon="127.0529992"></trkpt>
   <trkpt lat="37.6462297" lon="127.0529873"></trkpt>
   <trkpt lat="37.646209" lon="127.0529999"></trkpt>
   <trkpt lat="37.646201" lon="127.0530057"></trkpt>
   <trkpt lat="37.6461821" lon="127.0530262"></trkpt>
   <trkpt lat="37.6461554" lon="127.0531136"></trkpt>
   <trkpt lat="37.6460089" lon="127.05418"></trkpt>
   <trkpt lat="37.6459627" lon="127.054585"></trkpt>
   <trkpt lat="37.6459818" lon="127.0546404"></trkpt>
   <trkpt lat="37.6460108" lon="127.0546674"></trkpt>
   <trkpt lat="37.6460414" lon="127.0546775"></trkpt>
   <trkpt lat="37.6460414" lon="127.0546775"></trkpt>
   <trkpt lat="37.6460356" lon="127.0547977"></trkpt>
   <trkpt lat="37.6460307" lon="127.0549416"></trkpt>
   <trkpt lat="37.6460307" lon="127.0549416"></trkpt>
   <trkpt lat="37.6459695" lon="127.0549499"></trkpt>
   <trkpt lat="37.6459227" lon="127.0549808"></trkpt>
   <trkpt lat="37.6458994" lon="127.0550263"></trkpt>
   <trkpt lat="37.6458879" lon="127.0550717"></trkpt>
   <trkpt lat="37.6457248" lon="127.0562879"></trkpt>
   <trkpt lat="37.6457144" lon="127.0563786"></trkpt>
   <trkpt lat="37.6456898" lon="127.0565578"></trkpt>
   <trkpt lat="37.6456963" lon="127.05661"></trkpt>
   <trkpt lat="37.6457227" lon="127.0566914"></trkpt>
   <trkpt lat="37.6457227" lon="127.0566914"></trkpt>
   <trkpt lat="37.6457111" lon="127.0567073"></trkpt>
   <trkpt lat="37.6456462" lon="127.0571884"></trkpt>
   <trkpt lat="37.6456527" lon="127.0572518"></trkpt>
   <trkpt lat="37.6456657" lon="127.0573322"></trkpt>
   <trkpt lat="37.6456657" lon="127.0573322"></trkpt>
   <trkpt lat="37.6456208" lon="127.0573846"></trkpt>
   <trkpt lat="37.6455726" lon="127.0575221"></trkpt>
   <trkpt lat="37.6454379" lon="127.0583594"></trkpt>
   <trkpt lat="37.6454141" lon="127.0585148"></trkpt>
   <trkpt lat="37.6453114" lon="127.0592489"></trkpt>
   <trkpt lat="37.6452562" lon="127.0596663"></trkpt>
   <trkpt lat="37.6452167" lon="127.0599669"></trkpt>
   <trkpt lat="37.6452167" lon="127.0599669"></trkpt>
   <trkpt lat="37.6453566" lon="127.0600024"></trkpt>
   <trkpt lat="37.6459276" lon="127.0601214"></trkpt>
   <trkpt lat="37.6459582" lon="127.0601303"></trkpt>
   <trkpt lat="37.6460789" lon="127.0601058"></trkpt>
   <trkpt lat="37.6464219" lon="127.0599791"></trkpt>
   <trkpt lat="37.6467054" lon="127.0598765"></trkpt>
   <trkpt lat="37.6469764" lon="127.059782"></trkpt>
   <trkpt lat="37.6471231" lon="127.0597279"></trkpt>
   <trkpt lat="37.6472689" lon="127.0596748"></trkpt>
   <trkpt lat="37.6474858" lon="127.0595987"></trkpt>
   <trkpt lat="37.6480088" lon="127.0594154"></trkpt>
   <trkpt lat="37.6482663" lon="127.0593232"></trkpt>
   <trkpt lat="37.6482607" lon="127.059296"></trkpt>
   <trkpt lat="37.648247" lon="127.0592258"></trkpt>
   <trkpt lat="37.648247" lon="127.0592258"></trkpt>
   <trkpt lat="37.6482902" lon="127.0592097"></trkpt>
   <trkpt lat="37.648382" lon="127.0591752"></trkpt>
   <trkpt lat="37.648382" lon="127.0591752"></trkpt>
   <trkpt lat="37.6484104" lon="127.0592997"></trkpt>
   <trkpt lat="37.6484311" lon="127.059286"></trkpt>
   <trkpt lat="37.6493851" lon="127.0589221"></trkpt>
   <trkpt lat="37.6493851" lon="127.0589221"></trkpt>
   <trkpt lat="37.6492788" lon="127.0584591"></trkpt>
   <trkpt lat="37.6492788" lon="127.0584591"></trkpt>
   <trkpt lat="37.6493832" lon="127.0584177"></trkpt>
   <trkpt lat="37.6494191" lon="127.0583653"></trkpt>
   <trkpt lat="37.649452" lon="127.0582484"></trkpt>
   <trkpt lat="37.649452" lon="127.0582484"></trkpt>
   <trkpt lat="37.6493842" lon="127.0581898"></trkpt>
   <trkpt lat="37.6493207" lon="127.0580916"></trkpt>
   <trkpt lat="37.6493207" lon="127.0580916"></trkpt>
   <trkpt lat="37.6493842" lon="127.0581898"></trkpt>
   <trkpt lat="37.649452" lon="127.0582484"></trkpt>
   <trkpt lat="37.649452" lon="127.0582484"></trkpt>
   <trkpt lat="37.6494191" lon="127.0583653"></trkpt>
   <trkpt lat="37.6493832" lon="127.0584177"></trkpt>
   <trkpt lat="37.6492788" lon="127.0584591"></trkpt>
   <trkpt lat="37.6492788" lon="127.0584591"></trkpt>
   <trkpt lat="37.6493851" lon="127.0589221"></trkpt>
   <trkpt lat="37.6493851" lon="127.0589221"></trkpt>
   <trkpt lat="37.6484311" lon="127.059286"></trkpt>
   <trkpt lat="37.6484104" lon="127.0592997"></trkpt>
   <trkpt lat="37.648382" lon="127.0591752"></trkpt>
   <trkpt lat="37.648382" lon="127.0591752"></trkpt>
   <trkpt lat="37.6482902" lon="127.0592097"></trkpt>
   <trkpt lat="37.648247" lon="127.0592258"></trkpt>
   <trkpt lat="37.648247" lon="127.0592258"></trkpt>
   <trkpt lat="37.6482607" lon="127.059296"></trkpt>
   <trkpt lat="37.6482663" lon="127.0593232"></trkpt>
   <trkpt lat="37.6480088" lon="127.0594154"></trkpt>
   <trkpt lat="37.6474858" lon="127.0595987"></trkpt>
   <trkpt lat="37.6472689" lon="127.0596748"></trkpt>
   <trkpt lat="37.6471231" lon="127.0597279"></trkpt>
   <trkpt lat="37.6469764" lon="127.059782"></trkpt>
   <trkpt lat="37.6467054" lon="127.0598765"></trkpt>
   <trkpt lat="37.6464219" lon="127.0599791"></trkpt>
   <trkpt lat="37.6460789" lon="127.0601058"></trkpt>
   <trkpt lat="37.6459582" lon="127.0601303"></trkpt>
   <trkpt lat="37.6459276" lon="127.0601214"></trkpt>
   <trkpt lat="37.6453566" lon="127.0600024"></trkpt>
   <trkpt lat="37.6452167" lon="127.0599669"></trkpt>
   <trkpt lat="37.6452167" lon="127.0599669"></trkpt>
   <trkpt lat="37.6452562" lon="127.0596663"></trkpt>
   <trkpt lat="37.6453114" lon="127.0592489"></trkpt>
   <trkpt lat="37.6454141" lon="127.0585148"></trkpt>
   <trkpt lat="37.6454379" lon="127.0583594"></trkpt>
   <trkpt lat="37.6455726" lon="127.0575221"></trkpt>
   <trkpt lat="37.6456208" lon="127.0573846"></trkpt>
   <trkpt lat="37.6456657" lon="127.0573322"></trkpt>
   <trkpt lat="37.6456657" lon="127.0573322"></trkpt>
   <trkpt lat="37.6456527" lon="127.0572518"></trkpt>
   <trkpt lat="37.6456462" lon="127.0571884"></trkpt>
   <trkpt lat="37.6457111" lon="127.0567073"></trkpt>
   <trkpt lat="37.6457227" lon="127.0566914"></trkpt>
   <trkpt lat="37.6457227" lon="127.0566914"></trkpt>
   <trkpt lat="37.6456963" lon="127.05661"></trkpt>
   <trkpt lat="37.6456898" lon="127.0565578"></trkpt>
   <trkpt lat="37.6457144" lon="127.0563786"></trkpt>
   <trkpt lat="37.6457248" lon="127.0562879"></trkpt>
   <trkpt lat="37.6458879" lon="127.0550717"></trkpt>
   <trkpt lat="37.6458994" lon="127.0550263"></trkpt>
   <trkpt lat="37.6459227" lon="127.0549808"></trkpt>
   <trkpt lat="37.6459695" lon="127.0549499"></trkpt>
   <trkpt lat="37.6460307" lon="127.0549416"></trkpt>
   <trkpt lat="37.6460307" lon="127.0549416"></trkpt>
   <trkpt lat="37.6460356" lon="127.0547977"></trkpt>
   <trkpt lat="37.6460414" lon="127.0546775"></trkpt>
   <trkpt lat="37.6460414" lon="127.0546775"></trkpt>
   <trkpt lat="37.6460108" lon="127.0546674"></trkpt>
   <trkpt lat="37.6459818" lon="127.0546404"></trkpt>
   <trkpt lat="37.6459627" lon="127.054585"></trkpt>
   <trkpt lat="37.6460089" lon="127.05418"></trkpt>
   <trkpt lat="37.6461554" lon="127.0531136"></trkpt>
   <trkpt lat="37.6461821" lon="127.0530262"></trkpt>
   <trkpt lat="37.646201" lon="127.0530057"></trkpt>
   <trkpt lat="37.646209" lon="127.0529999"></trkpt>
   <trkpt lat="37.6462297" lon="127.0529873"></trkpt>
   <trkpt lat="37.6462297" lon="127.0529873"></trkpt>
   <trkpt lat="37.6463262" lon="127.0529992"></trkpt>
   <trkpt lat="37.6466382" lon="127.0530212"></trkpt>
   <trkpt lat="37.6468671" lon="127.0530289"></trkpt>
   <trkpt lat="37.6470474" lon="127.0530267"></trkpt>
   <trkpt lat="37.6470474" lon="127.0530267"></trkpt>
   <trkpt lat="37.6470542" lon="127.0538836"></trkpt>
   <trkpt lat="37.6470582" lon="127.0542146"></trkpt>
  </trkseg>
 </trk>
</gpx>
