<?xml version="1.0" encoding="UTF-8"?>
<gpx creator="daengrun-naver-route" version="1.1" xmlns="http://www.topografix.com/GPX/1/1" xmlns:xsi="http://www.w3.org/2001/XMLSchema-instance" xsi:schemaLocation="http://www.topografix.com/GPX/1/1 http://www.topografix.com/GPX/1/1/gpx.xsd">
 <metadata>
  <name>도봉 우이천·발바닥공원 루프 3.85km</name>
  <desc>daengrun candidate geometry — measured 3.85km via Naver pedestrian router (o=flat, 계단회피). Elevation NOT available from this source. stairs=0 crosswalk=8 steppingstone=0 underpass=0 overpass=0</desc>
  <link href="naver:s8e3ts"><text>daengrun route id</text></link>
  <copyright author="NAVER Corp."><license>https://map.naver.com/</license></copyright>
 </metadata>
 <trk>
  <name>도봉 우이천·발바닥공원 루프 3.85km</name>
  <trkseg>
   <trkpt lat="37.6599111" lon="127.0250647"></trkpt>
   <trkpt lat="37.6599176" lon="127.0251281"></trkpt>
   <trkpt lat="37.6598819" lon="127.0252202"></trkpt>
   <trkpt lat="37.659801" lon="127.0252649"></trkpt>
   <trkpt lat="37.6596119" lon="127.0253058"></trkpt>
   <trkpt lat="37.6595831" lon="127.0253253"></trkpt>
   <trkpt lat="37.6595598" lon="127.0253537"></trkpt>
   <trkpt lat="37.6594998" lon="127.0254573"></trkpt>
   <trkpt lat="37.6594891" lon="127.0254846"></trkpt>
   <trkpt lat="37.6594875" lon="127.0255277"></trkpt>
   <trkpt lat="37.6594979" lon="127.0256569"></trkpt>
   <trkpt lat="37.6594979" lon="127.0256569"></trkpt>
   <trkpt lat="37.6593835" lon="127.0256746"></trkpt>
   <trkpt lat="37.6593287" lon="127.0257146"></trkpt>
   <trkpt lat="37.6592911" lon="127.0257704"></trkpt>
   <trkpt lat="37.6592464" lon="127.0258682"></trkpt>
   <trkpt lat="37.6590841" lon="127.0260778"></trkpt>
   <trkpt lat="37.6590841" lon="127.0260778"></trkpt>
   <trkpt lat="37.6589454" lon="127.0258883"></trkpt>
   <trkpt lat="37.6589454" lon="127.0258883"></trkpt>
   <trkpt lat="37.6586093" lon="127.0263541"></trkpt>
   <trkpt lat="37.658578" lon="127.0264053"></trkpt>
   <trkpt lat="37.658535" lon="127.0264725"></trkpt>
   <trkpt lat="37.658535" lon="127.0264725"></trkpt>
   <trkpt lat="37.6585103" lon="127.0263865"></trkpt>
   <trkpt lat="37.6584802" lon="127.0262903"></trkpt>
   <trkpt lat="37.6584802" lon="127.0262903"></trkpt>
   <trkpt lat="37.6584716" lon="127.0261747"></trkpt>
   <trkpt lat="37.6584436" lon="127.0252611"></trkpt>
   <trkpt lat="37.6584436" lon="127.0252611"></trkpt>
   <trkpt lat="37.6583877" lon="127.0252614"></trkpt>
   <trkpt lat="37.6583525" lon="127.0252628"></trkpt>
   <trkpt lat="37.6583525" lon="127.0252628"></trkpt>
   <trkpt lat="37.6583496" lon="127.0251982"></trkpt>
   <trkpt lat="37.6583495" lon="127.0251823"></trkpt>
   <trkpt lat="37.6578986" lon="127.0249029"></trkpt>
   <trkpt lat="37.6578652" lon="127.0248895"></trkpt>
   <trkpt lat="37.6576346" lon="127.0249068"></trkpt>
   <trkpt lat="37.6576346" lon="127.0249068"></trkpt>
   <trkpt lat="37.6576298" lon="127.0248491"></trkpt>
   <trkpt lat="37.6576288" lon="127.0248207"></trkpt>
   <trkpt lat="37.6576288" lon="127.0248207"></trkpt>
   <trkpt lat="37.6576219" lon="127.024687"></trkpt>
   <trkpt lat="37.6576119" lon="127.0244331"></trkpt>
   <trkpt lat="37.6575874" lon="127.0237077"></trkpt>
   <trkpt lat="37.6575843" lon="127.0236249"></trkpt>
   <trkpt lat="37.6575446" lon="127.0229404"></trkpt>
   <trkpt lat="37.6575379" lon="127.0228418"></trkpt>
   <trkpt lat="37.6575339" lon="127.0227557"></trkpt>
   <trkpt lat="37.657532" lon="127.0227239"></trkpt>
   <trkpt lat="37.6575289" lon="127.0226242"></trkpt>
   <trkpt lat="37.6574907" lon="127.0218841"></trkpt>
   <trkpt lat="37.6574814" lon="127.0215826"></trkpt>
   <trkpt lat="37.6574681" lon="127.0211984"></trkpt>
   <trkpt lat="37.6574473" lon="127.0202779"></trkpt>
   <trkpt lat="37.6574224" lon="127.0190525"></trkpt>
   <trkpt lat="37.6574171" lon="127.0186319"></trkpt>
   <trkpt lat="37.6574149" lon="127.0185254"></trkpt>
   <trkpt lat="37.6574127" lon="127.0184426"></trkpt>
   <trkpt lat="37.6574058" lon="127.0180697"></trkpt>
   <trkpt lat="37.6573914" lon="127.0174156"></trkpt>
   <trkpt lat="37.6573818" lon="127.0168375"></trkpt>
   <trkpt lat="37.657385" lon="127.0167354"></trkpt>
   <trkpt lat="37.6573945" lon="127.0166311"></trkpt>
   <trkpt lat="37.6574388" lon="127.0162192"></trkpt>
   <trkpt lat="37.6575349" lon="127.0156971"></trkpt>
   <trkpt lat="37.6575807" lon="127.0154315"></trkpt>
   <trkpt lat="37.6576204" lon="127.0152204"></trkpt>
   <trkpt lat="37.6577025" lon="127.0148015"></trkpt>
   <trkpt lat="37.6577025" lon="127.0148015"></trkpt>
   <trkpt lat="37.6575752" lon="127.0147661"></trkpt>
   <trkpt lat="37.6575752" lon="127.0147661"></trkpt>
   <trkpt lat="37.6575885" lon="127.0147002"></trkpt>
   <trkpt lat="37.6561203" lon="127.0145034"></trkpt>
   <trkpt lat="37.6561203" lon="127.0145034"></trkpt>
   <trkpt lat="37.6575885" lon="127.0147002"></trkpt>
   <trkpt lat="37.6575885" lon="127.0147002"></trkpt>
   <trkpt lat="37.6575752" lon="127.0147661"></trkpt>
   <trkpt lat="37.6575046" lon="127.0151134"></trkpt>
   <trkpt lat="37.6574922" lon="127.0151781"></trkpt>
   <trkpt lat="37.6574922" lon="127.0151781"></trkpt>
   <trkpt lat="37.6574834" lon="127.0152269"></trkpt>
   <trkpt lat="37.6574666" lon="127.0153064"></trkpt>
   <trkpt lat="37.6574666" lon="127.0153064"></trkpt>
   <trkpt lat="37.6574481" lon="127.0154018"></trkpt>
   <trkpt lat="37.6573932" lon="127.0156538"></trkpt>
   <trkpt lat="37.6572927" lon="127.0161907"></trkpt>
   <trkpt lat="37.657245" lon="127.0166638"></trkpt>
   <trkpt lat="37.6572426" lon="127.0167364"></trkpt>
   <trkpt lat="37.6572351" lon="127.0168883"></trkpt>
   <trkpt lat="37.6572383" lon="127.017437"></trkpt>
   <trkpt lat="37.6572508" lon="127.0180798"></trkpt>
   <trkpt lat="37.657256" lon="127.018455"></trkpt>
   <trkpt lat="37.6572572" lon="127.0185264"></trkpt>
   <trkpt lat="37.6572605" lon="127.0186749"></trkpt>
   <trkpt lat="37.6572702" lon="127.0190671"></trkpt>
   <trkpt lat="37.6572977" lon="127.0202868"></trkpt>
   <trkpt lat="37.6573215" lon="127.020832"></trkpt>
   <trkpt lat="37.6573627" lon="127.0218759"></trkpt>
   <trkpt lat="37.6573946" lon="127.0226375"></trkpt>
   <trkpt lat="37.6573968" lon="127.0227316"></trkpt>
   <trkpt lat="37.6573982" lon="127.0228393"></trkpt>
   <trkpt lat="37.6574058" lon="127.0229492"></trkpt>
   <trkpt lat="37.6574374" lon="127.0236349"></trkpt>
   <trkpt lat="37.6574378" lon="127.0237188"></trkpt>
   <trkpt lat="37.6574677" lon="127.0244454"></trkpt>
   <trkpt lat="37.6574814" lon="127.0246981"></trkpt>
   <trkpt lat="37.6574883" lon="127.0248579"></trkpt>
   <trkpt lat="37.657496" lon="127.024978"></trkpt>
   <trkpt lat="37.6575668" lon="127.0264423"></trkpt>
   <trkpt lat="37.6575717" lon="127.0265443"></trkpt>
   <trkpt lat="37.6576257" lon="127.027417"></trkpt>
   <trkpt lat="37.6576366" lon="127.0276561"></trkpt>
   <trkpt lat="37.6576366" lon="127.0276561"></trkpt>
   <trkpt lat="37.6577096" lon="127.0276545"></trkpt>
   <trkpt lat="37.6577826" lon="127.0276529"></trkpt>
   <trkpt lat="37.6577855" lon="127.0276983"></trkpt>
   <trkpt lat="37.6577945" lon="127.0277141"></trkpt>
   <trkpt lat="37.6578099" lon="127.027731"></trkpt>
   <trkpt lat="37.6578352" lon="127.0277433"></trkpt>
   <trkpt lat="37.6578704" lon="127.0277442"></trkpt>
   <trkpt lat="37.6578716" lon="127.0278179"></trkpt>
   <trkpt lat="37.6578746" lon="127.0278893"></trkpt>
   <trkpt lat="37.6578746" lon="127.0278893"></trkpt>
   <trkpt lat="37.6579178" lon="127.0278868"></trkpt>
   <trkpt lat="37.6585243" lon="127.0278489"></trkpt>
   <trkpt lat="37.6585243" lon="127.0278489"></trkpt>
   <trkpt lat="37.6586165" lon="127.0281499"></trkpt>
   <trkpt lat="37.6586913" lon="127.0283739"></trkpt>
   <trkpt lat="37.6587294" lon="127.0284383"></trkpt>
   <trkpt lat="37.6589263" lon="127.0287636"></trkpt>
   <trkpt lat="37.6591749" lon="127.0291747"></trkpt>
   <trkpt lat="37.6591804" lon="127.0291882"></trkpt>
   <trkpt lat="37.6592266" lon="127.0292605"></trkpt>
   <trkpt lat="37.6592539" lon="127.0293182"></trkpt>
   <trkpt lat="37.6592722" lon="127.0293793"></trkpt>
   <trkpt lat="37.6593399" lon="127.0294197"></trkpt>
   <trkpt lat="37.6593671" lon="127.0294444"></trkpt>
   <trkpt lat="37.6595354" lon="127.0298379"></trkpt>
   <trkpt lat="37.6596094" lon="127.030088"></trkpt>
   <trkpt lat="37.6596208" lon="127.0302274"></trkpt>
   <trkpt lat="37.6596076" lon="127.0303204"></trkpt>
   <trkpt lat="37.6595872" lon="127.0304056"></trkpt>
   <trkpt lat="37.6595757" lon="127.0304419"></trkpt>
   <trkpt lat="37.6595757" lon="127.0304419"></trkpt>
   <trkpt lat="37.6595872" lon="127.0304056"></trkpt>
   <trkpt lat="37.6596076" lon="127.0303204"></trkpt>
   <trkpt lat="37.6596208" lon="127.0302274"></trkpt>
   <trkpt lat="37.6596094" lon="127.030088"></trkpt>
   <trkpt lat="37.6595354" lon="127.0298379"></trkpt>
   <trkpt lat="37.6595354" lon="127.0298379"></trkpt>
   <trkpt lat="37.6597656" lon="127.0297117"></trkpt>
   <trkpt lat="37.6597656" lon="127.0297117"></trkpt>
   <trkpt lat="37.6596645" lon="127.0294471"></trkpt>
   <trkpt lat="37.6596561" lon="127.0293678"></trkpt>
   <trkpt lat="37.6596379" lon="127.0293135"></trkpt>
   <trkpt lat="37.65958" lon="127.0292639"></trkpt>
   <trkpt lat="37.6595437" lon="127.0291984"></trkpt>
   <trkpt lat="37.6594957" lon="127.0291568"></trkpt>
   <trkpt lat="37.6594398" lon="127.0291515"></trkpt>
   <trkpt lat="37.6594154" lon="127.0291221"></trkpt>
   <trkpt lat="37.659388" lon="127.0290327"></trkpt>
   <trkpt lat="37.659368" lon="127.0290011"></trkpt>
   <trkpt lat="37.65931" lon="127.0289301"></trkpt>
   <trkpt lat="37.6592918" lon="127.0288837"></trkpt>
   <trkpt lat="37.6592807" lon="127.0288055"></trkpt>
   <trkpt lat="37.6592713" lon="127.0287092"></trkpt>
   <trkpt lat="37.6592221" lon="127.0285837"></trkpt>
   <trkpt lat="37.6591929" lon="127.028475"></trkpt>
   <trkpt lat="37.6591563" lon="127.0283528"></trkpt>
   <trkpt lat="37.659108" lon="127.0282239"></trkpt>
   <trkpt lat="37.6589492" lon="127.0279494"></trkpt>
   <trkpt lat="37.6588984" lon="127.0278749"></trkpt>
   <trkpt lat="37.6588984" lon="127.0278749"></trkpt>
   <trkpt lat="37.6590391" lon="127.0278808"></trkpt>
   <trkpt lat="37.6590391" lon="127.0278808"></trkpt>
   <trkpt lat="37.6590387" lon="127.0277958"></trkpt>
   <trkpt lat="37.6590357" lon="127.0277062"></trkpt>
   <trkpt lat="37.6590357" lon="127.0277062"></trkpt>
   <trkpt lat="37.6588617" lon="127.0277005"></trkpt>
   <trkpt lat="37.6588617" lon="127.0277005"></trkpt>
   <trkpt lat="37.6588658" lon="127.0275996"></trkpt>
   <trkpt lat="37.6588003" lon="127.027015"></trkpt>
   <trkpt lat="37.6587573" lon="127.0266298"></trkpt>
   <trkpt lat="37.6587562" lon="127.0265765"></trkpt>
   <trkpt lat="37.6587552" lon="127.0265516"></trkpt>
   <trkpt lat="37.6587729" lon="127.0264789"></trkpt>
   <trkpt lat="37.6590841" lon="127.0260778"></trkpt>
   <trkpt lat="37.6592464" lon="127.0258682"></trkpt>
   <trkpt lat="37.6592911" lon="127.0257704"></trkpt>
   <trkpt lat="37.6593287" lon="127.0257146"></trkpt>
   <trkpt lat="37.6593835" lon="127.0256746"></trkpt>
   <trkpt lat="37.6594979" lon="127.0256569"></trkpt>
   <trkpt lat="37.6594979" lon="127.0256569"></trkpt>
   <trkpt lat="37.6594875" lon="127.0255277"></trkpt>
   <trkpt lat="37.6594891" lon="127.0254846"></trkpt>
   <trkpt lat="37.6594998" lon="127.0254573"></trkpt>
   <trkpt lat="37.6595598" lon="127.0253537"></trkpt>
   <trkpt lat="37.6595831" lon="127.0253253"></trkpt>
   <trkpt lat="37.6596119" lon="127.0253058"></trkpt>
   <trkpt lat="37.659801" lon="127.0252649"></trkpt>
   <trkpt lat="37.6598819" lon="127.0252202"></trkpt>
   <trkpt lat="37.6599176" lon="127.0251281"></trkpt>
   <trkpt lat="37.6599111" lon="127.0250647"></trkpt>
  </trkseg>
 </trk>
</gpx>
