<?xml version="1.0" encoding="UTF-8"?>
<gpx creator="StravaGPX" version="1.1" xmlns="http://www.topografix.com/GPX/1/1" xmlns:xsi="http://www.w3.org/2001/XMLSchema-instance" xsi:schemaLocation="http://www.topografix.com/GPX/1/1 http://www.topografix.com/GPX/1/1/gpx.xsd">
 <metadata>
  <name>도봉 중랑천 방학 루프 5.69km</name>
  <desc>daengrun candidate geometry — measured 5.69km, gain 22</desc>
  <author>
   <name>S Kim</name>
   <link href="https://www.strava.com/athletes/558867461"/>
  </author>
  <copyright author="OpenStreetMap contributors">
   <year>2020</year>
   <license>https://www.openstreetmap.org/copyright</license>
  </copyright>
  <link href="https://www.strava.com/routes/3525322826679326372"/>
 </metadata>
 <trk>
  <name>도봉 중랑천 방학 루프 5.69km</name>
  <desc>daengrun candidate geometry — measured 5.69km, gain 22</desc>
  <link href="https://www.strava.com/routes/3525322826679326372"/>
  <type>running</type>
  <trkseg>
   <trkpt lat="37.66404" lon="127.03912000000001">
    <ele>33.17</ele>
   </trkpt>
   <trkpt lat="37.663340000000005" lon="127.03912000000001">
    <ele>32.510000000000005</ele>
   </trkpt>
   <trkpt lat="37.66333" lon="127.03921000000001">
    <ele>32.120000000000005</ele>
   </trkpt>
   <trkpt lat="37.66299" lon="127.03921000000001">
    <ele>32.64</ele>
   </trkpt>
   <trkpt lat="37.662995002468364" lon="127.03844500033843">
    <ele>33.120000000000005</ele>
   </trkpt>
   <trkpt lat="37.663000000000004" lon="127.03768000000001">
    <ele>33.6</ele>
   </trkpt>
   <trkpt lat="37.66299" lon="127.03755000000001">
    <ele>33.72</ele>
   </trkpt>
   <trkpt lat="37.662760000000006" lon="127.03756000000001">
    <ele>34.07</ele>
   </trkpt>
   <trkpt lat="37.66275" lon="127.03753">
    <ele>34.15</ele>
   </trkpt>
   <trkpt lat="37.662580000000005" lon="127.03756000000001">
    <ele>34.1</ele>
   </trkpt>
   <trkpt lat="37.661930000000005" lon="127.03776">
    <ele>34.1</ele>
   </trkpt>
   <trkpt lat="37.661880000000004" lon="127.03781000000001">
    <ele>33.97</ele>
   </trkpt>
   <trkpt lat="37.661820000000006" lon="127.03783000000001">
    <ele>33.74</ele>
   </trkpt>
   <trkpt lat="37.66181" lon="127.03832000000001">
    <ele>32.330000000000005</ele>
   </trkpt>
   <trkpt lat="37.66172" lon="127.03829">
    <ele>32.31</ele>
   </trkpt>
   <trkpt lat="37.661710007998444" lon="127.03926333352122">
    <ele>32.050000000000004</ele>
   </trkpt>
   <trkpt lat="37.66170000799921" lon="127.04023666678027">
    <ele>32.0</ele>
   </trkpt>
   <trkpt lat="37.66169" lon="127.04121">
    <ele>31.880000000000006</ele>
   </trkpt>
   <trkpt lat="37.66169" lon="127.04160000000002">
    <ele>31.830000000000002</ele>
   </trkpt>
   <trkpt lat="37.66181" lon="127.04252000000001">
    <ele>31.19</ele>
   </trkpt>
   <trkpt lat="37.66195000413582" lon="127.04350999812473">
    <ele>31.180000000000003</ele>
   </trkpt>
   <trkpt lat="37.662090000000006" lon="127.04450000000001">
    <ele>30.650000000000002</ele>
   </trkpt>
   <trkpt lat="37.66214" lon="127.04495000000001">
    <ele>30.500000000000004</ele>
   </trkpt>
   <trkpt lat="37.66216" lon="127.04559">
    <ele>30.240000000000002</ele>
   </trkpt>
   <trkpt lat="37.66214" lon="127.04599">
    <ele>29.94</ele>
   </trkpt>
   <trkpt lat="37.662000000000006" lon="127.04655000000001">
    <ele>29.330000000000002</ele>
   </trkpt>
   <trkpt lat="37.66177333874991" lon="127.04735000483687">
    <ele>29.210000000000004</ele>
   </trkpt>
   <trkpt lat="37.66154667209698" lon="127.04815000478837">
    <ele>29.1</ele>
   </trkpt>
   <trkpt lat="37.66132" lon="127.04895">
    <ele>28.880000000000003</ele>
   </trkpt>
   <trkpt lat="37.66106000342467" lon="127.0498550032823">
    <ele>28.07</ele>
   </trkpt>
   <trkpt lat="37.6608" lon="127.05076000000001">
    <ele>27.32</ele>
   </trkpt>
   <trkpt lat="37.66071" lon="127.05092">
    <ele>26.97</ele>
   </trkpt>
   <trkpt lat="37.661370000000005" lon="127.05085000000001">
    <ele>27.44</ele>
   </trkpt>
   <trkpt lat="37.661730000000006" lon="127.05084000000001">
    <ele>27.590000000000003</ele>
   </trkpt>
   <trkpt lat="37.66214" lon="127.05087">
    <ele>27.770000000000003</ele>
   </trkpt>
   <trkpt lat="37.662150000000004" lon="127.05074">
    <ele>30.53</ele>
   </trkpt>
   <trkpt lat="37.66201" lon="127.05073000000002">
    <ele>33.57</ele>
   </trkpt>
   <trkpt lat="37.66194" lon="127.05140000000002">
    <ele>33.56</ele>
   </trkpt>
   <trkpt lat="37.661840000000005" lon="127.05223000000001">
    <ele>33.61</ele>
   </trkpt>
   <trkpt lat="37.661880000000004" lon="127.05225000000002">
    <ele>33.63</ele>
   </trkpt>
   <trkpt lat="37.66196" lon="127.05216000000001">
    <ele>32.59</ele>
   </trkpt>
   <trkpt lat="37.662470000000006" lon="127.05194000000002">
    <ele>27.76</ele>
   </trkpt>
   <trkpt lat="37.66235" lon="127.05196000000001">
    <ele>27.76</ele>
   </trkpt>
   <trkpt lat="37.66223" lon="127.052">
    <ele>27.650000000000002</ele>
   </trkpt>
   <trkpt lat="37.66155500008123" lon="127.05209500085776">
    <ele>27.48</ele>
   </trkpt>
   <trkpt lat="37.660880000000006" lon="127.05219000000001">
    <ele>27.500000000000004</ele>
   </trkpt>
   <trkpt lat="37.660410000000006" lon="127.05227000000001">
    <ele>27.560000000000002</ele>
   </trkpt>
   <trkpt lat="37.6601" lon="127.05236000000001">
    <ele>27.69</ele>
   </trkpt>
   <trkpt lat="37.65957" lon="127.05260000000001">
    <ele>27.55</ele>
   </trkpt>
   <trkpt lat="37.65894000056162" lon="127.05296500309773">
    <ele>27.26</ele>
   </trkpt>
   <trkpt lat="37.65831" lon="127.05333000000002">
    <ele>27.1</ele>
   </trkpt>
   <trkpt lat="37.65760666772352" lon="127.05368000661981">
    <ele>26.62</ele>
   </trkpt>
   <trkpt lat="37.65690333441291" lon="127.05403000660839">
    <ele>26.480000000000004</ele>
   </trkpt>
   <trkpt lat="37.656200000000005" lon="127.05438000000001">
    <ele>26.400000000000002</ele>
   </trkpt>
   <trkpt lat="37.65581" lon="127.05453000000001">
    <ele>26.37</ele>
   </trkpt>
   <trkpt lat="37.655590000000004" lon="127.05459">
    <ele>26.37</ele>
   </trkpt>
   <trkpt lat="37.65518" lon="127.05466000000001">
    <ele>26.29</ele>
   </trkpt>
   <trkpt lat="37.654450000000004" lon="127.05469000000001">
    <ele>26.310000000000002</ele>
   </trkpt>
   <trkpt lat="37.65439000000001" lon="127.05466000000001">
    <ele>26.310000000000002</ele>
   </trkpt>
   <trkpt lat="37.654300000000006" lon="127.05466000000001">
    <ele>26.230000000000004</ele>
   </trkpt>
   <trkpt lat="37.65419" lon="127.05470000000001">
    <ele>26.230000000000004</ele>
   </trkpt>
   <trkpt lat="37.653890000000004" lon="127.05472000000002">
    <ele>26.240000000000002</ele>
   </trkpt>
   <trkpt lat="37.653240000000004" lon="127.0549">
    <ele>31.03</ele>
   </trkpt>
   <trkpt lat="37.653200000000005" lon="127.05487000000001">
    <ele>31.090000000000003</ele>
   </trkpt>
   <trkpt lat="37.65314" lon="127.05419">
    <ele>31.01</ele>
   </trkpt>
   <trkpt lat="37.65314" lon="127.05418000000002">
    <ele>31.01</ele>
   </trkpt>
   <trkpt lat="37.65308" lon="127.05358000000001">
    <ele>31.37</ele>
   </trkpt>
   <trkpt lat="37.653090000000006" lon="127.05355000000002">
    <ele>31.37</ele>
   </trkpt>
   <trkpt lat="37.653110000000005" lon="127.05354000000001">
    <ele>31.37</ele>
   </trkpt>
   <trkpt lat="37.653110000000005" lon="127.05333000000002">
    <ele>31.330000000000002</ele>
   </trkpt>
   <trkpt lat="37.6529" lon="127.05337000000002">
    <ele>31.1</ele>
   </trkpt>
   <trkpt lat="37.65272" lon="127.05337000000002">
    <ele>31.26</ele>
   </trkpt>
   <trkpt lat="37.652770000000004" lon="127.05358000000001">
    <ele>31.070000000000004</ele>
   </trkpt>
   <trkpt lat="37.65241" lon="127.05361">
    <ele>26.860000000000003</ele>
   </trkpt>
   <trkpt lat="37.652350000000006" lon="127.05363000000001">
    <ele>26.860000000000003</ele>
   </trkpt>
   <trkpt lat="37.652260000000005" lon="127.05368000000001">
    <ele>26.070000000000004</ele>
   </trkpt>
   <trkpt lat="37.652240000000006" lon="127.05373000000002">
    <ele>26.04</ele>
   </trkpt>
   <trkpt lat="37.65291500001611" lon="127.0537100001814">
    <ele>26.340000000000003</ele>
   </trkpt>
   <trkpt lat="37.65359" lon="127.05369000000002">
    <ele>26.27</ele>
   </trkpt>
   <trkpt lat="37.65416500011177" lon="127.05371499981118">
    <ele>25.980000000000004</ele>
   </trkpt>
   <trkpt lat="37.654740000000004" lon="127.05374">
    <ele>26.140000000000004</ele>
   </trkpt>
   <trkpt lat="37.65493" lon="127.0537">
    <ele>25.970000000000002</ele>
   </trkpt>
   <trkpt lat="37.65534" lon="127.05357000000001">
    <ele>26.060000000000002</ele>
   </trkpt>
   <trkpt lat="37.65579499996376" lon="127.05345500072798">
    <ele>26.17</ele>
   </trkpt>
   <trkpt lat="37.65625" lon="127.05334">
    <ele>26.03</ele>
   </trkpt>
   <trkpt lat="37.65681" lon="127.05312">
    <ele>25.44</ele>
   </trkpt>
   <trkpt lat="37.657590000000006" lon="127.05256000000001">
    <ele>26.080000000000002</ele>
   </trkpt>
   <trkpt lat="37.65813" lon="127.05221000000002">
    <ele>26.13</ele>
   </trkpt>
   <trkpt lat="37.65871000023672" lon="127.05195500200874">
    <ele>26.03</ele>
   </trkpt>
   <trkpt lat="37.659290000000006" lon="127.05170000000001">
    <ele>26.050000000000004</ele>
   </trkpt>
   <trkpt lat="37.65984" lon="127.05139000000001">
    <ele>26.54</ele>
   </trkpt>
   <trkpt lat="37.66006" lon="127.05128">
    <ele>26.78</ele>
   </trkpt>
   <trkpt lat="37.66008" lon="127.05124">
    <ele>26.78</ele>
   </trkpt>
   <trkpt lat="37.66071" lon="127.05092">
    <ele>26.97</ele>
   </trkpt>
   <trkpt lat="37.6608" lon="127.05076000000001">
    <ele>27.32</ele>
   </trkpt>
   <trkpt lat="37.66106000348943" lon="127.04985500305692">
    <ele>28.07</ele>
   </trkpt>
   <trkpt lat="37.66132" lon="127.04895">
    <ele>28.880000000000003</ele>
   </trkpt>
   <trkpt lat="37.66154667205572" lon="127.04815000493394">
    <ele>29.1</ele>
   </trkpt>
   <trkpt lat="37.66177333870867" lon="127.04735000498246">
    <ele>29.290000000000003</ele>
   </trkpt>
   <trkpt lat="37.662000000000006" lon="127.04655000000001">
    <ele>29.330000000000002</ele>
   </trkpt>
   <trkpt lat="37.66214" lon="127.04599">
    <ele>29.94</ele>
   </trkpt>
   <trkpt lat="37.66216" lon="127.04559">
    <ele>30.240000000000002</ele>
   </trkpt>
   <trkpt lat="37.66214" lon="127.04495000000001">
    <ele>30.500000000000004</ele>
   </trkpt>
   <trkpt lat="37.66201" lon="127.04395000000001">
    <ele>31.000000000000004</ele>
   </trkpt>
   <trkpt lat="37.661970000000004" lon="127.04391000000001">
    <ele>31.43</ele>
   </trkpt>
   <trkpt lat="37.661950000000004" lon="127.04371">
    <ele>32.1</ele>
   </trkpt>
   <trkpt lat="37.661910000000006" lon="127.04369000000001">
    <ele>32.1</ele>
   </trkpt>
   <trkpt lat="37.661830001420554" lon="127.04310499919426">
    <ele>32.230000000000004</ele>
   </trkpt>
   <trkpt lat="37.661750000000005" lon="127.04252000000001">
    <ele>32.29</ele>
   </trkpt>
   <trkpt lat="37.661680000000004" lon="127.04234000000001">
    <ele>32.190000000000005</ele>
   </trkpt>
   <trkpt lat="37.66156" lon="127.04232">
    <ele>32.07</ele>
   </trkpt>
   <trkpt lat="37.6616" lon="127.04202000000001">
    <ele>31.810000000000006</ele>
   </trkpt>
   <trkpt lat="37.661680000000004" lon="127.04203000000001">
    <ele>31.900000000000006</ele>
   </trkpt>
   <trkpt lat="37.66165" lon="127.04163000000001">
    <ele>32.14</ele>
   </trkpt>
   <trkpt lat="37.661640000000006" lon="127.04089">
    <ele>32.470000000000006</ele>
   </trkpt>
   <trkpt lat="37.66217500009272" lon="127.04089999992968">
    <ele>33.050000000000004</ele>
   </trkpt>
   <trkpt lat="37.662710000000004" lon="127.04091000000001">
    <ele>32.330000000000005</ele>
   </trkpt>
   <trkpt lat="37.662940000000006" lon="127.04090000000001">
    <ele>32.120000000000005</ele>
   </trkpt>
   <trkpt lat="37.66296500301552" lon="127.04005500023027">
    <ele>32.35</ele>
   </trkpt>
   <trkpt lat="37.66299" lon="127.03921000000001">
    <ele>32.64</ele>
   </trkpt>
   <trkpt lat="37.66333" lon="127.03921000000001">
    <ele>32.120000000000005</ele>
   </trkpt>
   <trkpt lat="37.663340000000005" lon="127.03912000000001">
    <ele>32.510000000000005</ele>
   </trkpt>
   <trkpt lat="37.66404" lon="127.03912000000001">
    <ele>33.17</ele>
   </trkpt>
  </trkseg>
 </trk>
</gpx>
