<?xml version="1.0" encoding="UTF-8"?>
<gpx creator="StravaGPX" version="1.1" xmlns="http://www.topografix.com/GPX/1/1" xmlns:xsi="http://www.w3.org/2001/XMLSchema-instance" xsi:schemaLocation="http://www.topografix.com/GPX/1/1 http://www.topografix.com/GPX/1/1/gpx.xsd">
 <metadata>
  <name>도봉 방학천 루프 5.36km</name>
  <desc>daengrun candidate geometry — measured 5.36km, gain 19</desc>
  <author>
   <name>S Kim</name>
   <link href="https://www.strava.com/athletes/558867461"/>
  </author>
  <copyright author="OpenStreetMap contributors">
   <year>2020</year>
   <license>https://www.openstreetmap.org/copyright</license>
  </copyright>
  <link href="https://www.strava.com/routes/3524982565739193752"/>
 </metadata>
 <trk>
  <name>도봉 방학천 루프 5.36km</name>
  <desc>daengrun candidate geometry — measured 5.36km, gain 19</desc>
  <link href="https://www.strava.com/routes/3524982565739193752"/>
  <type>running</type>
  <trkseg>
   <trkpt lat="37.65794" lon="127.04485000000001">
    <ele>26.98</ele>
   </trkpt>
   <trkpt lat="37.65793" lon="127.04486000000001">
    <ele>26.98</ele>
   </trkpt>
   <trkpt lat="37.65798" lon="127.04532">
    <ele>26.98</ele>
   </trkpt>
   <trkpt lat="37.657830000000004" lon="127.04543000000001">
    <ele>27.040000000000003</ele>
   </trkpt>
   <trkpt lat="37.65776" lon="127.04544000000001">
    <ele>27.040000000000003</ele>
   </trkpt>
   <trkpt lat="37.657590000000006" lon="127.04542000000001">
    <ele>26.990000000000002</ele>
   </trkpt>
   <trkpt lat="37.657540000000004" lon="127.04543000000001">
    <ele>26.990000000000002</ele>
   </trkpt>
   <trkpt lat="37.6574" lon="127.04555">
    <ele>26.990000000000002</ele>
   </trkpt>
   <trkpt lat="37.657430000000005" lon="127.04571000000001">
    <ele>32.07</ele>
   </trkpt>
   <trkpt lat="37.658003333840206" lon="127.04548000352807">
    <ele>32.1</ele>
   </trkpt>
   <trkpt lat="37.658576667233845" lon="127.04525000350391">
    <ele>31.560000000000006</ele>
   </trkpt>
   <trkpt lat="37.659150000000004" lon="127.04502000000001">
    <ele>31.490000000000002</ele>
   </trkpt>
   <trkpt lat="37.659490000000005" lon="127.04492">
    <ele>31.53</ele>
   </trkpt>
   <trkpt lat="37.660250000000005" lon="127.04476000000001">
    <ele>31.990000000000006</ele>
   </trkpt>
   <trkpt lat="37.661030000000004" lon="127.04467000000001">
    <ele>31.13</ele>
   </trkpt>
   <trkpt lat="37.661530000080134" lon="127.04463500023053">
    <ele>32.13</ele>
   </trkpt>
   <trkpt lat="37.66203" lon="127.04460000000002">
    <ele>32.79</ele>
   </trkpt>
   <trkpt lat="37.661910000000006" lon="127.04369000000001">
    <ele>32.1</ele>
   </trkpt>
   <trkpt lat="37.661950000000004" lon="127.04371">
    <ele>31.8</ele>
   </trkpt>
   <trkpt lat="37.661970000000004" lon="127.04391000000001">
    <ele>31.000000000000004</ele>
   </trkpt>
   <trkpt lat="37.66201" lon="127.04395000000001">
    <ele>31.000000000000004</ele>
   </trkpt>
   <trkpt lat="37.66191000215621" lon="127.04323499902506">
    <ele>31.240000000000002</ele>
   </trkpt>
   <trkpt lat="37.66181" lon="127.04252000000001">
    <ele>31.19</ele>
   </trkpt>
   <trkpt lat="37.661910002159516" lon="127.04323499904861">
    <ele>31.240000000000002</ele>
   </trkpt>
   <trkpt lat="37.66201" lon="127.04395000000001">
    <ele>31.000000000000004</ele>
   </trkpt>
   <trkpt lat="37.661970000000004" lon="127.04391000000001">
    <ele>31.43</ele>
   </trkpt>
   <trkpt lat="37.661950000000004" lon="127.04371">
    <ele>32.1</ele>
   </trkpt>
   <trkpt lat="37.661910000000006" lon="127.04369000000001">
    <ele>32.1</ele>
   </trkpt>
   <trkpt lat="37.661830001420554" lon="127.04310499919426">
    <ele>32.230000000000004</ele>
   </trkpt>
   <trkpt lat="37.661750000000005" lon="127.04252000000001">
    <ele>32.29</ele>
   </trkpt>
   <trkpt lat="37.661680000000004" lon="127.04234000000001">
    <ele>32.260000000000005</ele>
   </trkpt>
   <trkpt lat="37.66156" lon="127.04232">
    <ele>32.07</ele>
   </trkpt>
   <trkpt lat="37.661550000000005" lon="127.04243000000001">
    <ele>31.650000000000002</ele>
   </trkpt>
   <trkpt lat="37.662024999846444" lon="127.04252499935377">
    <ele>31.650000000000002</ele>
   </trkpt>
   <trkpt lat="37.6625" lon="127.04262000000001">
    <ele>31.360000000000007</ele>
   </trkpt>
   <trkpt lat="37.66263" lon="127.04270000000001">
    <ele>31.360000000000007</ele>
   </trkpt>
   <trkpt lat="37.662670000000006" lon="127.04261000000001">
    <ele>31.39</ele>
   </trkpt>
   <trkpt lat="37.662710000000004" lon="127.04264">
    <ele>31.21</ele>
   </trkpt>
   <trkpt lat="37.662960000000005" lon="127.04267000000002">
    <ele>30.92</ele>
   </trkpt>
   <trkpt lat="37.663000000000004" lon="127.04273">
    <ele>30.860000000000003</ele>
   </trkpt>
   <trkpt lat="37.663050000000005" lon="127.04271000000001">
    <ele>30.85</ele>
   </trkpt>
   <trkpt lat="37.66311" lon="127.04270000000001">
    <ele>30.85</ele>
   </trkpt>
   <trkpt lat="37.6638" lon="127.04282">
    <ele>30.590000000000003</ele>
   </trkpt>
   <trkpt lat="37.66386" lon="127.04282">
    <ele>30.590000000000003</ele>
   </trkpt>
   <trkpt lat="37.664570000000005" lon="127.04298000000001">
    <ele>31.28</ele>
   </trkpt>
   <trkpt lat="37.66467" lon="127.04302000000001">
    <ele>31.290000000000006</ele>
   </trkpt>
   <trkpt lat="37.66516" lon="127.04310000000001">
    <ele>30.840000000000003</ele>
   </trkpt>
   <trkpt lat="37.66523" lon="127.04305000000001">
    <ele>30.840000000000003</ele>
   </trkpt>
   <trkpt lat="37.66575" lon="127.04313">
    <ele>30.7</ele>
   </trkpt>
   <trkpt lat="37.66602" lon="127.04319000000001">
    <ele>30.78</ele>
   </trkpt>
   <trkpt lat="37.66606" lon="127.04321000000002">
    <ele>30.78</ele>
   </trkpt>
   <trkpt lat="37.666090000000004" lon="127.04424000000002">
    <ele>31.070000000000004</ele>
   </trkpt>
   <trkpt lat="37.66606" lon="127.04459000000001">
    <ele>31.180000000000003</ele>
   </trkpt>
   <trkpt lat="37.666900000000005" lon="127.04454000000001">
    <ele>32.24</ele>
   </trkpt>
   <trkpt lat="37.667640000000006" lon="127.04447">
    <ele>32.07</ele>
   </trkpt>
   <trkpt lat="37.666900000000005" lon="127.04454000000001">
    <ele>32.24</ele>
   </trkpt>
   <trkpt lat="37.66606" lon="127.04459000000001">
    <ele>31.180000000000003</ele>
   </trkpt>
   <trkpt lat="37.666090000000004" lon="127.04424000000002">
    <ele>31.070000000000004</ele>
   </trkpt>
   <trkpt lat="37.66606" lon="127.04321000000002">
    <ele>30.78</ele>
   </trkpt>
   <trkpt lat="37.66575" lon="127.04313">
    <ele>30.7</ele>
   </trkpt>
   <trkpt lat="37.66523" lon="127.04305000000001">
    <ele>30.840000000000003</ele>
   </trkpt>
   <trkpt lat="37.66516" lon="127.04310000000001">
    <ele>30.840000000000003</ele>
   </trkpt>
   <trkpt lat="37.66467" lon="127.04302000000001">
    <ele>31.290000000000006</ele>
   </trkpt>
   <trkpt lat="37.664570000000005" lon="127.04298000000001">
    <ele>31.28</ele>
   </trkpt>
   <trkpt lat="37.664415002062235" lon="127.04368000148924">
    <ele>31.240000000000002</ele>
   </trkpt>
   <trkpt lat="37.664260000000006" lon="127.04438">
    <ele>31.21</ele>
   </trkpt>
   <trkpt lat="37.66415000000001" lon="127.04437000000001">
    <ele>31.080000000000002</ele>
   </trkpt>
   <trkpt lat="37.66363999991823" lon="127.04442000035259">
    <ele>31.12</ele>
   </trkpt>
   <trkpt lat="37.66313" lon="127.04447">
    <ele>31.900000000000006</ele>
   </trkpt>
   <trkpt lat="37.662870000000005" lon="127.04452">
    <ele>32.6</ele>
   </trkpt>
   <trkpt lat="37.662180000000006" lon="127.04458000000001">
    <ele>31.05</ele>
   </trkpt>
   <trkpt lat="37.66204667527986" lon="127.0435699963837">
    <ele>31.51</ele>
   </trkpt>
   <trkpt lat="37.661913341948065" lon="127.04255999639545">
    <ele>31.230000000000004</ele>
   </trkpt>
   <trkpt lat="37.66178" lon="127.04155000000002">
    <ele>31.86</ele>
   </trkpt>
   <trkpt lat="37.661770000000004" lon="127.04135000000001">
    <ele>31.87</ele>
   </trkpt>
   <trkpt lat="37.661783341943575" lon="127.04034000046587">
    <ele>31.990000000000006</ele>
   </trkpt>
   <trkpt lat="37.661796675275546" lon="127.03933000056877">
    <ele>32.010000000000005</ele>
   </trkpt>
   <trkpt lat="37.66181" lon="127.03832000000001">
    <ele>32.31</ele>
   </trkpt>
   <trkpt lat="37.66169" lon="127.03829">
    <ele>32.620000000000005</ele>
   </trkpt>
   <trkpt lat="37.66169" lon="127.03795000000001">
    <ele>33.830000000000005</ele>
   </trkpt>
   <trkpt lat="37.66167" lon="127.03795000000001">
    <ele>33.830000000000005</ele>
   </trkpt>
   <trkpt lat="37.66167" lon="127.03778000000001">
    <ele>34.31</ele>
   </trkpt>
   <trkpt lat="37.661590000000004" lon="127.03779000000002">
    <ele>34.510000000000005</ele>
   </trkpt>
   <trkpt lat="37.661060000000006" lon="127.03781000000001">
    <ele>34.1</ele>
   </trkpt>
   <trkpt lat="37.660540000000005" lon="127.03784000000002">
    <ele>36.800000000000004</ele>
   </trkpt>
   <trkpt lat="37.660540000000005" lon="127.03759000000001">
    <ele>36.160000000000004</ele>
   </trkpt>
   <trkpt lat="37.660500000000006" lon="127.03757000000002">
    <ele>36.160000000000004</ele>
   </trkpt>
   <trkpt lat="37.66038" lon="127.03763000000001">
    <ele>37.17</ele>
   </trkpt>
   <trkpt lat="37.660270000000004" lon="127.03765000000001">
    <ele>37.17</ele>
   </trkpt>
   <trkpt lat="37.660030000000006" lon="127.03761000000002">
    <ele>38.160000000000004</ele>
   </trkpt>
   <trkpt lat="37.659940000000006" lon="127.03756000000001">
    <ele>38.160000000000004</ele>
   </trkpt>
   <trkpt lat="37.65997" lon="127.03753">
    <ele>38.160000000000004</ele>
   </trkpt>
   <trkpt lat="37.66001" lon="127.03735">
    <ele>38.03</ele>
   </trkpt>
   <trkpt lat="37.659940000000006" lon="127.03712000000002">
    <ele>39.99</ele>
   </trkpt>
   <trkpt lat="37.65993" lon="127.03712000000002">
    <ele>40.050000000000004</ele>
   </trkpt>
   <trkpt lat="37.66001" lon="127.03735">
    <ele>38.03</ele>
   </trkpt>
   <trkpt lat="37.66029" lon="127.03713">
    <ele>35.96000000000001</ele>
   </trkpt>
   <trkpt lat="37.66053" lon="127.03713">
    <ele>35.96000000000001</ele>
   </trkpt>
   <trkpt lat="37.66048" lon="127.03639000000001">
    <ele>37.81</ele>
   </trkpt>
   <trkpt lat="37.661080000000005" lon="127.03635000000001">
    <ele>35.120000000000005</ele>
   </trkpt>
   <trkpt lat="37.661170000000006" lon="127.03702000000001">
    <ele>33.800000000000004</ele>
   </trkpt>
   <trkpt lat="37.66122" lon="127.03709">
    <ele>33.5</ele>
   </trkpt>
   <trkpt lat="37.66152" lon="127.03726">
    <ele>33.21</ele>
   </trkpt>
   <trkpt lat="37.66152" lon="127.03737000000001">
    <ele>33.21</ele>
   </trkpt>
   <trkpt lat="37.66165" lon="127.03747000000001">
    <ele>32.82</ele>
   </trkpt>
   <trkpt lat="37.66169" lon="127.03758">
    <ele>32.82</ele>
   </trkpt>
   <trkpt lat="37.66172" lon="127.03786000000001">
    <ele>32.46</ele>
   </trkpt>
   <trkpt lat="37.66172" lon="127.03829">
    <ele>32.330000000000005</ele>
   </trkpt>
   <trkpt lat="37.66181" lon="127.03832000000001">
    <ele>32.330000000000005</ele>
   </trkpt>
   <trkpt lat="37.66179667527962" lon="127.0393300002598">
    <ele>32.010000000000005</ele>
   </trkpt>
   <trkpt lat="37.66178334194765" lon="127.04034000015686">
    <ele>31.990000000000006</ele>
   </trkpt>
   <trkpt lat="37.661770000000004" lon="127.04135000000001">
    <ele>31.86</ele>
   </trkpt>
   <trkpt lat="37.66178" lon="127.04155000000002">
    <ele>31.86</ele>
   </trkpt>
   <trkpt lat="37.66191334194338" lon="127.04255999635997">
    <ele>31.230000000000004</ele>
   </trkpt>
   <trkpt lat="37.66204667527518" lon="127.04356999634823">
    <ele>31.51</ele>
   </trkpt>
   <trkpt lat="37.662180000000006" lon="127.04458000000001">
    <ele>31.05</ele>
   </trkpt>
   <trkpt lat="37.661605000067254" lon="127.04462500034396">
    <ele>32.28</ele>
   </trkpt>
   <trkpt lat="37.661030000000004" lon="127.04467000000001">
    <ele>31.13</ele>
   </trkpt>
   <trkpt lat="37.660250000000005" lon="127.04476000000001">
    <ele>31.990000000000006</ele>
   </trkpt>
   <trkpt lat="37.659490000000005" lon="127.04492">
    <ele>31.53</ele>
   </trkpt>
   <trkpt lat="37.659150000000004" lon="127.04502000000001">
    <ele>31.490000000000002</ele>
   </trkpt>
   <trkpt lat="37.65857666705293" lon="127.04525000357648">
    <ele>31.560000000000006</ele>
   </trkpt>
   <trkpt lat="37.65800333365927" lon="127.0454800036006">
    <ele>32.1</ele>
   </trkpt>
   <trkpt lat="37.657430000000005" lon="127.04571000000001">
    <ele>32.07</ele>
   </trkpt>
   <trkpt lat="37.6574" lon="127.04555">
    <ele>26.990000000000002</ele>
   </trkpt>
   <trkpt lat="37.657540000000004" lon="127.04543000000001">
    <ele>26.990000000000002</ele>
   </trkpt>
   <trkpt lat="37.657590000000006" lon="127.04542000000001">
    <ele>26.990000000000002</ele>
   </trkpt>
   <trkpt lat="37.65776" lon="127.04544000000001">
    <ele>27.040000000000003</ele>
   </trkpt>
   <trkpt lat="37.657830000000004" lon="127.04543000000001">
    <ele>27.040000000000003</ele>
   </trkpt>
   <trkpt lat="37.65798" lon="127.04532">
    <ele>26.98</ele>
   </trkpt>
   <trkpt lat="37.65793" lon="127.04486000000001">
    <ele>27.000000000000004</ele>
   </trkpt>
   <trkpt lat="37.65795" lon="127.04485000000001">
    <ele>27.000000000000004</ele>
   </trkpt>
  </trkseg>
 </trk>
</gpx>
