<?xml version="1.0" encoding="UTF-8"?>
<gpx creator="daengrun-naver-route" version="1.1" xmlns="http://www.topografix.com/GPX/1/1" xmlns:xsi="http://www.w3.org/2001/XMLSchema-instance" xsi:schemaLocation="http://www.topografix.com/GPX/1/1 http://www.topografix.com/GPX/1/1/gpx.xsd">
 <metadata>
  <name>동대문 청계천·간데메공원 루프 4.73km</name>
  <desc>daengrun candidate geometry — measured 4.73km via Naver pedestrian router (o=flat, 계단회피). Elevation NOT available from this source. stairs=0 crosswalk=9 steppingstone=0 underpass=0 overpass=0</desc>
  <link href="naver:i7bvmf"><text>daengrun route id</text></link>
  <copyright author="NAVER Corp."><license>https://map.naver.com/</license></copyright>
 </metadata>
 <trk>
  <name>동대문 청계천·간데메공원 루프 4.73km</name>
  <trkseg>
   <trkpt lat="37.5704476" lon="127.0549049"></trkpt>
   <trkpt lat="37.5705786" lon="127.0545292"></trkpt>
   <trkpt lat="37.5705786" lon="127.0545292"></trkpt>
   <trkpt lat="37.5703501" lon="127.0544072"></trkpt>
   <trkpt lat="37.5702038" lon="127.0543118"></trkpt>
   <trkpt lat="37.5701559" lon="127.0543019"></trkpt>
   <trkpt lat="37.5701081" lon="127.054292"></trkpt>
   <trkpt lat="37.5699764" lon="127.0542667"></trkpt>
   <trkpt lat="37.5699322" lon="127.0542421"></trkpt>
   <trkpt lat="37.5698589" lon="127.0541632"></trkpt>
   <trkpt lat="37.5697375" lon="127.0540179"></trkpt>
   <trkpt lat="37.5696905" lon="127.0539615"></trkpt>
   <trkpt lat="37.5695682" lon="127.0538139"></trkpt>
   <trkpt lat="37.5695095" lon="127.0537769"></trkpt>
   <trkpt lat="37.5694365" lon="127.0537841"></trkpt>
   <trkpt lat="37.569352" lon="127.0538277"></trkpt>
   <trkpt lat="37.5692972" lon="127.0538993"></trkpt>
   <trkpt lat="37.5692489" lon="127.0539993"></trkpt>
   <trkpt lat="37.5692221" lon="127.0540413"></trkpt>
   <trkpt lat="37.5692221" lon="127.0540413"></trkpt>
   <trkpt lat="37.5691162" lon="127.0539469"></trkpt>
   <trkpt lat="37.5690691" lon="127.0538724"></trkpt>
   <trkpt lat="37.5689578" lon="127.0537462"></trkpt>
   <trkpt lat="37.5689161" lon="127.0536955"></trkpt>
   <trkpt lat="37.5687287" lon="127.0534702"></trkpt>
   <trkpt lat="37.5686571" lon="127.0533653"></trkpt>
   <trkpt lat="37.5685883" lon="127.053283"></trkpt>
   <trkpt lat="37.5682117" lon="127.0528652"></trkpt>
   <trkpt lat="37.5682117" lon="127.0528652"></trkpt>
   <trkpt lat="37.56827" lon="127.0527844"></trkpt>
   <trkpt lat="37.5685291" lon="127.0524318"></trkpt>
   <trkpt lat="37.5688852" lon="127.0519586"></trkpt>
   <trkpt lat="37.5689471" lon="127.0518847"></trkpt>
   <trkpt lat="37.5691122" lon="127.0516832"></trkpt>
   <trkpt lat="37.569201" lon="127.0515797"></trkpt>
   <trkpt lat="37.5693106" lon="127.0514692"></trkpt>
   <trkpt lat="37.5694094" lon="127.051387"></trkpt>
   <trkpt lat="37.5697986" lon="127.0511141"></trkpt>
   <trkpt lat="37.5699146" lon="127.0510228"></trkpt>
   <trkpt lat="37.5700008" lon="127.0509543"></trkpt>
   <trkpt lat="37.5701096" lon="127.0508642"></trkpt>
   <trkpt lat="37.5703683" lon="127.0506294"></trkpt>
   <trkpt lat="37.5705182" lon="127.0504824"></trkpt>
   <trkpt lat="37.5705972" lon="127.0504004"></trkpt>
   <trkpt lat="37.5708314" lon="127.0501091"></trkpt>
   <trkpt lat="37.5708314" lon="127.0501091"></trkpt>
   <trkpt lat="37.5707508" lon="127.0500088"></trkpt>
   <trkpt lat="37.5707173" lon="127.0499693"></trkpt>
   <trkpt lat="37.5707173" lon="127.0499693"></trkpt>
   <trkpt lat="37.570691" lon="127.0499367"></trkpt>
   <trkpt lat="37.5705135" lon="127.0497124"></trkpt>
   <trkpt lat="37.5704791" lon="127.0496696"></trkpt>
   <trkpt lat="37.5703287" lon="127.0494814"></trkpt>
   <trkpt lat="37.5702681" lon="127.0494206"></trkpt>
   <trkpt lat="37.5700528" lon="127.0492078"></trkpt>
   <trkpt lat="37.5700121" lon="127.0491741"></trkpt>
   <trkpt lat="37.5699733" lon="127.0491596"></trkpt>
   <trkpt lat="37.5699255" lon="127.0491509"></trkpt>
   <trkpt lat="37.5699255" lon="127.0491509"></trkpt>
   <trkpt lat="37.5699297" lon="127.0490784"></trkpt>
   <trkpt lat="37.5699285" lon="127.0490093"></trkpt>
   <trkpt lat="37.5696651" lon="127.0487165"></trkpt>
   <trkpt lat="37.5696081" lon="127.04865"></trkpt>
   <trkpt lat="37.5696081" lon="127.04865"></trkpt>
   <trkpt lat="37.569608" lon="127.048616"></trkpt>
   <trkpt lat="37.5696043" lon="127.0485934"></trkpt>
   <trkpt lat="37.5695988" lon="127.0485776"></trkpt>
   <trkpt lat="37.5694382" lon="127.0482988"></trkpt>
   <trkpt lat="37.5694264" lon="127.0482729"></trkpt>
   <trkpt lat="37.5693864" lon="127.0481927"></trkpt>
   <trkpt lat="37.5693791" lon="127.048178"></trkpt>
   <trkpt lat="37.569322" lon="127.0480742"></trkpt>
   <trkpt lat="37.5692394" lon="127.0479388"></trkpt>
   <trkpt lat="37.5692394" lon="127.0479388"></trkpt>
   <trkpt lat="37.5691714" lon="127.0478282"></trkpt>
   <trkpt lat="37.5691714" lon="127.0478282"></trkpt>
   <trkpt lat="37.5688956" lon="127.047377"></trkpt>
   <trkpt lat="37.5684277" lon="127.0466347"></trkpt>
   <trkpt lat="37.5682119" lon="127.0463099"></trkpt>
   <trkpt lat="37.5680905" lon="127.0461306"></trkpt>
   <trkpt lat="37.5680634" lon="127.0461115"></trkpt>
   <trkpt lat="37.5680372" lon="127.0461003"></trkpt>
   <trkpt lat="37.5680372" lon="127.0461003"></trkpt>
   <trkpt lat="37.5680119" lon="127.0460959"></trkpt>
   <trkpt lat="37.5679858" lon="127.0460961"></trkpt>
   <trkpt lat="37.5679453" lon="127.0461065"></trkpt>
   <trkpt lat="37.567876" lon="127.0461421"></trkpt>
   <trkpt lat="37.5669179" lon="127.0466348"></trkpt>
   <trkpt lat="37.5665762" lon="127.0468361"></trkpt>
   <trkpt lat="37.5662219" lon="127.0470432"></trkpt>
   <trkpt lat="37.5660951" lon="127.047138"></trkpt>
   <trkpt lat="37.5659982" lon="127.0472348"></trkpt>
   <trkpt lat="37.5659532" lon="127.0472725"></trkpt>
   <trkpt lat="37.5659181" lon="127.047284"></trkpt>
   <trkpt lat="37.5657921" lon="127.0473108"></trkpt>
   <trkpt lat="37.5656848" lon="127.0473058"></trkpt>
   <trkpt lat="37.5656541" lon="127.0473094"></trkpt>
   <trkpt lat="37.5656254" lon="127.0473254"></trkpt>
   <trkpt lat="37.5650159" lon="127.0477515"></trkpt>
   <trkpt lat="37.5648954" lon="127.0478303"></trkpt>
   <trkpt lat="37.5648936" lon="127.0478315"></trkpt>
   <trkpt lat="37.5647578" lon="127.0479195"></trkpt>
   <trkpt lat="37.5643064" lon="127.048186"></trkpt>
   <trkpt lat="37.564015" lon="127.0483497"></trkpt>
   <trkpt lat="37.564015" lon="127.0483497"></trkpt>
   <trkpt lat="37.5640296" lon="127.0484017"></trkpt>
   <trkpt lat="37.5635636" lon="127.0486491"></trkpt>
   <trkpt lat="37.563507" lon="127.0486981"></trkpt>
   <trkpt lat="37.5635" lon="127.0487469"></trkpt>
   <trkpt lat="37.5634949" lon="127.0488205"></trkpt>
   <trkpt lat="37.5634949" lon="127.0488205"></trkpt>
   <trkpt lat="37.5648614" lon="127.0481362"></trkpt>
   <trkpt lat="37.5648614" lon="127.0481362"></trkpt>
   <trkpt lat="37.5634949" lon="127.0488205"></trkpt>
   <trkpt lat="37.5634949" lon="127.0488205"></trkpt>
   <trkpt lat="37.5635" lon="127.0487469"></trkpt>
   <trkpt lat="37.563507" lon="127.0486981"></trkpt>
   <trkpt lat="37.5635636" lon="127.0486491"></trkpt>
   <trkpt lat="37.5640296" lon="127.0484017"></trkpt>
   <trkpt lat="37.564015" lon="127.0483497"></trkpt>
   <trkpt lat="37.564015" lon="127.0483497"></trkpt>
   <trkpt lat="37.5643064" lon="127.048186"></trkpt>
   <trkpt lat="37.5647578" lon="127.0479195"></trkpt>
   <trkpt lat="37.5648936" lon="127.0478315"></trkpt>
   <trkpt lat="37.5648954" lon="127.0478303"></trkpt>
   <trkpt lat="37.5650159" lon="127.0477515"></trkpt>
   <trkpt lat="37.5656254" lon="127.0473254"></trkpt>
   <trkpt lat="37.5656541" lon="127.0473094"></trkpt>
   <trkpt lat="37.5656848" lon="127.0473058"></trkpt>
   <trkpt lat="37.5657921" lon="127.0473108"></trkpt>
   <trkpt lat="37.5659181" lon="127.047284"></trkpt>
   <trkpt lat="37.5659532" lon="127.0472725"></trkpt>
   <trkpt lat="37.5659982" lon="127.0472348"></trkpt>
   <trkpt lat="37.5660951" lon="127.047138"></trkpt>
   <trkpt lat="37.5662219" lon="127.0470432"></trkpt>
   <trkpt lat="37.5665762" lon="127.0468361"></trkpt>
   <trkpt lat="37.5669179" lon="127.0466348"></trkpt>
   <trkpt lat="37.567876" lon="127.0461421"></trkpt>
   <trkpt lat="37.5679453" lon="127.0461065"></trkpt>
   <trkpt lat="37.5679858" lon="127.0460961"></trkpt>
   <trkpt lat="37.5680119" lon="127.0460959"></trkpt>
   <trkpt lat="37.5680372" lon="127.0461003"></trkpt>
   <trkpt lat="37.5680372" lon="127.0461003"></trkpt>
   <trkpt lat="37.5680634" lon="127.0461115"></trkpt>
   <trkpt lat="37.5680905" lon="127.0461306"></trkpt>
   <trkpt lat="37.5682119" lon="127.0463099"></trkpt>
   <trkpt lat="37.5684277" lon="127.0466347"></trkpt>
   <trkpt lat="37.5688956" lon="127.047377"></trkpt>
   <trkpt lat="37.5691714" lon="127.0478282"></trkpt>
   <trkpt lat="37.5691714" lon="127.0478282"></trkpt>
   <trkpt lat="37.5692394" lon="127.0479388"></trkpt>
   <trkpt lat="37.5692394" lon="127.0479388"></trkpt>
   <trkpt lat="37.569322" lon="127.0480742"></trkpt>
   <trkpt lat="37.5693791" lon="127.048178"></trkpt>
   <trkpt lat="37.5693864" lon="127.0481927"></trkpt>
   <trkpt lat="37.5694264" lon="127.0482729"></trkpt>
   <trkpt lat="37.5694382" lon="127.0482988"></trkpt>
   <trkpt lat="37.5695988" lon="127.0485776"></trkpt>
   <trkpt lat="37.5696043" lon="127.0485934"></trkpt>
   <trkpt lat="37.569608" lon="127.048616"></trkpt>
   <trkpt lat="37.5696081" lon="127.04865"></trkpt>
   <trkpt lat="37.5696081" lon="127.04865"></trkpt>
   <trkpt lat="37.5696651" lon="127.0487165"></trkpt>
   <trkpt lat="37.5699285" lon="127.0490093"></trkpt>
   <trkpt lat="37.5701422" lon="127.0487815"></trkpt>
   <trkpt lat="37.570188" lon="127.0487371"></trkpt>
   <trkpt lat="37.570188" lon="127.0487371"></trkpt>
   <trkpt lat="37.5702233" lon="127.0487833"></trkpt>
   <trkpt lat="37.5708295" lon="127.0493764"></trkpt>
   <trkpt lat="37.5708295" lon="127.0493764"></trkpt>
   <trkpt lat="37.5709027" lon="127.0494417"></trkpt>
   <trkpt lat="37.5709434" lon="127.0494788"></trkpt>
   <trkpt lat="37.5709588" lon="127.0494889"></trkpt>
   <trkpt lat="37.5709778" lon="127.0494956"></trkpt>
   <trkpt lat="37.5709886" lon="127.0494932"></trkpt>
   <trkpt lat="37.5709994" lon="127.0494909"></trkpt>
   <trkpt lat="37.5710219" lon="127.0494828"></trkpt>
   <trkpt lat="37.5710389" lon="127.0494669"></trkpt>
   <trkpt lat="37.5710734" lon="127.0495165"></trkpt>
   <trkpt lat="37.5711413" lon="127.0495954"></trkpt>
   <trkpt lat="37.5711413" lon="127.0495954"></trkpt>
   <trkpt lat="37.5712301" lon="127.049485"></trkpt>
   <trkpt lat="37.5714184" lon="127.0492245"></trkpt>
   <trkpt lat="37.5719099" lon="127.048584"></trkpt>
   <trkpt lat="37.5719995" lon="127.0484578"></trkpt>
   <trkpt lat="37.5720533" lon="127.0483804"></trkpt>
   <trkpt lat="37.5721457" lon="127.0482519"></trkpt>
   <trkpt lat="37.5722622" lon="127.0480938"></trkpt>
   <trkpt lat="37.5724003" lon="127.047914"></trkpt>
   <trkpt lat="37.57256" lon="127.0476979"></trkpt>
   <trkpt lat="37.57256" lon="127.0476979"></trkpt>
   <trkpt lat="37.5726251" lon="127.0477575"></trkpt>
   <trkpt lat="37.572637" lon="127.0478118"></trkpt>
   <trkpt lat="37.5726995" lon="127.0478975"></trkpt>
   <trkpt lat="37.5727746" lon="127.0479707"></trkpt>
   <trkpt lat="37.5730567" lon="127.0481966"></trkpt>
   <trkpt lat="37.5730839" lon="127.0482304"></trkpt>
   <trkpt lat="37.5731499" lon="127.0482934"></trkpt>
   <trkpt lat="37.5732304" lon="127.0483711"></trkpt>
   <trkpt lat="37.5732304" lon="127.0483711"></trkpt>
   <trkpt lat="37.5732242" lon="127.0483904"></trkpt>
   <trkpt lat="37.5731866" lon="127.0484642"></trkpt>
   <trkpt lat="37.5731528" lon="127.0485878"></trkpt>
   <trkpt lat="37.5731386" lon="127.0486219"></trkpt>
   <trkpt lat="37.5731386" lon="127.0486219"></trkpt>
   <trkpt lat="37.5731528" lon="127.0485878"></trkpt>
   <trkpt lat="37.5731866" lon="127.0484642"></trkpt>
   <trkpt lat="37.5732242" lon="127.0483904"></trkpt>
   <trkpt lat="37.5732304" lon="127.0483711"></trkpt>
   <trkpt lat="37.5732304" lon="127.0483711"></trkpt>
   <trkpt lat="37.5731499" lon="127.0482934"></trkpt>
   <trkpt lat="37.5730839" lon="127.0482304"></trkpt>
   <trkpt lat="37.5730567" lon="127.0481966"></trkpt>
   <trkpt lat="37.5727746" lon="127.0479707"></trkpt>
   <trkpt lat="37.5726995" lon="127.0478975"></trkpt>
   <trkpt lat="37.572637" lon="127.0478118"></trkpt>
   <trkpt lat="37.5726251" lon="127.0477575"></trkpt>
   <trkpt lat="37.57256" lon="127.0476979"></trkpt>
   <trkpt lat="37.57256" lon="127.0476979"></trkpt>
   <trkpt lat="37.5724003" lon="127.047914"></trkpt>
   <trkpt lat="37.5722622" lon="127.0480938"></trkpt>
   <trkpt lat="37.5721457" lon="127.0482519"></trkpt>
   <trkpt lat="37.5720533" lon="127.0483804"></trkpt>
   <trkpt lat="37.5719995" lon="127.0484578"></trkpt>
   <trkpt lat="37.5719099" lon="127.048584"></trkpt>
   <trkpt lat="37.5714184" lon="127.0492245"></trkpt>
   <trkpt lat="37.5712301" lon="127.049485"></trkpt>
   <trkpt lat="37.5711413" lon="127.0495954"></trkpt>
   <trkpt lat="37.5711333" lon="127.0496192"></trkpt>
   <trkpt lat="37.5711315" lon="127.0496373"></trkpt>
   <trkpt lat="37.5711307" lon="127.0496566"></trkpt>
   <trkpt lat="37.5711389" lon="127.0496837"></trkpt>
   <trkpt lat="37.5711462" lon="127.0496995"></trkpt>
   <trkpt lat="37.5711462" lon="127.0496995"></trkpt>
   <trkpt lat="37.5711184" lon="127.0497506"></trkpt>
   <trkpt lat="37.5709375" lon="127.0500473"></trkpt>
   <trkpt lat="37.5709061" lon="127.0500916"></trkpt>
   <trkpt lat="37.5709061" lon="127.0500916"></trkpt>
   <trkpt lat="37.5708799" lon="127.0500839"></trkpt>
   <trkpt lat="37.5708556" lon="127.0500885"></trkpt>
   <trkpt lat="37.5708314" lon="127.0501091"></trkpt>
   <trkpt lat="37.5705972" lon="127.0504004"></trkpt>
   <trkpt lat="37.5705182" lon="127.0504824"></trkpt>
   <trkpt lat="37.5703683" lon="127.0506294"></trkpt>
   <trkpt lat="37.5701096" lon="127.0508642"></trkpt>
   <trkpt lat="37.5700008" lon="127.0509543"></trkpt>
   <trkpt lat="37.5699146" lon="127.0510228"></trkpt>
   <trkpt lat="37.5697986" lon="127.0511141"></trkpt>
   <trkpt lat="37.5694094" lon="127.051387"></trkpt>
   <trkpt lat="37.5693106" lon="127.0514692"></trkpt>
   <trkpt lat="37.569201" lon="127.0515797"></trkpt>
   <trkpt lat="37.5691122" lon="127.0516832"></trkpt>
   <trkpt lat="37.5689471" lon="127.0518847"></trkpt>
   <trkpt lat="37.5688852" lon="127.0519586"></trkpt>
   <trkpt lat="37.5685291" lon="127.0524318"></trkpt>
   <trkpt lat="37.56827" lon="127.0527844"></trkpt>
   <trkpt lat="37.5682117" lon="127.0528652"></trkpt>
   <trkpt lat="37.5682117" lon="127.0528652"></trkpt>
   <trkpt lat="37.5685883" lon="127.053283"></trkpt>
   <trkpt lat="37.5686571" lon="127.0533653"></trkpt>
   <trkpt lat="37.5687287" lon="127.0534702"></trkpt>
   <trkpt lat="37.5689161" lon="127.0536955"></trkpt>
   <trkpt lat="37.5689578" lon="127.0537462"></trkpt>
   <trkpt lat="37.5690691" lon="127.0538724"></trkpt>
   <trkpt lat="37.5691162" lon="127.0539469"></trkpt>
   <trkpt lat="37.5692221" lon="127.0540413"></trkpt>
   <trkpt lat="37.5692221" lon="127.0540413"></trkpt>
   <trkpt lat="37.5692489" lon="127.0539993"></trkpt>
   <trkpt lat="37.5692972" lon="127.0538993"></trkpt>
   <trkpt lat="37.569352" lon="127.0538277"></trkpt>
   <trkpt lat="37.5694365" lon="127.0537841"></trkpt>
   <trkpt lat="37.5695095" lon="127.0537769"></trkpt>
   <trkpt lat="37.5695682" lon="127.0538139"></trkpt>
   <trkpt lat="37.5696905" lon="127.0539615"></trkpt>
   <trkpt lat="37.5697375" lon="127.0540179"></trkpt>
   <trkpt lat="37.5698589" lon="127.0541632"></trkpt>
   <trkpt lat="37.5699322" lon="127.0542421"></trkpt>
   <trkpt lat="37.5699764" lon="127.0542667"></trkpt>
   <trkpt lat="37.5701081" lon="127.054292"></trkpt>
   <trkpt lat="37.5701559" lon="127.0543019"></trkpt>
   <trkpt lat="37.5702038" lon="127.0543118"></trkpt>
   <trkpt lat="37.5703501" lon="127.0544072"></trkpt>
   <trkpt lat="37.5705786" lon="127.0545292"></trkpt>
   <trkpt lat="37.5705786" lon="127.0545292"></trkpt>
   <trkpt lat="37.5704476" lon="127.0549049"></trkpt>
  </trkseg>
 </trk>
</gpx>
