<?xml version="1.0" encoding="UTF-8"?>
<gpx creator="daengrun-naver-route" version="1.1" xmlns="http://www.topografix.com/GPX/1/1" xmlns:xsi="http://www.w3.org/2001/XMLSchema-instance" xsi:schemaLocation="http://www.topografix.com/GPX/1/1 http://www.topografix.com/GPX/1/1/gpx.xsd">
 <metadata>
  <name>동대문 새싹마을마당·하늘못 루프 2.39km</name>
  <desc>daengrun candidate geometry — measured 2.39km via Naver pedestrian router (o=flat, 계단회피). Elevation NOT available from this source. stairs=0 crosswalk=4 steppingstone=0 underpass=0 overpass=0</desc>
  <link href="naver:1nho6sl"><text>daengrun route id</text></link>
  <copyright author="NAVER Corp."><license>https://map.naver.com/</license></copyright>
 </metadata>
 <trk>
  <name>동대문 새싹마을마당·하늘못 루프 2.39km</name>
  <trkseg>
   <trkpt lat="37.5885751" lon="127.056488"></trkpt>
   <trkpt lat="37.5886061" lon="127.0565728"></trkpt>
   <trkpt lat="37.5886471" lon="127.0567062"></trkpt>
   <trkpt lat="37.5886471" lon="127.0567062"></trkpt>
   <trkpt lat="37.5885571" lon="127.0567464"></trkpt>
   <trkpt lat="37.5885184" lon="127.0567636"></trkpt>
   <trkpt lat="37.5884248" lon="127.056797"></trkpt>
   <trkpt lat="37.5884248" lon="127.056797"></trkpt>
   <trkpt lat="37.588434" lon="127.0568355"></trkpt>
   <trkpt lat="37.5887197" lon="127.0578045"></trkpt>
   <trkpt lat="37.5887197" lon="127.0578045"></trkpt>
   <trkpt lat="37.5886819" lon="127.057816"></trkpt>
   <trkpt lat="37.5886315" lon="127.0578141"></trkpt>
   <trkpt lat="37.5883606" lon="127.0577035"></trkpt>
   <trkpt lat="37.5883606" lon="127.0577035"></trkpt>
   <trkpt lat="37.5883051" lon="127.0577922"></trkpt>
   <trkpt lat="37.5882134" lon="127.0578709"></trkpt>
   <trkpt lat="37.5882134" lon="127.0578709"></trkpt>
   <trkpt lat="37.5880453" lon="127.0577507"></trkpt>
   <trkpt lat="37.5880453" lon="127.0577507"></trkpt>
   <trkpt lat="37.5878963" lon="127.0581344"></trkpt>
   <trkpt lat="37.5878963" lon="127.0581344"></trkpt>
   <trkpt lat="37.5880453" lon="127.0577507"></trkpt>
   <trkpt lat="37.5880453" lon="127.0577507"></trkpt>
   <trkpt lat="37.5877805" lon="127.0575597"></trkpt>
   <trkpt lat="37.5876892" lon="127.05749"></trkpt>
   <trkpt lat="37.5875825" lon="127.0573989"></trkpt>
   <trkpt lat="37.5870994" lon="127.0571492"></trkpt>
   <trkpt lat="37.5870994" lon="127.0571492"></trkpt>
   <trkpt lat="37.5872011" lon="127.0568632"></trkpt>
   <trkpt lat="37.5872011" lon="127.0568632"></trkpt>
   <trkpt lat="37.5871493" lon="127.0567615"></trkpt>
   <trkpt lat="37.5869633" lon="127.0564466"></trkpt>
   <trkpt lat="37.5869633" lon="127.0564466"></trkpt>
   <trkpt lat="37.5867658" lon="127.0566494"></trkpt>
   <trkpt lat="37.5867245" lon="127.0566825"></trkpt>
   <trkpt lat="37.5867245" lon="127.0566825"></trkpt>
   <trkpt lat="37.5866874" lon="127.0566567"></trkpt>
   <trkpt lat="37.5865405" lon="127.0564276"></trkpt>
   <trkpt lat="37.5864707" lon="127.0563136"></trkpt>
   <trkpt lat="37.5864707" lon="127.0563136"></trkpt>
   <trkpt lat="37.5863454" lon="127.05632"></trkpt>
   <trkpt lat="37.5860571" lon="127.0563353"></trkpt>
   <trkpt lat="37.5860571" lon="127.0563353"></trkpt>
   <trkpt lat="37.5861007" lon="127.0571506"></trkpt>
   <trkpt lat="37.585834" lon="127.0571759"></trkpt>
   <trkpt lat="37.585834" lon="127.0571759"></trkpt>
   <trkpt lat="37.5858351" lon="127.0572314"></trkpt>
   <trkpt lat="37.5858355" lon="127.0573368"></trkpt>
   <trkpt lat="37.5856165" lon="127.0573505"></trkpt>
   <trkpt lat="37.5854777" lon="127.0573559"></trkpt>
   <trkpt lat="37.5854027" lon="127.0572952"></trkpt>
   <trkpt lat="37.5850377" lon="127.0573188"></trkpt>
   <trkpt lat="37.5850377" lon="127.0573188"></trkpt>
   <trkpt lat="37.5850777" lon="127.0581205"></trkpt>
   <trkpt lat="37.5851193" lon="127.0588882"></trkpt>
   <trkpt lat="37.5851329" lon="127.0591373"></trkpt>
   <trkpt lat="37.5851478" lon="127.0592822"></trkpt>
   <trkpt lat="37.5851497" lon="127.0593037"></trkpt>
   <trkpt lat="37.5851419" lon="127.0593875"></trkpt>
   <trkpt lat="37.5851144" lon="127.059501"></trkpt>
   <trkpt lat="37.585047" lon="127.0597981"></trkpt>
   <trkpt lat="37.5850054" lon="127.0602412"></trkpt>
   <trkpt lat="37.5849913" lon="127.060324"></trkpt>
   <trkpt lat="37.5849582" lon="127.0603989"></trkpt>
   <trkpt lat="37.5848307" lon="127.0605175"></trkpt>
   <trkpt lat="37.58482" lon="127.0605719"></trkpt>
   <trkpt lat="37.5847961" lon="127.060683"></trkpt>
   <trkpt lat="37.5847884" lon="127.0607918"></trkpt>
   <trkpt lat="37.5848088" lon="127.0611824"></trkpt>
   <trkpt lat="37.5847981" lon="127.061221"></trkpt>
   <trkpt lat="37.5847793" lon="127.0612381"></trkpt>
   <trkpt lat="37.584408" lon="127.0612743"></trkpt>
   <trkpt lat="37.5843414" lon="127.0612871"></trkpt>
   <trkpt lat="37.584272" lon="127.0613011"></trkpt>
   <trkpt lat="37.5841821" lon="127.0613628"></trkpt>
   <trkpt lat="37.5840992" lon="127.0613656"></trkpt>
   <trkpt lat="37.5838693" lon="127.0613556"></trkpt>
   <trkpt lat="37.5838693" lon="127.0613556"></trkpt>
   <trkpt lat="37.5840992" lon="127.0613656"></trkpt>
   <trkpt lat="37.5841821" lon="127.0613628"></trkpt>
   <trkpt lat="37.584272" lon="127.0613011"></trkpt>
   <trkpt lat="37.5843414" lon="127.0612871"></trkpt>
   <trkpt lat="37.584408" lon="127.0612743"></trkpt>
   <trkpt lat="37.5847793" lon="127.0612381"></trkpt>
   <trkpt lat="37.5847981" lon="127.061221"></trkpt>
   <trkpt lat="37.5848088" lon="127.0611824"></trkpt>
   <trkpt lat="37.5847884" lon="127.0607918"></trkpt>
   <trkpt lat="37.5847961" lon="127.060683"></trkpt>
   <trkpt lat="37.58482" lon="127.0605719"></trkpt>
   <trkpt lat="37.5848307" lon="127.0605175"></trkpt>
   <trkpt lat="37.5849582" lon="127.0603989"></trkpt>
   <trkpt lat="37.5849913" lon="127.060324"></trkpt>
   <trkpt lat="37.5850054" lon="127.0602412"></trkpt>
   <trkpt lat="37.585047" lon="127.0597981"></trkpt>
   <trkpt lat="37.5851144" lon="127.059501"></trkpt>
   <trkpt lat="37.5851419" lon="127.0593875"></trkpt>
   <trkpt lat="37.5851497" lon="127.0593037"></trkpt>
   <trkpt lat="37.5851478" lon="127.0592822"></trkpt>
   <trkpt lat="37.5851329" lon="127.0591373"></trkpt>
   <trkpt lat="37.5851193" lon="127.0588882"></trkpt>
   <trkpt lat="37.5850777" lon="127.0581205"></trkpt>
   <trkpt lat="37.5850377" lon="127.0573188"></trkpt>
   <trkpt lat="37.5850377" lon="127.0573188"></trkpt>
   <trkpt lat="37.5854027" lon="127.0572952"></trkpt>
   <trkpt lat="37.5854777" lon="127.0573559"></trkpt>
   <trkpt lat="37.5856165" lon="127.0573505"></trkpt>
   <trkpt lat="37.5858355" lon="127.0573368"></trkpt>
   <trkpt lat="37.5858351" lon="127.0572314"></trkpt>
   <trkpt lat="37.585834" lon="127.0571759"></trkpt>
   <trkpt lat="37.585834" lon="127.0571759"></trkpt>
   <trkpt lat="37.5861007" lon="127.0571506"></trkpt>
   <trkpt lat="37.5860571" lon="127.0563353"></trkpt>
   <trkpt lat="37.5860571" lon="127.0563353"></trkpt>
   <trkpt lat="37.5863454" lon="127.05632"></trkpt>
   <trkpt lat="37.5864707" lon="127.0563136"></trkpt>
   <trkpt lat="37.5864707" lon="127.0563136"></trkpt>
   <trkpt lat="37.5864381" lon="127.0562606"></trkpt>
   <trkpt lat="37.586427" lon="127.0561972"></trkpt>
   <trkpt lat="37.5864258" lon="127.0561179"></trkpt>
   <trkpt lat="37.5864433" lon="127.0559785"></trkpt>
   <trkpt lat="37.5865537" lon="127.0558419"></trkpt>
   <trkpt lat="37.5865743" lon="127.0558248"></trkpt>
   <trkpt lat="37.5866057" lon="127.0557816"></trkpt>
   <trkpt lat="37.5871661" lon="127.0552369"></trkpt>
   <trkpt lat="37.5871661" lon="127.0552369"></trkpt>
   <trkpt lat="37.5876838" lon="127.0553335"></trkpt>
   <trkpt lat="37.5877154" lon="127.0553287"></trkpt>
   <trkpt lat="37.5877154" lon="127.0553287"></trkpt>
   <trkpt lat="37.5877808" lon="127.0554733"></trkpt>
   <trkpt lat="37.5880258" lon="127.0559181"></trkpt>
   <trkpt lat="37.5882737" lon="127.0563969"></trkpt>
   <trkpt lat="37.5883692" lon="127.0566161"></trkpt>
   <trkpt lat="37.5884248" lon="127.056797"></trkpt>
   <trkpt lat="37.5884248" lon="127.056797"></trkpt>
   <trkpt lat="37.5885184" lon="127.0567636"></trkpt>
   <trkpt lat="37.5885571" lon="127.0567464"></trkpt>
   <trkpt lat="37.5886471" lon="127.0567062"></trkpt>
   <trkpt lat="37.5886471" lon="127.0567062"></trkpt>
   <trkpt lat="37.5886061" lon="127.0565728"></trkpt>
   <trkpt lat="37.5885751" lon="127.056488"></trkpt>
  </trkseg>
 </trk>
</gpx>
