<?xml version="1.0" encoding="UTF-8"?>
<gpx creator="daengrun-naver-route" version="1.1" xmlns="http://www.topografix.com/GPX/1/1" xmlns:xsi="http://www.w3.org/2001/XMLSchema-instance" xsi:schemaLocation="http://www.topografix.com/GPX/1/1 http://www.topografix.com/GPX/1/1/gpx.xsd">
 <metadata>
  <name>동대문 중랑천·도란도란 소공원 루프 4.09km</name>
  <desc>daengrun candidate geometry — measured 4.09km via Naver pedestrian router (o=flat, 계단회피). Elevation NOT available from this source. stairs=0 crosswalk=9 steppingstone=0 underpass=2 overpass=0</desc>
  <link href="naver:80q5e8"><text>daengrun route id</text></link>
  <copyright author="NAVER Corp."><license>https://map.naver.com/</license></copyright>
 </metadata>
 <trk>
  <name>동대문 중랑천·도란도란 소공원 루프 4.09km</name>
  <trkseg>
   <trkpt lat="37.6040043" lon="127.0664329"></trkpt>
   <trkpt lat="37.6040115" lon="127.066434"></trkpt>
   <trkpt lat="37.6040242" lon="127.0664373"></trkpt>
   <trkpt lat="37.604108" lon="127.0664368"></trkpt>
   <trkpt lat="37.6041912" lon="127.0665123"></trkpt>
   <trkpt lat="37.6041912" lon="127.0665123"></trkpt>
   <trkpt lat="37.6041916" lon="127.066621"></trkpt>
   <trkpt lat="37.6042181" lon="127.0667081"></trkpt>
   <trkpt lat="37.604249" lon="127.0667963"></trkpt>
   <trkpt lat="37.6042572" lon="127.0668189"></trkpt>
   <trkpt lat="37.6043184" lon="127.0670474"></trkpt>
   <trkpt lat="37.6043184" lon="127.0670474"></trkpt>
   <trkpt lat="37.6043031" lon="127.0670498"></trkpt>
   <trkpt lat="37.6036923" lon="127.0671292"></trkpt>
   <trkpt lat="37.6035139" lon="127.0671427"></trkpt>
   <trkpt lat="37.6032292" lon="127.0671704"></trkpt>
   <trkpt lat="37.6032292" lon="127.0671704"></trkpt>
   <trkpt lat="37.6032342" lon="127.0675726"></trkpt>
   <trkpt lat="37.6032342" lon="127.0675726"></trkpt>
   <trkpt lat="37.6043795" lon="127.067481"></trkpt>
   <trkpt lat="37.6046923" lon="127.0674814"></trkpt>
   <trkpt lat="37.6047112" lon="127.067479"></trkpt>
   <trkpt lat="37.6047112" lon="127.067479"></trkpt>
   <trkpt lat="37.6047313" lon="127.0675401"></trkpt>
   <trkpt lat="37.6047478" lon="127.0676204"></trkpt>
   <trkpt lat="37.6047473" lon="127.067736"></trkpt>
   <trkpt lat="37.6047473" lon="127.067736"></trkpt>
   <trkpt lat="37.6047836" lon="127.069783"></trkpt>
   <trkpt lat="37.6047836" lon="127.069783"></trkpt>
   <trkpt lat="37.604784" lon="127.0698759"></trkpt>
   <trkpt lat="37.6047706" lon="127.0699213"></trkpt>
   <trkpt lat="37.6047509" lon="127.0699429"></trkpt>
   <trkpt lat="37.6047275" lon="127.0699532"></trkpt>
   <trkpt lat="37.6046887" lon="127.0699535"></trkpt>
   <trkpt lat="37.6046887" lon="127.0699535"></trkpt>
   <trkpt lat="37.6046898" lon="127.0700101"></trkpt>
   <trkpt lat="37.6046864" lon="127.0700656"></trkpt>
   <trkpt lat="37.6046864" lon="127.0700656"></trkpt>
   <trkpt lat="37.6047477" lon="127.0700687"></trkpt>
   <trkpt lat="37.6047649" lon="127.0700788"></trkpt>
   <trkpt lat="37.6047784" lon="127.07009"></trkpt>
   <trkpt lat="37.6047884" lon="127.0701138"></trkpt>
   <trkpt lat="37.6047948" lon="127.0701364"></trkpt>
   <trkpt lat="37.6047907" lon="127.0704967"></trkpt>
   <trkpt lat="37.6047884" lon="127.0706055"></trkpt>
   <trkpt lat="37.6047884" lon="127.0706055"></trkpt>
   <trkpt lat="37.6047722" lon="127.0706078"></trkpt>
   <trkpt lat="37.6047434" lon="127.0706125"></trkpt>
   <trkpt lat="37.6045795" lon="127.0706554"></trkpt>
   <trkpt lat="37.6043472" lon="127.0707168"></trkpt>
   <trkpt lat="37.6040401" lon="127.0707967"></trkpt>
   <trkpt lat="37.6036852" lon="127.0708701"></trkpt>
   <trkpt lat="37.6032727" lon="127.0709461"></trkpt>
   <trkpt lat="37.6027115" lon="127.0710479"></trkpt>
   <trkpt lat="37.6027115" lon="127.0710479"></trkpt>
   <trkpt lat="37.6026616" lon="127.0711966"></trkpt>
   <trkpt lat="37.6026616" lon="127.0711966"></trkpt>
   <trkpt lat="37.6025841" lon="127.0712061"></trkpt>
   <trkpt lat="37.6022111" lon="127.0712445"></trkpt>
   <trkpt lat="37.6020678" lon="127.0712532"></trkpt>
   <trkpt lat="37.6017586" lon="127.071229"></trkpt>
   <trkpt lat="37.6017126" lon="127.0712281"></trkpt>
   <trkpt lat="37.6016576" lon="127.0712261"></trkpt>
   <trkpt lat="37.6016351" lon="127.0712331"></trkpt>
   <trkpt lat="37.6016126" lon="127.0712479"></trkpt>
   <trkpt lat="37.6016126" lon="127.0712479"></trkpt>
   <trkpt lat="37.6016001" lon="127.0712718"></trkpt>
   <trkpt lat="37.6015948" lon="127.0712933"></trkpt>
   <trkpt lat="37.6015913" lon="127.0713364"></trkpt>
   <trkpt lat="37.601607" lon="127.0719481"></trkpt>
   <trkpt lat="37.6016502" lon="127.0724021"></trkpt>
   <trkpt lat="37.6016532" lon="127.0727476"></trkpt>
   <trkpt lat="37.6016319" lon="127.0730729"></trkpt>
   <trkpt lat="37.6016288" lon="127.0734615"></trkpt>
   <trkpt lat="37.6016288" lon="127.0734615"></trkpt>
   <trkpt lat="37.6019208" lon="127.0734553"></trkpt>
   <trkpt lat="37.6019361" lon="127.0734541"></trkpt>
   <trkpt lat="37.6019415" lon="127.073445"></trkpt>
   <trkpt lat="37.6019441" lon="127.0734302"></trkpt>
   <trkpt lat="37.6019433" lon="127.0732184"></trkpt>
   <trkpt lat="37.6019352" lon="127.0732014"></trkpt>
   <trkpt lat="37.6019225" lon="127.0731879"></trkpt>
   <trkpt lat="37.6016789" lon="127.0731179"></trkpt>
   <trkpt lat="37.6016708" lon="127.0731157"></trkpt>
   <trkpt lat="37.6011221" lon="127.0729478"></trkpt>
   <trkpt lat="37.6010743" lon="127.0729413"></trkpt>
   <trkpt lat="37.6010455" lon="127.0729448"></trkpt>
   <trkpt lat="37.6010284" lon="127.0729585"></trkpt>
   <trkpt lat="37.6010178" lon="127.0729971"></trkpt>
   <trkpt lat="37.6010202" lon="127.0731738"></trkpt>
   <trkpt lat="37.6010202" lon="127.0731738"></trkpt>
   <trkpt lat="37.6013748" lon="127.0732692"></trkpt>
   <trkpt lat="37.6014118" lon="127.0732815"></trkpt>
   <trkpt lat="37.6016166" lon="127.0733449"></trkpt>
   <trkpt lat="37.6016455" lon="127.0733594"></trkpt>
   <trkpt lat="37.6018668" lon="127.0734975"></trkpt>
   <trkpt lat="37.6019814" lon="127.0735274"></trkpt>
   <trkpt lat="37.6024196" lon="127.073577"></trkpt>
   <trkpt lat="37.6028361" lon="127.0735985"></trkpt>
   <trkpt lat="37.6031055" lon="127.0735686"></trkpt>
   <trkpt lat="37.6032018" lon="127.0735205"></trkpt>
   <trkpt lat="37.6033223" lon="127.0734529"></trkpt>
   <trkpt lat="37.6033223" lon="127.0734529"></trkpt>
   <trkpt lat="37.6032471" lon="127.073331"></trkpt>
   <trkpt lat="37.603227" lon="127.0732586"></trkpt>
   <trkpt lat="37.6032456" lon="127.0731634"></trkpt>
   <trkpt lat="37.6033111" lon="127.0730859"></trkpt>
   <trkpt lat="37.6038613" lon="127.0729525"></trkpt>
   <trkpt lat="37.6046881" lon="127.0727733"></trkpt>
   <trkpt lat="37.6046881" lon="127.0727733"></trkpt>
   <trkpt lat="37.6038613" lon="127.0729525"></trkpt>
   <trkpt lat="37.6033111" lon="127.0730859"></trkpt>
   <trkpt lat="37.6032456" lon="127.0731634"></trkpt>
   <trkpt lat="37.603227" lon="127.0732586"></trkpt>
   <trkpt lat="37.6032471" lon="127.073331"></trkpt>
   <trkpt lat="37.6033223" lon="127.0734529"></trkpt>
   <trkpt lat="37.6033223" lon="127.0734529"></trkpt>
   <trkpt lat="37.6032018" lon="127.0735205"></trkpt>
   <trkpt lat="37.6031055" lon="127.0735686"></trkpt>
   <trkpt lat="37.6028361" lon="127.0735985"></trkpt>
   <trkpt lat="37.6024196" lon="127.073577"></trkpt>
   <trkpt lat="37.6019814" lon="127.0735274"></trkpt>
   <trkpt lat="37.6018668" lon="127.0734975"></trkpt>
   <trkpt lat="37.6016455" lon="127.0733594"></trkpt>
   <trkpt lat="37.6016166" lon="127.0733449"></trkpt>
   <trkpt lat="37.6014118" lon="127.0732815"></trkpt>
   <trkpt lat="37.6013748" lon="127.0732692"></trkpt>
   <trkpt lat="37.6010202" lon="127.0731738"></trkpt>
   <trkpt lat="37.6010202" lon="127.0731738"></trkpt>
   <trkpt lat="37.6010178" lon="127.0729971"></trkpt>
   <trkpt lat="37.6010284" lon="127.0729585"></trkpt>
   <trkpt lat="37.6010455" lon="127.0729448"></trkpt>
   <trkpt lat="37.6010743" lon="127.0729413"></trkpt>
   <trkpt lat="37.6011221" lon="127.0729478"></trkpt>
   <trkpt lat="37.6016708" lon="127.0731157"></trkpt>
   <trkpt lat="37.6016789" lon="127.0731179"></trkpt>
   <trkpt lat="37.6019225" lon="127.0731879"></trkpt>
   <trkpt lat="37.6019352" lon="127.0732014"></trkpt>
   <trkpt lat="37.6019433" lon="127.0732184"></trkpt>
   <trkpt lat="37.6019441" lon="127.0734302"></trkpt>
   <trkpt lat="37.6019415" lon="127.073445"></trkpt>
   <trkpt lat="37.6019361" lon="127.0734541"></trkpt>
   <trkpt lat="37.6019208" lon="127.0734553"></trkpt>
   <trkpt lat="37.6016288" lon="127.0734615"></trkpt>
   <trkpt lat="37.6016288" lon="127.0734615"></trkpt>
   <trkpt lat="37.6016319" lon="127.0730729"></trkpt>
   <trkpt lat="37.6016532" lon="127.0727476"></trkpt>
   <trkpt lat="37.6016502" lon="127.0724021"></trkpt>
   <trkpt lat="37.601607" lon="127.0719481"></trkpt>
   <trkpt lat="37.6015913" lon="127.0713364"></trkpt>
   <trkpt lat="37.6015948" lon="127.0712933"></trkpt>
   <trkpt lat="37.6016001" lon="127.0712718"></trkpt>
   <trkpt lat="37.6016126" lon="127.0712479"></trkpt>
   <trkpt lat="37.6016126" lon="127.0712479"></trkpt>
   <trkpt lat="37.6016351" lon="127.0712331"></trkpt>
   <trkpt lat="37.6016576" lon="127.0712261"></trkpt>
   <trkpt lat="37.6017126" lon="127.0712281"></trkpt>
   <trkpt lat="37.6017586" lon="127.071229"></trkpt>
   <trkpt lat="37.6020678" lon="127.0712532"></trkpt>
   <trkpt lat="37.6022111" lon="127.0712445"></trkpt>
   <trkpt lat="37.6025841" lon="127.0712061"></trkpt>
   <trkpt lat="37.6026616" lon="127.0711966"></trkpt>
   <trkpt lat="37.6026616" lon="127.0711966"></trkpt>
   <trkpt lat="37.6027115" lon="127.0710479"></trkpt>
   <trkpt lat="37.6027115" lon="127.0710479"></trkpt>
   <trkpt lat="37.6032727" lon="127.0709461"></trkpt>
   <trkpt lat="37.6036852" lon="127.0708701"></trkpt>
   <trkpt lat="37.6040401" lon="127.0707967"></trkpt>
   <trkpt lat="37.6043472" lon="127.0707168"></trkpt>
   <trkpt lat="37.6045795" lon="127.0706554"></trkpt>
   <trkpt lat="37.6047434" lon="127.0706125"></trkpt>
   <trkpt lat="37.6047722" lon="127.0706078"></trkpt>
   <trkpt lat="37.6047884" lon="127.0706055"></trkpt>
   <trkpt lat="37.6047884" lon="127.0706055"></trkpt>
   <trkpt lat="37.6047907" lon="127.0704967"></trkpt>
   <trkpt lat="37.6047948" lon="127.0701364"></trkpt>
   <trkpt lat="37.6047884" lon="127.0701138"></trkpt>
   <trkpt lat="37.6047784" lon="127.07009"></trkpt>
   <trkpt lat="37.6047649" lon="127.0700788"></trkpt>
   <trkpt lat="37.6047477" lon="127.0700687"></trkpt>
   <trkpt lat="37.6046864" lon="127.0700656"></trkpt>
   <trkpt lat="37.6046864" lon="127.0700656"></trkpt>
   <trkpt lat="37.6046898" lon="127.0700101"></trkpt>
   <trkpt lat="37.6046887" lon="127.0699535"></trkpt>
   <trkpt lat="37.6046887" lon="127.0699535"></trkpt>
   <trkpt lat="37.6047275" lon="127.0699532"></trkpt>
   <trkpt lat="37.6047509" lon="127.0699429"></trkpt>
   <trkpt lat="37.6047706" lon="127.0699213"></trkpt>
   <trkpt lat="37.604784" lon="127.0698759"></trkpt>
   <trkpt lat="37.6047836" lon="127.069783"></trkpt>
   <trkpt lat="37.6047836" lon="127.069783"></trkpt>
   <trkpt lat="37.6047473" lon="127.067736"></trkpt>
   <trkpt lat="37.6047473" lon="127.067736"></trkpt>
   <trkpt lat="37.6047478" lon="127.0676204"></trkpt>
   <trkpt lat="37.6047313" lon="127.0675401"></trkpt>
   <trkpt lat="37.6047112" lon="127.067479"></trkpt>
   <trkpt lat="37.6047112" lon="127.067479"></trkpt>
   <trkpt lat="37.60495" lon="127.0674663"></trkpt>
   <trkpt lat="37.60495" lon="127.0674663"></trkpt>
   <trkpt lat="37.6049888" lon="127.0674661"></trkpt>
   <trkpt lat="37.6054043" lon="127.0674637"></trkpt>
   <trkpt lat="37.6055007" lon="127.0674631"></trkpt>
   <trkpt lat="37.6055007" lon="127.0674631"></trkpt>
   <trkpt lat="37.6054977" lon="127.0673759"></trkpt>
   <trkpt lat="37.6054964" lon="127.067274"></trkpt>
   <trkpt lat="37.6054964" lon="127.067274"></trkpt>
   <trkpt lat="37.6054171" lon="127.0672676"></trkpt>
   <trkpt lat="37.6053547" lon="127.0672034"></trkpt>
   <trkpt lat="37.6053283" lon="127.0671492"></trkpt>
   <trkpt lat="37.6053283" lon="127.0671492"></trkpt>
   <trkpt lat="37.605337" lon="127.0670472"></trkpt>
   <trkpt lat="37.6053782" lon="127.0669937"></trkpt>
   <trkpt lat="37.6059298" lon="127.0667299"></trkpt>
   <trkpt lat="37.6059298" lon="127.0667299"></trkpt>
   <trkpt lat="37.6058969" lon="127.0666179"></trkpt>
   <trkpt lat="37.6058613" lon="127.0664901"></trkpt>
   <trkpt lat="37.6058613" lon="127.0664901"></trkpt>
   <trkpt lat="37.6059567" lon="127.0664431"></trkpt>
   <trkpt lat="37.6058154" lon="127.0662751"></trkpt>
   <trkpt lat="37.6057666" lon="127.066238"></trkpt>
   <trkpt lat="37.6055654" lon="127.0661667"></trkpt>
   <trkpt lat="37.6055654" lon="127.0661667"></trkpt>
   <trkpt lat="37.6055786" lon="127.0660941"></trkpt>
   <trkpt lat="37.6055542" lon="127.0658291"></trkpt>
   <trkpt lat="37.6055542" lon="127.0658291"></trkpt>
   <trkpt lat="37.6055047" lon="127.0658396"></trkpt>
   <trkpt lat="37.6054713" lon="127.0658432"></trkpt>
   <trkpt lat="37.6054713" lon="127.0658432"></trkpt>
   <trkpt lat="37.6054356" lon="127.0656859"></trkpt>
   <trkpt lat="37.6054317" lon="127.0655976"></trkpt>
   <trkpt lat="37.6054358" lon="127.0655024"></trkpt>
   <trkpt lat="37.6054643" lon="127.0654105"></trkpt>
   <trkpt lat="37.6055091" lon="127.0653275"></trkpt>
   <trkpt lat="37.6056024" lon="127.0652114"></trkpt>
   <trkpt lat="37.6056024" lon="127.0652114"></trkpt>
   <trkpt lat="37.6055091" lon="127.0653275"></trkpt>
   <trkpt lat="37.6054643" lon="127.0654105"></trkpt>
   <trkpt lat="37.6054358" lon="127.0655024"></trkpt>
   <trkpt lat="37.6054317" lon="127.0655976"></trkpt>
   <trkpt lat="37.6054356" lon="127.0656859"></trkpt>
   <trkpt lat="37.6054713" lon="127.0658432"></trkpt>
   <trkpt lat="37.605489" lon="127.0659904"></trkpt>
   <trkpt lat="37.6054829" lon="127.0660539"></trkpt>
   <trkpt lat="37.6054625" lon="127.0661254"></trkpt>
   <trkpt lat="37.6054044" lon="127.0662628"></trkpt>
   <trkpt lat="37.6053103" lon="127.0664049"></trkpt>
   <trkpt lat="37.60518" lon="127.0665156"></trkpt>
   <trkpt lat="37.6051611" lon="127.0665316"></trkpt>
   <trkpt lat="37.6049743" lon="127.0667116"></trkpt>
   <trkpt lat="37.6049475" lon="127.0667707"></trkpt>
   <trkpt lat="37.604943" lon="127.0667843"></trkpt>
   <trkpt lat="37.6048878" lon="127.0669773"></trkpt>
   <trkpt lat="37.6048591" lon="127.0669967"></trkpt>
   <trkpt lat="37.6048051" lon="127.0670197"></trkpt>
   <trkpt lat="37.6047456" lon="127.0670347"></trkpt>
   <trkpt lat="37.6046871" lon="127.0670373"></trkpt>
   <trkpt lat="37.6046294" lon="127.0670365"></trkpt>
   <trkpt lat="37.6045969" lon="127.0670299"></trkpt>
   <trkpt lat="37.6045671" lon="127.0670244"></trkpt>
   <trkpt lat="37.6045554" lon="127.06702"></trkpt>
   <trkpt lat="37.6045428" lon="127.0670155"></trkpt>
   <trkpt lat="37.6045301" lon="127.067011"></trkpt>
   <trkpt lat="37.6044913" lon="127.0669886"></trkpt>
   <trkpt lat="37.6044913" lon="127.0669886"></trkpt>
   <trkpt lat="37.6044423" lon="127.0669017"></trkpt>
   <trkpt lat="37.6043706" lon="127.0667571"></trkpt>
   <trkpt lat="37.6043497" lon="127.0667164"></trkpt>
   <trkpt lat="37.6043179" lon="127.0666429"></trkpt>
   <trkpt lat="37.6042861" lon="127.0665797"></trkpt>
   <trkpt lat="37.6042679" lon="127.0665413"></trkpt>
   <trkpt lat="37.6041912" lon="127.0665123"></trkpt>
   <trkpt lat="37.604108" lon="127.0664368"></trkpt>
   <trkpt lat="37.6040242" lon="127.0664373"></trkpt>
   <trkpt lat="37.6040115" lon="127.066434"></trkpt>
   <trkpt lat="37.6040043" lon="127.0664329"></trkpt>
  </trkseg>
 </trk>
</gpx>
