<?xml version="1.0" encoding="UTF-8"?>
<gpx creator="daengrun-naver-route" version="1.1" xmlns="http://www.topografix.com/GPX/1/1" xmlns:xsi="http://www.w3.org/2001/XMLSchema-instance" xsi:schemaLocation="http://www.topografix.com/GPX/1/1 http://www.topografix.com/GPX/1/1/gpx.xsd">
 <metadata>
  <name>동작 대방천·옥만호 루프 3.44km</name>
  <desc>daengrun candidate geometry — measured 3.44km via Naver pedestrian router (o=flat, 계단회피). Elevation NOT available from this source. stairs=0 crosswalk=6 steppingstone=0 underpass=0 overpass=0</desc>
  <link href="naver:1nwx3jx"><text>daengrun route id</text></link>
  <copyright author="NAVER Corp."><license>https://map.naver.com/</license></copyright>
 </metadata>
 <trk>
  <name>동작 대방천·옥만호 루프 3.44km</name>
  <trkseg>
   <trkpt lat="37.4960665" lon="126.9135908"></trkpt>
   <trkpt lat="37.4960037" lon="126.9131139"></trkpt>
   <trkpt lat="37.4959802" lon="126.9129263"></trkpt>
   <trkpt lat="37.4959999" lon="126.9128866"></trkpt>
   <trkpt lat="37.496124" lon="126.912829"></trkpt>
   <trkpt lat="37.4961365" lon="126.9128075"></trkpt>
   <trkpt lat="37.4963177" lon="126.9128094"></trkpt>
   <trkpt lat="37.4963177" lon="126.9128094"></trkpt>
   <trkpt lat="37.496458" lon="126.9140312"></trkpt>
   <trkpt lat="37.4964696" lon="126.9141839"></trkpt>
   <trkpt lat="37.4964754" lon="126.9142619"></trkpt>
   <trkpt lat="37.4964754" lon="126.9142619"></trkpt>
   <trkpt lat="37.4964794" lon="126.9143388"></trkpt>
   <trkpt lat="37.4964842" lon="126.9143964"></trkpt>
   <trkpt lat="37.4964842" lon="126.9143964"></trkpt>
   <trkpt lat="37.4965597" lon="126.9150882"></trkpt>
   <trkpt lat="37.4965913" lon="126.9152701"></trkpt>
   <trkpt lat="37.4965913" lon="126.9152723"></trkpt>
   <trkpt lat="37.4967175" lon="126.9158223"></trkpt>
   <trkpt lat="37.4967728" lon="126.9160696"></trkpt>
   <trkpt lat="37.4968217" lon="126.9162944"></trkpt>
   <trkpt lat="37.4968595" lon="126.9164683"></trkpt>
   <trkpt lat="37.4969178" lon="126.9167801"></trkpt>
   <trkpt lat="37.4970293" lon="126.9172838"></trkpt>
   <trkpt lat="37.4970234" lon="126.9173528"></trkpt>
   <trkpt lat="37.4970038" lon="126.9174016"></trkpt>
   <trkpt lat="37.4969823" lon="126.9174323"></trkpt>
   <trkpt lat="37.4969572" lon="126.9174619"></trkpt>
   <trkpt lat="37.4969572" lon="126.9174619"></trkpt>
   <trkpt lat="37.4969848" lon="126.9175715"></trkpt>
   <trkpt lat="37.4970107" lon="126.9177149"></trkpt>
   <trkpt lat="37.4970107" lon="126.9177149"></trkpt>
   <trkpt lat="37.4970468" lon="126.9177237"></trkpt>
   <trkpt lat="37.497074" lon="126.917745"></trkpt>
   <trkpt lat="37.4971003" lon="126.9177889"></trkpt>
   <trkpt lat="37.4971105" lon="126.9178431"></trkpt>
   <trkpt lat="37.4973117" lon="126.9187884"></trkpt>
   <trkpt lat="37.4973402" lon="126.9189047"></trkpt>
   <trkpt lat="37.4973954" lon="126.9191272"></trkpt>
   <trkpt lat="37.4975517" lon="126.9197652"></trkpt>
   <trkpt lat="37.4975517" lon="126.9197652"></trkpt>
   <trkpt lat="37.4976367" lon="126.9198086"></trkpt>
   <trkpt lat="37.4977134" lon="126.9200128"></trkpt>
   <trkpt lat="37.4977134" lon="126.9200128"></trkpt>
   <trkpt lat="37.4977647" lon="126.92"></trkpt>
   <trkpt lat="37.4978144" lon="126.9200312"></trkpt>
   <trkpt lat="37.4978788" lon="126.920102"></trkpt>
   <trkpt lat="37.4980301" lon="126.9202604"></trkpt>
   <trkpt lat="37.4981232" lon="126.9203105"></trkpt>
   <trkpt lat="37.4982226" lon="126.9203641"></trkpt>
   <trkpt lat="37.4983734" lon="126.9204172"></trkpt>
   <trkpt lat="37.4983734" lon="126.9204172"></trkpt>
   <trkpt lat="37.4981802" lon="126.920912"></trkpt>
   <trkpt lat="37.4981419" lon="126.9210175"></trkpt>
   <trkpt lat="37.4981064" lon="126.9211139"></trkpt>
   <trkpt lat="37.4981064" lon="126.9211139"></trkpt>
   <trkpt lat="37.4981419" lon="126.9210175"></trkpt>
   <trkpt lat="37.4981802" lon="126.920912"></trkpt>
   <trkpt lat="37.4983734" lon="126.9204172"></trkpt>
   <trkpt lat="37.4983734" lon="126.9204172"></trkpt>
   <trkpt lat="37.4982226" lon="126.9203641"></trkpt>
   <trkpt lat="37.4981232" lon="126.9203105"></trkpt>
   <trkpt lat="37.4980301" lon="126.9202604"></trkpt>
   <trkpt lat="37.4978788" lon="126.920102"></trkpt>
   <trkpt lat="37.4978144" lon="126.9200312"></trkpt>
   <trkpt lat="37.4977647" lon="126.92"></trkpt>
   <trkpt lat="37.4977134" lon="126.9200128"></trkpt>
   <trkpt lat="37.4977134" lon="126.9200128"></trkpt>
   <trkpt lat="37.4976367" lon="126.9198086"></trkpt>
   <trkpt lat="37.4975517" lon="126.9197652"></trkpt>
   <trkpt lat="37.4975517" lon="126.9197652"></trkpt>
   <trkpt lat="37.4973954" lon="126.9191272"></trkpt>
   <trkpt lat="37.4973402" lon="126.9189047"></trkpt>
   <trkpt lat="37.4973117" lon="126.9187884"></trkpt>
   <trkpt lat="37.4971105" lon="126.9178431"></trkpt>
   <trkpt lat="37.4971003" lon="126.9177889"></trkpt>
   <trkpt lat="37.497074" lon="126.917745"></trkpt>
   <trkpt lat="37.497074" lon="126.917745"></trkpt>
   <trkpt lat="37.4970468" lon="126.9177237"></trkpt>
   <trkpt lat="37.4970107" lon="126.9177149"></trkpt>
   <trkpt lat="37.4958969" lon="126.9181184"></trkpt>
   <trkpt lat="37.4955882" lon="126.9182305"></trkpt>
   <trkpt lat="37.4953489" lon="126.9183161"></trkpt>
   <trkpt lat="37.4952031" lon="126.9183704"></trkpt>
   <trkpt lat="37.4951438" lon="126.9183912"></trkpt>
   <trkpt lat="37.4951177" lon="126.9184005"></trkpt>
   <trkpt lat="37.4947163" lon="126.9185382"></trkpt>
   <trkpt lat="37.4946011" lon="126.9185753"></trkpt>
   <trkpt lat="37.4944158" lon="126.9186355"></trkpt>
   <trkpt lat="37.4943743" lon="126.9186393"></trkpt>
   <trkpt lat="37.4943644" lon="126.9186292"></trkpt>
   <trkpt lat="37.4943644" lon="126.9186292"></trkpt>
   <trkpt lat="37.4943736" lon="126.9186709"></trkpt>
   <trkpt lat="37.4937554" lon="126.9188782"></trkpt>
   <trkpt lat="37.4937554" lon="126.9188782"></trkpt>
   <trkpt lat="37.4936413" lon="126.9187863"></trkpt>
   <trkpt lat="37.4936413" lon="126.9187863"></trkpt>
   <trkpt lat="37.4935567" lon="126.918813"></trkpt>
   <trkpt lat="37.4935234" lon="126.9188235"></trkpt>
   <trkpt lat="37.4934641" lon="126.9188499"></trkpt>
   <trkpt lat="37.4933739" lon="126.9188359"></trkpt>
   <trkpt lat="37.4933758" lon="126.9188574"></trkpt>
   <trkpt lat="37.493368" lon="126.9189163"></trkpt>
   <trkpt lat="37.4932929" lon="126.9188694"></trkpt>
   <trkpt lat="37.4932341" lon="126.9188212"></trkpt>
   <trkpt lat="37.4930703" lon="126.9186867"></trkpt>
   <trkpt lat="37.4930033" lon="126.9186318"></trkpt>
   <trkpt lat="37.4926585" lon="126.9183437"></trkpt>
   <trkpt lat="37.4925589" lon="126.9182551"></trkpt>
   <trkpt lat="37.492491" lon="126.9181957"></trkpt>
   <trkpt lat="37.4923958" lon="126.9180845"></trkpt>
   <trkpt lat="37.4923179" lon="126.9179946"></trkpt>
   <trkpt lat="37.4922552" lon="126.9179068"></trkpt>
   <trkpt lat="37.4922144" lon="126.9178494"></trkpt>
   <trkpt lat="37.492137" lon="126.9178851"></trkpt>
   <trkpt lat="37.4920815" lon="126.9175926"></trkpt>
   <trkpt lat="37.4920815" lon="126.9175926"></trkpt>
   <trkpt lat="37.4921633" lon="126.9175478"></trkpt>
   <trkpt lat="37.4922054" lon="126.9174966"></trkpt>
   <trkpt lat="37.4922265" lon="126.9173856"></trkpt>
   <trkpt lat="37.4922227" lon="126.9173313"></trkpt>
   <trkpt lat="37.4921974" lon="126.9169706"></trkpt>
   <trkpt lat="37.4921874" lon="126.9169436"></trkpt>
   <trkpt lat="37.4920922" lon="126.9166604"></trkpt>
   <trkpt lat="37.4920225" lon="126.9165851"></trkpt>
   <trkpt lat="37.4919818" lon="126.9165628"></trkpt>
   <trkpt lat="37.491867" lon="126.916497"></trkpt>
   <trkpt lat="37.4916304" lon="126.9165814"></trkpt>
   <trkpt lat="37.4915539" lon="126.9166114"></trkpt>
   <trkpt lat="37.4914703" lon="126.9166675"></trkpt>
   <trkpt lat="37.4914695" lon="126.9166686"></trkpt>
   <trkpt lat="37.4914695" lon="126.9166686"></trkpt>
   <trkpt lat="37.4914703" lon="126.9166675"></trkpt>
   <trkpt lat="37.4915539" lon="126.9166114"></trkpt>
   <trkpt lat="37.4916304" lon="126.9165814"></trkpt>
   <trkpt lat="37.491867" lon="126.916497"></trkpt>
   <trkpt lat="37.4919818" lon="126.9165628"></trkpt>
   <trkpt lat="37.4920225" lon="126.9165851"></trkpt>
   <trkpt lat="37.4920922" lon="126.9166604"></trkpt>
   <trkpt lat="37.4921874" lon="126.9169436"></trkpt>
   <trkpt lat="37.4921974" lon="126.9169706"></trkpt>
   <trkpt lat="37.4922227" lon="126.9173313"></trkpt>
   <trkpt lat="37.4922265" lon="126.9173856"></trkpt>
   <trkpt lat="37.4922054" lon="126.9174966"></trkpt>
   <trkpt lat="37.4921633" lon="126.9175478"></trkpt>
   <trkpt lat="37.4920815" lon="126.9175926"></trkpt>
   <trkpt lat="37.4920815" lon="126.9175926"></trkpt>
   <trkpt lat="37.492137" lon="126.9178851"></trkpt>
   <trkpt lat="37.4922144" lon="126.9178494"></trkpt>
   <trkpt lat="37.4922552" lon="126.9179068"></trkpt>
   <trkpt lat="37.4923179" lon="126.9179946"></trkpt>
   <trkpt lat="37.4923958" lon="126.9180845"></trkpt>
   <trkpt lat="37.492491" lon="126.9181957"></trkpt>
   <trkpt lat="37.4925589" lon="126.9182551"></trkpt>
   <trkpt lat="37.4926585" lon="126.9183437"></trkpt>
   <trkpt lat="37.4930033" lon="126.9186318"></trkpt>
   <trkpt lat="37.4930703" lon="126.9186867"></trkpt>
   <trkpt lat="37.4932341" lon="126.9188212"></trkpt>
   <trkpt lat="37.4932929" lon="126.9188694"></trkpt>
   <trkpt lat="37.493368" lon="126.9189163"></trkpt>
   <trkpt lat="37.4933758" lon="126.9188574"></trkpt>
   <trkpt lat="37.4933739" lon="126.9188359"></trkpt>
   <trkpt lat="37.4934641" lon="126.9188499"></trkpt>
   <trkpt lat="37.4935234" lon="126.9188235"></trkpt>
   <trkpt lat="37.4935567" lon="126.918813"></trkpt>
   <trkpt lat="37.4936413" lon="126.9187863"></trkpt>
   <trkpt lat="37.4936413" lon="126.9187863"></trkpt>
   <trkpt lat="37.4937554" lon="126.9188782"></trkpt>
   <trkpt lat="37.4937554" lon="126.9188782"></trkpt>
   <trkpt lat="37.4943736" lon="126.9186709"></trkpt>
   <trkpt lat="37.4943644" lon="126.9186292"></trkpt>
   <trkpt lat="37.4943644" lon="126.9186292"></trkpt>
   <trkpt lat="37.4943743" lon="126.9186393"></trkpt>
   <trkpt lat="37.4944158" lon="126.9186355"></trkpt>
   <trkpt lat="37.4946011" lon="126.9185753"></trkpt>
   <trkpt lat="37.4947163" lon="126.9185382"></trkpt>
   <trkpt lat="37.4951177" lon="126.9184005"></trkpt>
   <trkpt lat="37.4951438" lon="126.9183912"></trkpt>
   <trkpt lat="37.4952031" lon="126.9183704"></trkpt>
   <trkpt lat="37.4953489" lon="126.9183161"></trkpt>
   <trkpt lat="37.4953489" lon="126.9183161"></trkpt>
   <trkpt lat="37.4953009" lon="126.918097"></trkpt>
   <trkpt lat="37.4953009" lon="126.918097"></trkpt>
   <trkpt lat="37.4955376" lon="126.9180058"></trkpt>
   <trkpt lat="37.4958093" lon="126.9179019"></trkpt>
   <trkpt lat="37.4969572" lon="126.9174619"></trkpt>
   <trkpt lat="37.4969823" lon="126.9174323"></trkpt>
   <trkpt lat="37.4970038" lon="126.9174016"></trkpt>
   <trkpt lat="37.4970038" lon="126.9174016"></trkpt>
   <trkpt lat="37.4970234" lon="126.9173528"></trkpt>
   <trkpt lat="37.4970293" lon="126.9172838"></trkpt>
   <trkpt lat="37.4969178" lon="126.9167801"></trkpt>
   <trkpt lat="37.4968595" lon="126.9164683"></trkpt>
   <trkpt lat="37.4968217" lon="126.9162944"></trkpt>
   <trkpt lat="37.4967728" lon="126.9160696"></trkpt>
   <trkpt lat="37.4967175" lon="126.9158223"></trkpt>
   <trkpt lat="37.4965913" lon="126.9152723"></trkpt>
   <trkpt lat="37.4965913" lon="126.9152701"></trkpt>
   <trkpt lat="37.4965597" lon="126.9150882"></trkpt>
   <trkpt lat="37.4964842" lon="126.9143964"></trkpt>
   <trkpt lat="37.4964842" lon="126.9143964"></trkpt>
   <trkpt lat="37.4964794" lon="126.9143388"></trkpt>
   <trkpt lat="37.4964754" lon="126.9142619"></trkpt>
   <trkpt lat="37.4964754" lon="126.9142619"></trkpt>
   <trkpt lat="37.4964696" lon="126.9141839"></trkpt>
   <trkpt lat="37.496458" lon="126.9140312"></trkpt>
   <trkpt lat="37.4963177" lon="126.9128094"></trkpt>
   <trkpt lat="37.4963177" lon="126.9128094"></trkpt>
   <trkpt lat="37.4961365" lon="126.9128075"></trkpt>
   <trkpt lat="37.496124" lon="126.912829"></trkpt>
   <trkpt lat="37.4959999" lon="126.9128866"></trkpt>
   <trkpt lat="37.4959802" lon="126.9129263"></trkpt>
   <trkpt lat="37.4960037" lon="126.9131139"></trkpt>
   <trkpt lat="37.4960665" lon="126.9135908"></trkpt>
  </trkseg>
 </trk>
</gpx>
