<?xml version="1.0" encoding="UTF-8"?>
<gpx creator="daengrun-naver-route" version="1.1" xmlns="http://www.topografix.com/GPX/1/1" xmlns:xsi="http://www.w3.org/2001/XMLSchema-instance" xsi:schemaLocation="http://www.topografix.com/GPX/1/1 http://www.topografix.com/GPX/1/1/gpx.xsd">
 <metadata>
  <name>동작 분수광장·뒷벌공원 루프 6.74km</name>
  <desc>daengrun candidate geometry — measured 6.74km via Naver pedestrian router (o=flat, 계단회피). Elevation NOT available from this source. stairs=0 crosswalk=8 steppingstone=0 underpass=1 overpass=0</desc>
  <link href="naver:cxycye"><text>daengrun route id</text></link>
  <copyright author="NAVER Corp."><license>https://map.naver.com/</license></copyright>
 </metadata>
 <trk>
  <name>동작 분수광장·뒷벌공원 루프 6.74km</name>
  <trkseg>
   <trkpt lat="37.4933326" lon="126.9795711"></trkpt>
   <trkpt lat="37.4933317" lon="126.979579"></trkpt>
   <trkpt lat="37.4932236" lon="126.9797958"></trkpt>
   <trkpt lat="37.4931957" lon="126.9798017"></trkpt>
   <trkpt lat="37.4931632" lon="126.9797917"></trkpt>
   <trkpt lat="37.4930898" lon="126.9797165"></trkpt>
   <trkpt lat="37.4930217" lon="126.9795891"></trkpt>
   <trkpt lat="37.4930205" lon="126.979519"></trkpt>
   <trkpt lat="37.4930534" lon="126.9794328"></trkpt>
   <trkpt lat="37.4931289" lon="126.9793757"></trkpt>
   <trkpt lat="37.4932061" lon="126.9793107"></trkpt>
   <trkpt lat="37.4932518" lon="126.9792481"></trkpt>
   <trkpt lat="37.4933322" lon="126.9790881"></trkpt>
   <trkpt lat="37.4933322" lon="126.9790881"></trkpt>
   <trkpt lat="37.493249" lon="126.9790151"></trkpt>
   <trkpt lat="37.493249" lon="126.9790151"></trkpt>
   <trkpt lat="37.493179" lon="126.979097"></trkpt>
   <trkpt lat="37.4929835" lon="126.9793066"></trkpt>
   <trkpt lat="37.4927958" lon="126.979473"></trkpt>
   <trkpt lat="37.4927958" lon="126.979473"></trkpt>
   <trkpt lat="37.4928249" lon="126.9795237"></trkpt>
   <trkpt lat="37.4928462" lon="126.9796559"></trkpt>
   <trkpt lat="37.4928883" lon="126.9797948"></trkpt>
   <trkpt lat="37.4928975" lon="126.9798434"></trkpt>
   <trkpt lat="37.4928978" lon="126.9799101"></trkpt>
   <trkpt lat="37.4928878" lon="126.9801013"></trkpt>
   <trkpt lat="37.4928937" lon="126.9802031"></trkpt>
   <trkpt lat="37.4929147" lon="126.9802708"></trkpt>
   <trkpt lat="37.4929175" lon="126.9802799"></trkpt>
   <trkpt lat="37.4929429" lon="126.9803317"></trkpt>
   <trkpt lat="37.4929566" lon="126.9803599"></trkpt>
   <trkpt lat="37.4930291" lon="126.9804465"></trkpt>
   <trkpt lat="37.4930581" lon="126.9804814"></trkpt>
   <trkpt lat="37.4931142" lon="126.98055"></trkpt>
   <trkpt lat="37.4931505" lon="126.980595"></trkpt>
   <trkpt lat="37.4931886" lon="126.9806411"></trkpt>
   <trkpt lat="37.4932049" lon="126.9806614"></trkpt>
   <trkpt lat="37.4933334" lon="126.9807917"></trkpt>
   <trkpt lat="37.4934094" lon="126.9808613"></trkpt>
   <trkpt lat="37.4935594" lon="126.9809395"></trkpt>
   <trkpt lat="37.4937654" lon="126.9810534"></trkpt>
   <trkpt lat="37.4937654" lon="126.9810534"></trkpt>
   <trkpt lat="37.4937692" lon="126.9810862"></trkpt>
   <trkpt lat="37.4937831" lon="126.9811732"></trkpt>
   <trkpt lat="37.4938559" lon="126.9815483"></trkpt>
   <trkpt lat="37.4938573" lon="126.9816444"></trkpt>
   <trkpt lat="37.493855" lon="126.9817349"></trkpt>
   <trkpt lat="37.4937683" lon="126.9825206"></trkpt>
   <trkpt lat="37.4937683" lon="126.9825206"></trkpt>
   <trkpt lat="37.4935952" lon="126.9825128"></trkpt>
   <trkpt lat="37.4932066" lon="126.9825007"></trkpt>
   <trkpt lat="37.4913135" lon="126.982429"></trkpt>
   <trkpt lat="37.4912323" lon="126.9824307"></trkpt>
   <trkpt lat="37.4910458" lon="126.9824285"></trkpt>
   <trkpt lat="37.4909592" lon="126.982428"></trkpt>
   <trkpt lat="37.4909277" lon="126.9824282"></trkpt>
   <trkpt lat="37.4909277" lon="126.9824282"></trkpt>
   <trkpt lat="37.4908429" lon="126.9824266"></trkpt>
   <trkpt lat="37.4908429" lon="126.9824266"></trkpt>
   <trkpt lat="37.4907366" lon="126.982425"></trkpt>
   <trkpt lat="37.4906428" lon="126.9824245"></trkpt>
   <trkpt lat="37.4900875" lon="126.982399"></trkpt>
   <trkpt lat="37.489817" lon="126.9823782"></trkpt>
   <trkpt lat="37.489771" lon="126.9823695"></trkpt>
   <trkpt lat="37.4894832" lon="126.982316"></trkpt>
   <trkpt lat="37.4884583" lon="126.9821048"></trkpt>
   <trkpt lat="37.4883546" lon="126.9820863"></trkpt>
   <trkpt lat="37.4881508" lon="126.9820639"></trkpt>
   <trkpt lat="37.4880101" lon="126.9820502"></trkpt>
   <trkpt lat="37.4879623" lon="126.9820471"></trkpt>
   <trkpt lat="37.4876008" lon="126.9820168"></trkpt>
   <trkpt lat="37.4876008" lon="126.9820168"></trkpt>
   <trkpt lat="37.487553" lon="126.982016"></trkpt>
   <trkpt lat="37.4875313" lon="126.9820139"></trkpt>
   <trkpt lat="37.4875313" lon="126.9820139"></trkpt>
   <trkpt lat="37.4869129" lon="126.9819842"></trkpt>
   <trkpt lat="37.4867822" lon="126.9819784"></trkpt>
   <trkpt lat="37.4865631" lon="126.9819674"></trkpt>
   <trkpt lat="37.4863413" lon="126.9819543"></trkpt>
   <trkpt lat="37.486106" lon="126.9819378"></trkpt>
   <trkpt lat="37.4859788" lon="126.9819307"></trkpt>
   <trkpt lat="37.4858959" lon="126.9819234"></trkpt>
   <trkpt lat="37.4857794" lon="126.9818744"></trkpt>
   <trkpt lat="37.485606" lon="126.9817919"></trkpt>
   <trkpt lat="37.4855653" lon="126.9817662"></trkpt>
   <trkpt lat="37.4855653" lon="126.9817662"></trkpt>
   <trkpt lat="37.4854539" lon="126.9816572"></trkpt>
   <trkpt lat="37.485355" lon="126.981503"></trkpt>
   <trkpt lat="37.4853431" lon="126.9814635"></trkpt>
   <trkpt lat="37.4853084" lon="126.9813449"></trkpt>
   <trkpt lat="37.4852718" lon="126.9812275"></trkpt>
   <trkpt lat="37.4852188" lon="126.9810673"></trkpt>
   <trkpt lat="37.4851293" lon="126.9807897"></trkpt>
   <trkpt lat="37.485035" lon="126.9804793"></trkpt>
   <trkpt lat="37.4849711" lon="126.9802953"></trkpt>
   <trkpt lat="37.4846401" lon="126.9794267"></trkpt>
   <trkpt lat="37.4845771" lon="126.9792473"></trkpt>
   <trkpt lat="37.4845424" lon="126.9791333"></trkpt>
   <trkpt lat="37.4844766" lon="126.9789369"></trkpt>
   <trkpt lat="37.4844446" lon="126.9788399"></trkpt>
   <trkpt lat="37.4842599" lon="126.978245"></trkpt>
   <trkpt lat="37.4841183" lon="126.977814"></trkpt>
   <trkpt lat="37.4840223" lon="126.9774979"></trkpt>
   <trkpt lat="37.4840223" lon="126.9774979"></trkpt>
   <trkpt lat="37.4839529" lon="126.9772903"></trkpt>
   <trkpt lat="37.4839529" lon="126.9772903"></trkpt>
   <trkpt lat="37.4847331" lon="126.9765915"></trkpt>
   <trkpt lat="37.485012" lon="126.9762739"></trkpt>
   <trkpt lat="37.485099" lon="126.9761885"></trkpt>
   <trkpt lat="37.4853262" lon="126.9759946"></trkpt>
   <trkpt lat="37.4854895" lon="126.9758272"></trkpt>
   <trkpt lat="37.4857138" lon="126.9755813"></trkpt>
   <trkpt lat="37.4858473" lon="126.9754164"></trkpt>
   <trkpt lat="37.4859028" lon="126.9753142"></trkpt>
   <trkpt lat="37.4859635" lon="126.9751814"></trkpt>
   <trkpt lat="37.4860286" lon="126.9750226"></trkpt>
   <trkpt lat="37.4860857" lon="126.9748955"></trkpt>
   <trkpt lat="37.4861617" lon="126.9747525"></trkpt>
   <trkpt lat="37.4862557" lon="126.9746206"></trkpt>
   <trkpt lat="37.4864126" lon="126.9744216"></trkpt>
   <trkpt lat="37.4866699" lon="126.9741177"></trkpt>
   <trkpt lat="37.4867624" lon="126.9740289"></trkpt>
   <trkpt lat="37.4868925" lon="126.9739103"></trkpt>
   <trkpt lat="37.487102" lon="126.9737856"></trkpt>
   <trkpt lat="37.4872143" lon="126.9737124"></trkpt>
   <trkpt lat="37.4873068" lon="126.9736393"></trkpt>
   <trkpt lat="37.4875115" lon="126.9734479"></trkpt>
   <trkpt lat="37.4876595" lon="126.9732794"></trkpt>
   <trkpt lat="37.4878514" lon="126.9730631"></trkpt>
   <trkpt lat="37.4884896" lon="126.9724693"></trkpt>
   <trkpt lat="37.4885532" lon="126.9723829"></trkpt>
   <trkpt lat="37.4887523" lon="126.9721541"></trkpt>
   <trkpt lat="37.4889614" lon="126.9719479"></trkpt>
   <trkpt lat="37.489337" lon="126.9716953"></trkpt>
   <trkpt lat="37.4894224" lon="126.9716246"></trkpt>
   <trkpt lat="37.4894519" lon="126.971578"></trkpt>
   <trkpt lat="37.489476" lon="126.9715292"></trkpt>
   <trkpt lat="37.4896634" lon="126.9711093"></trkpt>
   <trkpt lat="37.4898194" lon="126.9707157"></trkpt>
   <trkpt lat="37.4898613" lon="126.9706068"></trkpt>
   <trkpt lat="37.4898613" lon="126.9706068"></trkpt>
   <trkpt lat="37.4895295" lon="126.9703818"></trkpt>
   <trkpt lat="37.4895295" lon="126.9703818"></trkpt>
   <trkpt lat="37.489456" lon="126.9704796"></trkpt>
   <trkpt lat="37.4893481" lon="126.9707473"></trkpt>
   <trkpt lat="37.4893481" lon="126.9707473"></trkpt>
   <trkpt lat="37.489456" lon="126.9704796"></trkpt>
   <trkpt lat="37.4895295" lon="126.9703818"></trkpt>
   <trkpt lat="37.4895295" lon="126.9703818"></trkpt>
   <trkpt lat="37.4898613" lon="126.9706068"></trkpt>
   <trkpt lat="37.4898613" lon="126.9706068"></trkpt>
   <trkpt lat="37.4898194" lon="126.9707157"></trkpt>
   <trkpt lat="37.4896634" lon="126.9711093"></trkpt>
   <trkpt lat="37.489476" lon="126.9715292"></trkpt>
   <trkpt lat="37.4894519" lon="126.971578"></trkpt>
   <trkpt lat="37.4894224" lon="126.9716246"></trkpt>
   <trkpt lat="37.489337" lon="126.9716953"></trkpt>
   <trkpt lat="37.4889614" lon="126.9719479"></trkpt>
   <trkpt lat="37.4887523" lon="126.9721541"></trkpt>
   <trkpt lat="37.4885532" lon="126.9723829"></trkpt>
   <trkpt lat="37.4884896" lon="126.9724693"></trkpt>
   <trkpt lat="37.4878514" lon="126.9730631"></trkpt>
   <trkpt lat="37.4876595" lon="126.9732794"></trkpt>
   <trkpt lat="37.4875115" lon="126.9734479"></trkpt>
   <trkpt lat="37.4873068" lon="126.9736393"></trkpt>
   <trkpt lat="37.4872143" lon="126.9737124"></trkpt>
   <trkpt lat="37.487102" lon="126.9737856"></trkpt>
   <trkpt lat="37.4868925" lon="126.9739103"></trkpt>
   <trkpt lat="37.4867624" lon="126.9740289"></trkpt>
   <trkpt lat="37.4866699" lon="126.9741177"></trkpt>
   <trkpt lat="37.4864126" lon="126.9744216"></trkpt>
   <trkpt lat="37.4862557" lon="126.9746206"></trkpt>
   <trkpt lat="37.4861617" lon="126.9747525"></trkpt>
   <trkpt lat="37.4860857" lon="126.9748955"></trkpt>
   <trkpt lat="37.4860286" lon="126.9750226"></trkpt>
   <trkpt lat="37.4859635" lon="126.9751814"></trkpt>
   <trkpt lat="37.4859028" lon="126.9753142"></trkpt>
   <trkpt lat="37.4858473" lon="126.9754164"></trkpt>
   <trkpt lat="37.4857138" lon="126.9755813"></trkpt>
   <trkpt lat="37.4854895" lon="126.9758272"></trkpt>
   <trkpt lat="37.4853262" lon="126.9759946"></trkpt>
   <trkpt lat="37.485099" lon="126.9761885"></trkpt>
   <trkpt lat="37.485012" lon="126.9762739"></trkpt>
   <trkpt lat="37.4847331" lon="126.9765915"></trkpt>
   <trkpt lat="37.4839529" lon="126.9772903"></trkpt>
   <trkpt lat="37.4839529" lon="126.9772903"></trkpt>
   <trkpt lat="37.4840223" lon="126.9774979"></trkpt>
   <trkpt lat="37.4840223" lon="126.9774979"></trkpt>
   <trkpt lat="37.4841183" lon="126.977814"></trkpt>
   <trkpt lat="37.4842599" lon="126.978245"></trkpt>
   <trkpt lat="37.4844446" lon="126.9788399"></trkpt>
   <trkpt lat="37.4844766" lon="126.9789369"></trkpt>
   <trkpt lat="37.4845424" lon="126.9791333"></trkpt>
   <trkpt lat="37.4845771" lon="126.9792473"></trkpt>
   <trkpt lat="37.4846401" lon="126.9794267"></trkpt>
   <trkpt lat="37.4849711" lon="126.9802953"></trkpt>
   <trkpt lat="37.485035" lon="126.9804793"></trkpt>
   <trkpt lat="37.4851293" lon="126.9807897"></trkpt>
   <trkpt lat="37.4852188" lon="126.9810673"></trkpt>
   <trkpt lat="37.4852718" lon="126.9812275"></trkpt>
   <trkpt lat="37.4853084" lon="126.9813449"></trkpt>
   <trkpt lat="37.4853431" lon="126.9814635"></trkpt>
   <trkpt lat="37.485355" lon="126.981503"></trkpt>
   <trkpt lat="37.4854539" lon="126.9816572"></trkpt>
   <trkpt lat="37.4855653" lon="126.9817662"></trkpt>
   <trkpt lat="37.4855653" lon="126.9817662"></trkpt>
   <trkpt lat="37.485606" lon="126.9817919"></trkpt>
   <trkpt lat="37.4857794" lon="126.9818744"></trkpt>
   <trkpt lat="37.4858959" lon="126.9819234"></trkpt>
   <trkpt lat="37.4859788" lon="126.9819307"></trkpt>
   <trkpt lat="37.486106" lon="126.9819378"></trkpt>
   <trkpt lat="37.4863413" lon="126.9819543"></trkpt>
   <trkpt lat="37.4865631" lon="126.9819674"></trkpt>
   <trkpt lat="37.4867822" lon="126.9819784"></trkpt>
   <trkpt lat="37.4869129" lon="126.9819842"></trkpt>
   <trkpt lat="37.4875313" lon="126.9820139"></trkpt>
   <trkpt lat="37.4875313" lon="126.9820139"></trkpt>
   <trkpt lat="37.487553" lon="126.982016"></trkpt>
   <trkpt lat="37.4876008" lon="126.9820168"></trkpt>
   <trkpt lat="37.4876008" lon="126.9820168"></trkpt>
   <trkpt lat="37.4879623" lon="126.9820471"></trkpt>
   <trkpt lat="37.4880101" lon="126.9820502"></trkpt>
   <trkpt lat="37.4880101" lon="126.9820502"></trkpt>
   <trkpt lat="37.4880274" lon="126.9820817"></trkpt>
   <trkpt lat="37.4881004" lon="126.9820914"></trkpt>
   <trkpt lat="37.4880825" lon="126.982311"></trkpt>
   <trkpt lat="37.4880671" lon="126.9825057"></trkpt>
   <trkpt lat="37.4880058" lon="126.9824959"></trkpt>
   <trkpt lat="37.4879968" lon="126.9825095"></trkpt>
   <trkpt lat="37.4879968" lon="126.9825095"></trkpt>
   <trkpt lat="37.4881312" lon="126.9825301"></trkpt>
   <trkpt lat="37.488307" lon="126.9825481"></trkpt>
   <trkpt lat="37.488445" lon="126.9825653"></trkpt>
   <trkpt lat="37.4888834" lon="126.9826459"></trkpt>
   <trkpt lat="37.489535" lon="126.9828202"></trkpt>
   <trkpt lat="37.4901417" lon="126.9828386"></trkpt>
   <trkpt lat="37.4907349" lon="126.9828775"></trkpt>
   <trkpt lat="37.4908233" lon="126.9828792"></trkpt>
   <trkpt lat="37.4908233" lon="126.9828792"></trkpt>
   <trkpt lat="37.4908228" lon="126.9829674"></trkpt>
   <trkpt lat="37.4908251" lon="126.9833"></trkpt>
   <trkpt lat="37.4908208" lon="126.9837423"></trkpt>
   <trkpt lat="37.4908193" lon="126.9838271"></trkpt>
   <trkpt lat="37.4908224" lon="126.9843294"></trkpt>
   <trkpt lat="37.4908223" lon="126.9845183"></trkpt>
   <trkpt lat="37.4908228" lon="126.9846269"></trkpt>
   <trkpt lat="37.4908275" lon="126.9850793"></trkpt>
   <trkpt lat="37.49083" lon="126.9854492"></trkpt>
   <trkpt lat="37.4908366" lon="126.9855102"></trkpt>
   <trkpt lat="37.4909953" lon="126.9859447"></trkpt>
   <trkpt lat="37.4911466" lon="126.9863362"></trkpt>
   <trkpt lat="37.4913072" lon="126.986774"></trkpt>
   <trkpt lat="37.4913374" lon="126.9868756"></trkpt>
   <trkpt lat="37.4913374" lon="126.9868756"></trkpt>
   <trkpt lat="37.4912878" lon="126.9868872"></trkpt>
   <trkpt lat="37.4912518" lon="126.9868988"></trkpt>
   <trkpt lat="37.490709" lon="126.9870597"></trkpt>
   <trkpt lat="37.4905542" lon="126.9870992"></trkpt>
   <trkpt lat="37.4905163" lon="126.9871086"></trkpt>
   <trkpt lat="37.4905163" lon="126.9871086"></trkpt>
   <trkpt lat="37.4905127" lon="126.986905"></trkpt>
   <trkpt lat="37.4905127" lon="126.986905"></trkpt>
   <trkpt lat="37.4905163" lon="126.9871086"></trkpt>
   <trkpt lat="37.4905163" lon="126.9871086"></trkpt>
   <trkpt lat="37.4905542" lon="126.9870992"></trkpt>
   <trkpt lat="37.490709" lon="126.9870597"></trkpt>
   <trkpt lat="37.4912518" lon="126.9868988"></trkpt>
   <trkpt lat="37.4912878" lon="126.9868872"></trkpt>
   <trkpt lat="37.4913374" lon="126.9868756"></trkpt>
   <trkpt lat="37.4913374" lon="126.9868756"></trkpt>
   <trkpt lat="37.4913072" lon="126.986774"></trkpt>
   <trkpt lat="37.4911466" lon="126.9863362"></trkpt>
   <trkpt lat="37.4909953" lon="126.9859447"></trkpt>
   <trkpt lat="37.4908366" lon="126.9855102"></trkpt>
   <trkpt lat="37.49083" lon="126.9854492"></trkpt>
   <trkpt lat="37.4908275" lon="126.9850793"></trkpt>
   <trkpt lat="37.4908228" lon="126.9846269"></trkpt>
   <trkpt lat="37.4908223" lon="126.9845183"></trkpt>
   <trkpt lat="37.4908224" lon="126.9843294"></trkpt>
   <trkpt lat="37.4908193" lon="126.9838271"></trkpt>
   <trkpt lat="37.4908208" lon="126.9837423"></trkpt>
   <trkpt lat="37.4908208" lon="126.9837423"></trkpt>
   <trkpt lat="37.4909758" lon="126.9837446"></trkpt>
   <trkpt lat="37.4909758" lon="126.9837446"></trkpt>
   <trkpt lat="37.4909784" lon="126.9833136"></trkpt>
   <trkpt lat="37.4909932" lon="126.9829741"></trkpt>
   <trkpt lat="37.4909973" lon="126.9828836"></trkpt>
   <trkpt lat="37.4909973" lon="126.9828836"></trkpt>
   <trkpt lat="37.4912244" lon="126.9828877"></trkpt>
   <trkpt lat="37.4916661" lon="126.9828971"></trkpt>
   <trkpt lat="37.4921998" lon="126.9829036"></trkpt>
   <trkpt lat="37.4927235" lon="126.9829192"></trkpt>
   <trkpt lat="37.4934006" lon="126.9829462"></trkpt>
   <trkpt lat="37.4935772" lon="126.9829473"></trkpt>
   <trkpt lat="37.4935772" lon="126.9829473"></trkpt>
   <trkpt lat="37.4935802" lon="126.9828104"></trkpt>
   <trkpt lat="37.4935819" lon="126.9827764"></trkpt>
   <trkpt lat="37.4935877" lon="126.9826701"></trkpt>
   <trkpt lat="37.4935952" lon="126.9825128"></trkpt>
   <trkpt lat="37.4935952" lon="126.9825128"></trkpt>
   <trkpt lat="37.4937683" lon="126.9825206"></trkpt>
   <trkpt lat="37.4937683" lon="126.9825206"></trkpt>
   <trkpt lat="37.493855" lon="126.9817349"></trkpt>
   <trkpt lat="37.4938573" lon="126.9816444"></trkpt>
   <trkpt lat="37.4938559" lon="126.9815483"></trkpt>
   <trkpt lat="37.4937831" lon="126.9811732"></trkpt>
   <trkpt lat="37.4937692" lon="126.9810862"></trkpt>
   <trkpt lat="37.4937654" lon="126.9810534"></trkpt>
   <trkpt lat="37.4937654" lon="126.9810534"></trkpt>
   <trkpt lat="37.4935594" lon="126.9809395"></trkpt>
   <trkpt lat="37.4934094" lon="126.9808613"></trkpt>
   <trkpt lat="37.4933334" lon="126.9807917"></trkpt>
   <trkpt lat="37.4932049" lon="126.9806614"></trkpt>
   <trkpt lat="37.4931886" lon="126.9806411"></trkpt>
   <trkpt lat="37.4931505" lon="126.980595"></trkpt>
   <trkpt lat="37.4931142" lon="126.98055"></trkpt>
   <trkpt lat="37.4930581" lon="126.9804814"></trkpt>
   <trkpt lat="37.4930291" lon="126.9804465"></trkpt>
   <trkpt lat="37.4929566" lon="126.9803599"></trkpt>
   <trkpt lat="37.4929429" lon="126.9803317"></trkpt>
   <trkpt lat="37.4929175" lon="126.9802799"></trkpt>
   <trkpt lat="37.4929147" lon="126.9802708"></trkpt>
   <trkpt lat="37.4928937" lon="126.9802031"></trkpt>
   <trkpt lat="37.4928878" lon="126.9801013"></trkpt>
   <trkpt lat="37.4928978" lon="126.9799101"></trkpt>
   <trkpt lat="37.4928975" lon="126.9798434"></trkpt>
   <trkpt lat="37.4928883" lon="126.9797948"></trkpt>
   <trkpt lat="37.4928462" lon="126.9796559"></trkpt>
   <trkpt lat="37.4928249" lon="126.9795237"></trkpt>
   <trkpt lat="37.4927958" lon="126.979473"></trkpt>
   <trkpt lat="37.4927958" lon="126.979473"></trkpt>
   <trkpt lat="37.4929835" lon="126.9793066"></trkpt>
   <trkpt lat="37.493179" lon="126.979097"></trkpt>
   <trkpt lat="37.493249" lon="126.9790151"></trkpt>
   <trkpt lat="37.493249" lon="126.9790151"></trkpt>
   <trkpt lat="37.4933322" lon="126.9790881"></trkpt>
   <trkpt lat="37.4933322" lon="126.9790881"></trkpt>
   <trkpt lat="37.4932518" lon="126.9792481"></trkpt>
   <trkpt lat="37.4932061" lon="126.9793107"></trkpt>
   <trkpt lat="37.4931289" lon="126.9793757"></trkpt>
   <trkpt lat="37.4930534" lon="126.9794328"></trkpt>
   <trkpt lat="37.4930205" lon="126.979519"></trkpt>
   <trkpt lat="37.4930217" lon="126.9795891"></trkpt>
   <trkpt lat="37.4930898" lon="126.9797165"></trkpt>
   <trkpt lat="37.4931632" lon="126.9797917"></trkpt>
   <trkpt lat="37.4931957" lon="126.9798017"></trkpt>
   <trkpt lat="37.4932236" lon="126.9797958"></trkpt>
   <trkpt lat="37.4933317" lon="126.979579"></trkpt>
   <trkpt lat="37.4933326" lon="126.9795711"></trkpt>
  </trkseg>
 </trk>
</gpx>
