<?xml version="1.0" encoding="UTF-8"?>
<gpx creator="StravaGPX" version="1.1" xmlns="http://www.topografix.com/GPX/1/1" xmlns:xsi="http://www.w3.org/2001/XMLSchema-instance" xsi:schemaLocation="http://www.topografix.com/GPX/1/1 http://www.topografix.com/GPX/1/1/gpx.xsd">
 <metadata>
  <name>동작 노들나루 고구동산 루프 6.07km</name>
  <desc>daengrun candidate geometry — measured 6.07km, gain 170</desc>
  <author>
   <name>S Kim</name>
   <link href="https://www.strava.com/athletes/558867461"/>
  </author>
  <copyright author="OpenStreetMap contributors">
   <year>2020</year>
   <license>https://www.openstreetmap.org/copyright</license>
  </copyright>
  <link href="https://www.strava.com/routes/3524937744652744182"/>
 </metadata>
 <trk>
  <name>동작 노들나루 고구동산 루프 6.07km</name>
  <desc>daengrun candidate geometry — measured 6.07km, gain 170</desc>
  <link href="https://www.strava.com/routes/3524937744652744182"/>
  <type>running</type>
  <trkseg>
   <trkpt lat="37.509280000000004" lon="126.95367000000002">
    <ele>56.27</ele>
   </trkpt>
   <trkpt lat="37.509220000000006" lon="126.95372">
    <ele>56.63</ele>
   </trkpt>
   <trkpt lat="37.509150000000005" lon="126.95380000000002">
    <ele>57.080000000000005</ele>
   </trkpt>
   <trkpt lat="37.50914" lon="126.95392000000001">
    <ele>57.6</ele>
   </trkpt>
   <trkpt lat="37.509280000000004" lon="126.95484">
    <ele>63.230000000000004</ele>
   </trkpt>
   <trkpt lat="37.509620000000005" lon="126.95533">
    <ele>60.82000000000001</ele>
   </trkpt>
   <trkpt lat="37.509620000000005" lon="126.95555000000002">
    <ele>60.370000000000005</ele>
   </trkpt>
   <trkpt lat="37.50965" lon="126.95565">
    <ele>60.50000000000001</ele>
   </trkpt>
   <trkpt lat="37.509910000000005" lon="126.95584000000001">
    <ele>59.60000000000001</ele>
   </trkpt>
   <trkpt lat="37.510020000000004" lon="126.95587">
    <ele>60.07000000000001</ele>
   </trkpt>
   <trkpt lat="37.510400000000004" lon="126.95605">
    <ele>63.54</ele>
   </trkpt>
   <trkpt lat="37.51044" lon="126.95613000000002">
    <ele>63.81</ele>
   </trkpt>
   <trkpt lat="37.51041" lon="126.95632">
    <ele>63.84</ele>
   </trkpt>
   <trkpt lat="37.51033" lon="126.95663">
    <ele>63.04</ele>
   </trkpt>
   <trkpt lat="37.51033" lon="126.95676000000002">
    <ele>62.870000000000005</ele>
   </trkpt>
   <trkpt lat="37.51039" lon="126.95680000000002">
    <ele>62.080000000000005</ele>
   </trkpt>
   <trkpt lat="37.5105" lon="126.95669000000001">
    <ele>59.910000000000004</ele>
   </trkpt>
   <trkpt lat="37.51088" lon="126.95686">
    <ele>54.50000000000001</ele>
   </trkpt>
   <trkpt lat="37.51099" lon="126.95695">
    <ele>54.2</ele>
   </trkpt>
   <trkpt lat="37.511120000000005" lon="126.95712">
    <ele>54.410000000000004</ele>
   </trkpt>
   <trkpt lat="37.51133" lon="126.95727000000001">
    <ele>53.1</ele>
   </trkpt>
   <trkpt lat="37.511280000000006" lon="126.95735">
    <ele>54.56</ele>
   </trkpt>
   <trkpt lat="37.51127" lon="126.95747000000001">
    <ele>55.900000000000006</ele>
   </trkpt>
   <trkpt lat="37.511430000000004" lon="126.95748">
    <ele>58.02</ele>
   </trkpt>
   <trkpt lat="37.511500000000005" lon="126.95753">
    <ele>58.02</ele>
   </trkpt>
   <trkpt lat="37.51153" lon="126.95760000000001">
    <ele>59.2</ele>
   </trkpt>
   <trkpt lat="37.511520000000004" lon="126.95768000000001">
    <ele>59.64000000000001</ele>
   </trkpt>
   <trkpt lat="37.5114" lon="126.95798">
    <ele>64.06</ele>
   </trkpt>
   <trkpt lat="37.511520000000004" lon="126.95768000000001">
    <ele>59.64000000000001</ele>
   </trkpt>
   <trkpt lat="37.51153" lon="126.95760000000001">
    <ele>59.2</ele>
   </trkpt>
   <trkpt lat="37.511500000000005" lon="126.95753">
    <ele>58.02</ele>
   </trkpt>
   <trkpt lat="37.511430000000004" lon="126.95748">
    <ele>58.02</ele>
   </trkpt>
   <trkpt lat="37.51127" lon="126.95747000000001">
    <ele>55.900000000000006</ele>
   </trkpt>
   <trkpt lat="37.511280000000006" lon="126.95735">
    <ele>54.56</ele>
   </trkpt>
   <trkpt lat="37.51133" lon="126.95727000000001">
    <ele>53.1</ele>
   </trkpt>
   <trkpt lat="37.511120000000005" lon="126.95712">
    <ele>54.410000000000004</ele>
   </trkpt>
   <trkpt lat="37.51099" lon="126.95695">
    <ele>54.2</ele>
   </trkpt>
   <trkpt lat="37.51088" lon="126.95686">
    <ele>54.50000000000001</ele>
   </trkpt>
   <trkpt lat="37.5105" lon="126.95669000000001">
    <ele>59.910000000000004</ele>
   </trkpt>
   <trkpt lat="37.51039" lon="126.95680000000002">
    <ele>62.080000000000005</ele>
   </trkpt>
   <trkpt lat="37.51033" lon="126.95676000000002">
    <ele>62.870000000000005</ele>
   </trkpt>
   <trkpt lat="37.51033" lon="126.95663">
    <ele>63.04</ele>
   </trkpt>
   <trkpt lat="37.51041" lon="126.95632">
    <ele>63.84</ele>
   </trkpt>
   <trkpt lat="37.51044" lon="126.95613000000002">
    <ele>63.81</ele>
   </trkpt>
   <trkpt lat="37.510400000000004" lon="126.95605">
    <ele>63.54</ele>
   </trkpt>
   <trkpt lat="37.510020000000004" lon="126.95587">
    <ele>59.86</ele>
   </trkpt>
   <trkpt lat="37.509910000000005" lon="126.95584000000001">
    <ele>59.60000000000001</ele>
   </trkpt>
   <trkpt lat="37.50965" lon="126.95565">
    <ele>60.50000000000001</ele>
   </trkpt>
   <trkpt lat="37.50941" lon="126.95587">
    <ele>63.54</ele>
   </trkpt>
   <trkpt lat="37.50925" lon="126.95617000000001">
    <ele>62.74</ele>
   </trkpt>
   <trkpt lat="37.50901" lon="126.95641">
    <ele>59.43</ele>
   </trkpt>
   <trkpt lat="37.50889" lon="126.95651000000001">
    <ele>55.99</ele>
   </trkpt>
   <trkpt lat="37.50878" lon="126.95664000000001">
    <ele>55.99</ele>
   </trkpt>
   <trkpt lat="37.50869" lon="126.95679000000001">
    <ele>53.99</ele>
   </trkpt>
   <trkpt lat="37.50867" lon="126.95672">
    <ele>53.67</ele>
   </trkpt>
   <trkpt lat="37.508480000000006" lon="126.9565">
    <ele>53.15</ele>
   </trkpt>
   <trkpt lat="37.508280000000006" lon="126.95649000000002">
    <ele>52.15</ele>
   </trkpt>
   <trkpt lat="37.508140000000004" lon="126.95658000000002">
    <ele>50.690000000000005</ele>
   </trkpt>
   <trkpt lat="37.50797" lon="126.95676000000002">
    <ele>48.870000000000005</ele>
   </trkpt>
   <trkpt lat="37.507380000000005" lon="126.95687000000001">
    <ele>42.120000000000005</ele>
   </trkpt>
   <trkpt lat="37.506890000000006" lon="126.95705000000001">
    <ele>38.53</ele>
   </trkpt>
   <trkpt lat="37.50661" lon="126.95707000000002">
    <ele>32.980000000000004</ele>
   </trkpt>
   <trkpt lat="37.50645" lon="126.95713">
    <ele>31.150000000000002</ele>
   </trkpt>
   <trkpt lat="37.506040000000006" lon="126.95711000000001">
    <ele>30.160000000000004</ele>
   </trkpt>
   <trkpt lat="37.50589" lon="126.95717">
    <ele>30.21</ele>
   </trkpt>
   <trkpt lat="37.505790000000005" lon="126.95742000000001">
    <ele>30.67</ele>
   </trkpt>
   <trkpt lat="37.50573" lon="126.95747000000001">
    <ele>30.930000000000003</ele>
   </trkpt>
   <trkpt lat="37.505790000000005" lon="126.95742000000001">
    <ele>30.67</ele>
   </trkpt>
   <trkpt lat="37.50589" lon="126.95717">
    <ele>30.21</ele>
   </trkpt>
   <trkpt lat="37.506040000000006" lon="126.95711000000001">
    <ele>30.160000000000004</ele>
   </trkpt>
   <trkpt lat="37.50645" lon="126.95713">
    <ele>31.150000000000002</ele>
   </trkpt>
   <trkpt lat="37.506530000000005" lon="126.95710000000001">
    <ele>31.39</ele>
   </trkpt>
   <trkpt lat="37.506420000000006" lon="126.95678000000001">
    <ele>33.61</ele>
   </trkpt>
   <trkpt lat="37.5062" lon="126.95630000000001">
    <ele>37.56</ele>
   </trkpt>
   <trkpt lat="37.506150000000005" lon="126.95613000000002">
    <ele>39.71</ele>
   </trkpt>
   <trkpt lat="37.50618" lon="126.95569">
    <ele>43.53000000000001</ele>
   </trkpt>
   <trkpt lat="37.506260000000005" lon="126.95515000000002">
    <ele>50.010000000000005</ele>
   </trkpt>
   <trkpt lat="37.50629" lon="126.95479000000002">
    <ele>54.11000000000001</ele>
   </trkpt>
   <trkpt lat="37.506280000000004" lon="126.95471">
    <ele>55.21</ele>
   </trkpt>
   <trkpt lat="37.506220000000006" lon="126.95460000000001">
    <ele>56.760000000000005</ele>
   </trkpt>
   <trkpt lat="37.50573000058292" lon="126.95431999830646">
    <ele>62.25000000000001</ele>
   </trkpt>
   <trkpt lat="37.50524" lon="126.95404">
    <ele>68.25</ele>
   </trkpt>
   <trkpt lat="37.50511" lon="126.95393000000001">
    <ele>70.04</ele>
   </trkpt>
   <trkpt lat="37.50506" lon="126.95386">
    <ele>70.75</ele>
   </trkpt>
   <trkpt lat="37.505010000000006" lon="126.95374000000001">
    <ele>71.4</ele>
   </trkpt>
   <trkpt lat="37.505" lon="126.95360000000001">
    <ele>71.31000000000002</ele>
   </trkpt>
   <trkpt lat="37.50494000277545" lon="126.95278999948529">
    <ele>63.59</ele>
   </trkpt>
   <trkpt lat="37.50488" lon="126.95198">
    <ele>57.99000000000001</ele>
   </trkpt>
   <trkpt lat="37.50498" lon="126.95206000000002">
    <ele>58.31000000000001</ele>
   </trkpt>
   <trkpt lat="37.505250000000004" lon="126.9522">
    <ele>59.730000000000004</ele>
   </trkpt>
   <trkpt lat="37.505500000000005" lon="126.95226000000001">
    <ele>61.17</ele>
   </trkpt>
   <trkpt lat="37.50573" lon="126.95224">
    <ele>63.35</ele>
   </trkpt>
   <trkpt lat="37.5065" lon="126.95209000000001">
    <ele>70.79</ele>
   </trkpt>
   <trkpt lat="37.506930000000004" lon="126.95202">
    <ele>71.36</ele>
   </trkpt>
   <trkpt lat="37.50719" lon="126.95191000000001">
    <ele>72.39000000000001</ele>
   </trkpt>
   <trkpt lat="37.50732" lon="126.95179000000002">
    <ele>73.21000000000001</ele>
   </trkpt>
   <trkpt lat="37.50755" lon="126.95172000000001">
    <ele>74.85</ele>
   </trkpt>
   <trkpt lat="37.508030000000005" lon="126.95151000000001">
    <ele>75.49</ele>
   </trkpt>
   <trkpt lat="37.50808" lon="126.95152000000002">
    <ele>75.49</ele>
   </trkpt>
   <trkpt lat="37.50799000000001" lon="126.95088000000001">
    <ele>77.81</ele>
   </trkpt>
   <trkpt lat="37.508100000000006" lon="126.95043000000001">
    <ele>77.7</ele>
   </trkpt>
   <trkpt lat="37.508280000000006" lon="126.94995000000002">
    <ele>73.77</ele>
   </trkpt>
   <trkpt lat="37.50851" lon="126.94932000000001">
    <ele>66.29</ele>
   </trkpt>
   <trkpt lat="37.508570000000006" lon="126.94902">
    <ele>63.04</ele>
   </trkpt>
   <trkpt lat="37.5092" lon="126.94882000000001">
    <ele>59.260000000000005</ele>
   </trkpt>
   <trkpt lat="37.509440000000005" lon="126.94879000000002">
    <ele>58.39</ele>
   </trkpt>
   <trkpt lat="37.50961" lon="126.94873000000001">
    <ele>55.800000000000004</ele>
   </trkpt>
   <trkpt lat="37.509620000000005" lon="126.94867">
    <ele>55.800000000000004</ele>
   </trkpt>
   <trkpt lat="37.50968" lon="126.94853">
    <ele>54.64</ele>
   </trkpt>
   <trkpt lat="37.50974" lon="126.94848">
    <ele>54.410000000000004</ele>
   </trkpt>
   <trkpt lat="37.51057" lon="126.94828000000001">
    <ele>48.99</ele>
   </trkpt>
   <trkpt lat="37.51062" lon="126.94822">
    <ele>48.96</ele>
   </trkpt>
   <trkpt lat="37.5107" lon="126.94785000000002">
    <ele>48.06</ele>
   </trkpt>
   <trkpt lat="37.510740000000006" lon="126.94720000000001">
    <ele>43.86</ele>
   </trkpt>
   <trkpt lat="37.51071" lon="126.94695000000002">
    <ele>42.56</ele>
   </trkpt>
   <trkpt lat="37.510600000000004" lon="126.9466">
    <ele>38.25000000000001</ele>
   </trkpt>
   <trkpt lat="37.51037" lon="126.94618000000001">
    <ele>28.57</ele>
   </trkpt>
   <trkpt lat="37.510250000000006" lon="126.94622000000001">
    <ele>26.750000000000004</ele>
   </trkpt>
   <trkpt lat="37.51045500325669" lon="126.9453350026234">
    <ele>27.930000000000003</ele>
   </trkpt>
   <trkpt lat="37.51066" lon="126.94445">
    <ele>26.0</ele>
   </trkpt>
   <trkpt lat="37.51086" lon="126.94400000000002">
    <ele>29.6</ele>
   </trkpt>
   <trkpt lat="37.51084" lon="126.94391000000002">
    <ele>29.6</ele>
   </trkpt>
   <trkpt lat="37.51052" lon="126.94321000000001">
    <ele>37.160000000000004</ele>
   </trkpt>
   <trkpt lat="37.51028" lon="126.94284">
    <ele>38.580000000000005</ele>
   </trkpt>
   <trkpt lat="37.51005" lon="126.94279000000002">
    <ele>38.25000000000001</ele>
   </trkpt>
   <trkpt lat="37.509910000000005" lon="126.94279000000002">
    <ele>37.83</ele>
   </trkpt>
   <trkpt lat="37.509840000000004" lon="126.94284">
    <ele>37.83</ele>
   </trkpt>
   <trkpt lat="37.509660000000004" lon="126.94302">
    <ele>37.83</ele>
   </trkpt>
   <trkpt lat="37.50940000000001" lon="126.94314000000001">
    <ele>40.580000000000005</ele>
   </trkpt>
   <trkpt lat="37.509240000000005" lon="126.94317000000001">
    <ele>40.580000000000005</ele>
   </trkpt>
   <trkpt lat="37.50911" lon="126.94314000000001">
    <ele>40.580000000000005</ele>
   </trkpt>
   <trkpt lat="37.50911" lon="126.94313000000001">
    <ele>40.59</ele>
   </trkpt>
   <trkpt lat="37.509240000000005" lon="126.94317000000001">
    <ele>40.59</ele>
   </trkpt>
   <trkpt lat="37.50940000000001" lon="126.94314000000001">
    <ele>40.59</ele>
   </trkpt>
   <trkpt lat="37.509660000000004" lon="126.94302">
    <ele>37.83</ele>
   </trkpt>
   <trkpt lat="37.509840000000004" lon="126.94284">
    <ele>37.83</ele>
   </trkpt>
   <trkpt lat="37.509910000000005" lon="126.94279000000002">
    <ele>37.83</ele>
   </trkpt>
   <trkpt lat="37.51005" lon="126.94279000000002">
    <ele>38.25000000000001</ele>
   </trkpt>
   <trkpt lat="37.51028" lon="126.94284">
    <ele>38.580000000000005</ele>
   </trkpt>
   <trkpt lat="37.51052" lon="126.94321000000001">
    <ele>37.160000000000004</ele>
   </trkpt>
   <trkpt lat="37.51084" lon="126.94391000000002">
    <ele>29.6</ele>
   </trkpt>
   <trkpt lat="37.51086" lon="126.94400000000002">
    <ele>29.6</ele>
   </trkpt>
   <trkpt lat="37.51066" lon="126.94445">
    <ele>26.0</ele>
   </trkpt>
   <trkpt lat="37.510600000000004" lon="126.94464">
    <ele>25.17</ele>
   </trkpt>
   <trkpt lat="37.511190000000006" lon="126.94445">
    <ele>23.05</ele>
   </trkpt>
   <trkpt lat="37.511340000000004" lon="126.94476000000002">
    <ele>21.800000000000004</ele>
   </trkpt>
   <trkpt lat="37.51169" lon="126.94537000000001">
    <ele>21.1</ele>
   </trkpt>
   <trkpt lat="37.51202" lon="126.94568000000001">
    <ele>20.98</ele>
   </trkpt>
   <trkpt lat="37.512130000000006" lon="126.94590000000001">
    <ele>20.970000000000002</ele>
   </trkpt>
   <trkpt lat="37.512220000000006" lon="126.94619000000002">
    <ele>21.14</ele>
   </trkpt>
   <trkpt lat="37.51240000185279" lon="126.94685999823757">
    <ele>22.18</ele>
   </trkpt>
   <trkpt lat="37.51258" lon="126.94753000000001">
    <ele>22.520000000000003</ele>
   </trkpt>
   <trkpt lat="37.51299" lon="126.94824000000001">
    <ele>23.12</ele>
   </trkpt>
   <trkpt lat="37.51284000169762" lon="126.9488850015371">
    <ele>24.020000000000003</ele>
   </trkpt>
   <trkpt lat="37.512690000000006" lon="126.94953000000001">
    <ele>25.080000000000002</ele>
   </trkpt>
   <trkpt lat="37.512640000000005" lon="126.94995000000002">
    <ele>25.77</ele>
   </trkpt>
   <trkpt lat="37.51263" lon="126.95079000000001">
    <ele>24.630000000000003</ele>
   </trkpt>
   <trkpt lat="37.512840000000004" lon="126.95079000000001">
    <ele>23.49</ele>
   </trkpt>
   <trkpt lat="37.512820000000005" lon="126.95191000000001">
    <ele>21.470000000000002</ele>
   </trkpt>
   <trkpt lat="37.51283" lon="126.95230000000001">
    <ele>21.210000000000004</ele>
   </trkpt>
   <trkpt lat="37.512800000000006" lon="126.95309000000002">
    <ele>20.64</ele>
   </trkpt>
   <trkpt lat="37.512800000000006" lon="126.95351000000001">
    <ele>20.44</ele>
   </trkpt>
   <trkpt lat="37.51281" lon="126.95375000000001">
    <ele>19.94</ele>
   </trkpt>
   <trkpt lat="37.51281" lon="126.95374000000001">
    <ele>19.950000000000003</ele>
   </trkpt>
   <trkpt lat="37.512840000000004" lon="126.95403000000002">
    <ele>19.73</ele>
   </trkpt>
   <trkpt lat="37.5129" lon="126.95447000000001">
    <ele>19.58</ele>
   </trkpt>
   <trkpt lat="37.51297" lon="126.95469000000001">
    <ele>19.680000000000003</ele>
   </trkpt>
   <trkpt lat="37.51315" lon="126.95505000000001">
    <ele>20.150000000000002</ele>
   </trkpt>
   <trkpt lat="37.513490000000004" lon="126.95562000000001">
    <ele>21.87</ele>
   </trkpt>
   <trkpt lat="37.51355" lon="126.95564000000002">
    <ele>22.27</ele>
   </trkpt>
   <trkpt lat="37.51359" lon="126.95562000000001">
    <ele>22.27</ele>
   </trkpt>
   <trkpt lat="37.51391" lon="126.95587">
    <ele>22.160000000000004</ele>
   </trkpt>
   <trkpt lat="37.51397" lon="126.95575000000001">
    <ele>20.41</ele>
   </trkpt>
   <trkpt lat="37.514140000000005" lon="126.95585000000001">
    <ele>14.51</ele>
   </trkpt>
   <trkpt lat="37.51389" lon="126.95661000000001">
    <ele>14.260000000000002</ele>
   </trkpt>
   <trkpt lat="37.51355" lon="126.95671000000002">
    <ele>19.650000000000002</ele>
   </trkpt>
   <trkpt lat="37.51324" lon="126.95716000000002">
    <ele>23.250000000000004</ele>
   </trkpt>
   <trkpt lat="37.513490000000004" lon="126.95666000000001">
    <ele>23.560000000000002</ele>
   </trkpt>
   <trkpt lat="37.51321" lon="126.95642000000001">
    <ele>23.540000000000003</ele>
   </trkpt>
   <trkpt lat="37.51323" lon="126.95632">
    <ele>23.340000000000003</ele>
   </trkpt>
   <trkpt lat="37.513220000000004" lon="126.95616000000001">
    <ele>23.340000000000003</ele>
   </trkpt>
   <trkpt lat="37.513160000000006" lon="126.95597000000001">
    <ele>23.21</ele>
   </trkpt>
   <trkpt lat="37.512710002657116" lon="126.95519499554321">
    <ele>21.490000000000002</ele>
   </trkpt>
   <trkpt lat="37.512260000000005" lon="126.95442000000001">
    <ele>21.54</ele>
   </trkpt>
   <trkpt lat="37.51211" lon="126.95424000000001">
    <ele>23.080000000000002</ele>
   </trkpt>
   <trkpt lat="37.511540000000004" lon="126.9539">
    <ele>27.6</ele>
   </trkpt>
   <trkpt lat="37.511100000000006" lon="126.95370000000001">
    <ele>32.400000000000006</ele>
   </trkpt>
   <trkpt lat="37.510670000000005" lon="126.95348000000001">
    <ele>37.69</ele>
   </trkpt>
   <trkpt lat="37.51062" lon="126.95327">
    <ele>39.6</ele>
   </trkpt>
   <trkpt lat="37.51034000000001" lon="126.95314">
    <ele>43.67</ele>
   </trkpt>
   <trkpt lat="37.510250000000006" lon="126.95318000000002">
    <ele>48.260000000000005</ele>
   </trkpt>
   <trkpt lat="37.51012" lon="126.95318000000002">
    <ele>48.260000000000005</ele>
   </trkpt>
   <trkpt lat="37.50999" lon="126.95311000000001">
    <ele>50.31000000000001</ele>
   </trkpt>
   <trkpt lat="37.50994" lon="126.9531">
    <ele>50.31000000000001</ele>
   </trkpt>
   <trkpt lat="37.509530000000005" lon="126.95353000000001">
    <ele>55.64</ele>
   </trkpt>
   <trkpt lat="37.50927" lon="126.95368">
    <ele>56.27</ele>
   </trkpt>
  </trkseg>
 </trk>
</gpx>
