<?xml version="1.0" encoding="UTF-8"?>
<gpx creator="daengrun-naver-route" version="1.1" xmlns="http://www.topografix.com/GPX/1/1" xmlns:xsi="http://www.w3.org/2001/XMLSchema-instance" xsi:schemaLocation="http://www.topografix.com/GPX/1/1 http://www.topografix.com/GPX/1/1/gpx.xsd">
 <metadata>
  <name>동작 청룡연못·슈파크 루프 4.42km</name>
  <desc>daengrun candidate geometry — measured 4.42km via Naver pedestrian router (o=flat, 계단회피). Elevation NOT available from this source. stairs=0 crosswalk=1 steppingstone=0 underpass=0 overpass=0</desc>
  <link href="naver:13uf1dh"><text>daengrun route id</text></link>
  <copyright author="NAVER Corp."><license>https://map.naver.com/</license></copyright>
 </metadata>
 <trk>
  <name>동작 청룡연못·슈파크 루프 4.42km</name>
  <trkseg>
   <trkpt lat="37.5018329" lon="126.9586396"></trkpt>
   <trkpt lat="37.5018329" lon="126.95941"></trkpt>
   <trkpt lat="37.5018329" lon="126.95941"></trkpt>
   <trkpt lat="37.5017815" lon="126.9594104"></trkpt>
   <trkpt lat="37.5017421" lon="126.9594718"></trkpt>
   <trkpt lat="37.501724" lon="126.9600478"></trkpt>
   <trkpt lat="37.5017223" lon="126.9600682"></trkpt>
   <trkpt lat="37.5017223" lon="126.9600682"></trkpt>
   <trkpt lat="37.5018361" lon="126.960116"></trkpt>
   <trkpt lat="37.5022253" lon="126.9602795"></trkpt>
   <trkpt lat="37.5024702" lon="126.9604146"></trkpt>
   <trkpt lat="37.5027603" lon="126.9605902"></trkpt>
   <trkpt lat="37.5030485" lon="126.9607295"></trkpt>
   <trkpt lat="37.503174" lon="126.9607761"></trkpt>
   <trkpt lat="37.5033185" lon="126.9608271"></trkpt>
   <trkpt lat="37.5033735" lon="126.960838"></trkpt>
   <trkpt lat="37.5034601" lon="126.9608499"></trkpt>
   <trkpt lat="37.5034763" lon="126.9608498"></trkpt>
   <trkpt lat="37.5035547" lon="126.9608537"></trkpt>
   <trkpt lat="37.5035773" lon="126.9608524"></trkpt>
   <trkpt lat="37.5036916" lon="126.9608312"></trkpt>
   <trkpt lat="37.5038347" lon="126.9607714"></trkpt>
   <trkpt lat="37.5039302" lon="126.960756"></trkpt>
   <trkpt lat="37.5040238" lon="126.9607417"></trkpt>
   <trkpt lat="37.504086" lon="126.9607345"></trkpt>
   <trkpt lat="37.5043725" lon="126.9607177"></trkpt>
   <trkpt lat="37.5044897" lon="126.9607146"></trkpt>
   <trkpt lat="37.5046411" lon="126.9607113"></trkpt>
   <trkpt lat="37.5047917" lon="126.9607136"></trkpt>
   <trkpt lat="37.5049071" lon="126.9607207"></trkpt>
   <trkpt lat="37.5055676" lon="126.9608845"></trkpt>
   <trkpt lat="37.5056389" lon="126.9609055"></trkpt>
   <trkpt lat="37.5057246" lon="126.9609275"></trkpt>
   <trkpt lat="37.5060775" lon="126.96102"></trkpt>
   <trkpt lat="37.5061723" lon="126.9610533"></trkpt>
   <trkpt lat="37.506325" lon="126.9611302"></trkpt>
   <trkpt lat="37.5064334" lon="126.9611917"></trkpt>
   <trkpt lat="37.5065512" lon="126.9613187"></trkpt>
   <trkpt lat="37.5066436" lon="126.961421"></trkpt>
   <trkpt lat="37.5067593" lon="126.961505"></trkpt>
   <trkpt lat="37.5068714" lon="126.9615653"></trkpt>
   <trkpt lat="37.5070718" lon="126.961634"></trkpt>
   <trkpt lat="37.5073244" lon="126.9616797"></trkpt>
   <trkpt lat="37.5073613" lon="126.9616738"></trkpt>
   <trkpt lat="37.5073613" lon="126.9616738"></trkpt>
   <trkpt lat="37.5074098" lon="126.9616282"></trkpt>
   <trkpt lat="37.5074437" lon="126.9615567"></trkpt>
   <trkpt lat="37.5074721" lon="126.9614682"></trkpt>
   <trkpt lat="37.5075733" lon="126.961119"></trkpt>
   <trkpt lat="37.5076085" lon="126.96094"></trkpt>
   <trkpt lat="37.5076085" lon="126.96094"></trkpt>
   <trkpt lat="37.5076243" lon="126.9608426"></trkpt>
   <trkpt lat="37.5076088" lon="126.9607974"></trkpt>
   <trkpt lat="37.5076088" lon="126.9607974"></trkpt>
   <trkpt lat="37.5075877" lon="126.9607263"></trkpt>
   <trkpt lat="37.5075603" lon="126.9606371"></trkpt>
   <trkpt lat="37.5074356" lon="126.9601888"></trkpt>
   <trkpt lat="37.5072551" lon="126.9597375"></trkpt>
   <trkpt lat="37.5072016" lon="126.9594754"></trkpt>
   <trkpt lat="37.5071685" lon="126.9593206"></trkpt>
   <trkpt lat="37.507149" lon="126.9592076"></trkpt>
   <trkpt lat="37.5071105" lon="126.9590676"></trkpt>
   <trkpt lat="37.507086" lon="126.9590169"></trkpt>
   <trkpt lat="37.507046" lon="126.9589617"></trkpt>
   <trkpt lat="37.5069688" lon="126.958831"></trkpt>
   <trkpt lat="37.5068817" lon="126.9586914"></trkpt>
   <trkpt lat="37.5068315" lon="126.9585695"></trkpt>
   <trkpt lat="37.5068168" lon="126.958495"></trkpt>
   <trkpt lat="37.5067433" lon="126.9580078"></trkpt>
   <trkpt lat="37.5066917" lon="126.9577548"></trkpt>
   <trkpt lat="37.5065886" lon="126.9574817"></trkpt>
   <trkpt lat="37.5065185" lon="126.9573363"></trkpt>
   <trkpt lat="37.5064803" lon="126.9572517"></trkpt>
   <trkpt lat="37.5064639" lon="126.957219"></trkpt>
   <trkpt lat="37.5064385" lon="126.9571943"></trkpt>
   <trkpt lat="37.5064385" lon="126.9571943"></trkpt>
   <trkpt lat="37.5063853" lon="126.957172"></trkpt>
   <trkpt lat="37.5062987" lon="126.9571614"></trkpt>
   <trkpt lat="37.5060724" lon="126.9571528"></trkpt>
   <trkpt lat="37.5059777" lon="126.9571467"></trkpt>
   <trkpt lat="37.5059158" lon="126.9572083"></trkpt>
   <trkpt lat="37.5059158" lon="126.9572083"></trkpt>
   <trkpt lat="37.5058548" lon="126.9570661"></trkpt>
   <trkpt lat="37.5057661" lon="126.9569865"></trkpt>
   <trkpt lat="37.5056829" lon="126.9569248"></trkpt>
   <trkpt lat="37.5055998" lon="126.956887"></trkpt>
   <trkpt lat="37.5055411" lon="126.9568749"></trkpt>
   <trkpt lat="37.5055411" lon="126.9568749"></trkpt>
   <trkpt lat="37.5054518" lon="126.9570476"></trkpt>
   <trkpt lat="37.5054518" lon="126.9570476"></trkpt>
   <trkpt lat="37.5055411" lon="126.9568749"></trkpt>
   <trkpt lat="37.5055411" lon="126.9568749"></trkpt>
   <trkpt lat="37.5055998" lon="126.956887"></trkpt>
   <trkpt lat="37.5056829" lon="126.9569248"></trkpt>
   <trkpt lat="37.5057661" lon="126.9569865"></trkpt>
   <trkpt lat="37.5058548" lon="126.9570661"></trkpt>
   <trkpt lat="37.5059158" lon="126.9572083"></trkpt>
   <trkpt lat="37.5059158" lon="126.9572083"></trkpt>
   <trkpt lat="37.5059777" lon="126.9571467"></trkpt>
   <trkpt lat="37.5060216" lon="126.9570932"></trkpt>
   <trkpt lat="37.5059989" lon="126.9570357"></trkpt>
   <trkpt lat="37.5059989" lon="126.9570357"></trkpt>
   <trkpt lat="37.5060764" lon="126.957034"></trkpt>
   <trkpt lat="37.5063756" lon="126.9570341"></trkpt>
   <trkpt lat="37.506445" lon="126.9570313"></trkpt>
   <trkpt lat="37.506445" lon="126.9570313"></trkpt>
   <trkpt lat="37.5061472" lon="126.9563625"></trkpt>
   <trkpt lat="37.5061224" lon="126.9562745"></trkpt>
   <trkpt lat="37.5060992" lon="126.9561309"></trkpt>
   <trkpt lat="37.506111" lon="126.955934"></trkpt>
   <trkpt lat="37.5061534" lon="126.9555501"></trkpt>
   <trkpt lat="37.5061942" lon="126.9552251"></trkpt>
   <trkpt lat="37.5062258" lon="126.9548379"></trkpt>
   <trkpt lat="37.5062218" lon="126.9547554"></trkpt>
   <trkpt lat="37.5062053" lon="126.9546978"></trkpt>
   <trkpt lat="37.5061699" lon="126.9546358"></trkpt>
   <trkpt lat="37.5060839" lon="126.9545731"></trkpt>
   <trkpt lat="37.5051233" lon="126.9540359"></trkpt>
   <trkpt lat="37.5050003" lon="126.9539462"></trkpt>
   <trkpt lat="37.5049848" lon="126.953892"></trkpt>
   <trkpt lat="37.5049838" lon="126.9538796"></trkpt>
   <trkpt lat="37.504978" lon="126.9538061"></trkpt>
   <trkpt lat="37.5049785" lon="126.9537133"></trkpt>
   <trkpt lat="37.5049712" lon="126.9536919"></trkpt>
   <trkpt lat="37.5049712" lon="126.9536919"></trkpt>
   <trkpt lat="37.5049639" lon="126.9536795"></trkpt>
   <trkpt lat="37.5049513" lon="126.9536671"></trkpt>
   <trkpt lat="37.5045377" lon="126.9536916"></trkpt>
   <trkpt lat="37.504434" lon="126.9537003"></trkpt>
   <trkpt lat="37.5043098" lon="126.9537352"></trkpt>
   <trkpt lat="37.5041884" lon="126.9538005"></trkpt>
   <trkpt lat="37.5041408" lon="126.9538337"></trkpt>
   <trkpt lat="37.5041013" lon="126.9538702"></trkpt>
   <trkpt lat="37.5040602" lon="126.9539327"></trkpt>
   <trkpt lat="37.5040083" lon="126.9540281"></trkpt>
   <trkpt lat="37.5039458" lon="126.9541508"></trkpt>
   <trkpt lat="37.5038816" lon="126.9542949"></trkpt>
   <trkpt lat="37.5038144" lon="126.9544006"></trkpt>
   <trkpt lat="37.5037319" lon="126.9544838"></trkpt>
   <trkpt lat="37.5036681" lon="126.9545262"></trkpt>
   <trkpt lat="37.5036088" lon="126.9545594"></trkpt>
   <trkpt lat="37.503544" lon="126.9545859"></trkpt>
   <trkpt lat="37.5034449" lon="126.9546013"></trkpt>
   <trkpt lat="37.5033052" lon="126.9545922"></trkpt>
   <trkpt lat="37.5032483" lon="126.9545824"></trkpt>
   <trkpt lat="37.5031688" lon="126.9545445"></trkpt>
   <trkpt lat="37.5030693" lon="126.9544626"></trkpt>
   <trkpt lat="37.5030149" lon="126.9543985"></trkpt>
   <trkpt lat="37.5029788" lon="126.954375"></trkpt>
   <trkpt lat="37.5029354" lon="126.9543527"></trkpt>
   <trkpt lat="37.5029354" lon="126.9543527"></trkpt>
   <trkpt lat="37.5028371" lon="126.9543433"></trkpt>
   <trkpt lat="37.5028026" lon="126.954296"></trkpt>
   <trkpt lat="37.502788" lon="126.9542497"></trkpt>
   <trkpt lat="37.5027923" lon="126.9542067"></trkpt>
   <trkpt lat="37.502793" lon="126.9541716"></trkpt>
   <trkpt lat="37.502793" lon="126.9541716"></trkpt>
   <trkpt lat="37.502782" lon="126.9541231"></trkpt>
   <trkpt lat="37.5027193" lon="126.954016"></trkpt>
   <trkpt lat="37.5026393" lon="126.9538729"></trkpt>
   <trkpt lat="37.5025459" lon="126.9537435"></trkpt>
   <trkpt lat="37.5024636" lon="126.9536875"></trkpt>
   <trkpt lat="37.502376" lon="126.953652"></trkpt>
   <trkpt lat="37.502249" lon="126.9536585"></trkpt>
   <trkpt lat="37.5020985" lon="126.9536687"></trkpt>
   <trkpt lat="37.501712" lon="126.9537009"></trkpt>
   <trkpt lat="37.5013543" lon="126.9537386"></trkpt>
   <trkpt lat="37.5012616" lon="126.9537608"></trkpt>
   <trkpt lat="37.5011202" lon="126.9537867"></trkpt>
   <trkpt lat="37.5004762" lon="126.9539057"></trkpt>
   <trkpt lat="37.5003059" lon="126.9539092"></trkpt>
   <trkpt lat="37.5001373" lon="126.9538979"></trkpt>
   <trkpt lat="37.4999993" lon="126.9538808"></trkpt>
   <trkpt lat="37.4999353" lon="126.9538711"></trkpt>
   <trkpt lat="37.4997855" lon="126.9538451"></trkpt>
   <trkpt lat="37.4997151" lon="126.9538297"></trkpt>
   <trkpt lat="37.4996872" lon="126.9538243"></trkpt>
   <trkpt lat="37.4996294" lon="126.95381"></trkpt>
   <trkpt lat="37.4995291" lon="126.9537553"></trkpt>
   <trkpt lat="37.4993779" lon="126.9536105"></trkpt>
   <trkpt lat="37.4991398" lon="126.9533757"></trkpt>
   <trkpt lat="37.4989904" lon="126.9532377"></trkpt>
   <trkpt lat="37.4988919" lon="126.9531898"></trkpt>
   <trkpt lat="37.4987973" lon="126.9531803"></trkpt>
   <trkpt lat="37.4986865" lon="126.9532014"></trkpt>
   <trkpt lat="37.4985949" lon="126.9532722"></trkpt>
   <trkpt lat="37.4983361" lon="126.953454"></trkpt>
   <trkpt lat="37.4982174" lon="126.9535103"></trkpt>
   <trkpt lat="37.4981886" lon="126.9535196"></trkpt>
   <trkpt lat="37.4981147" lon="126.953528"></trkpt>
   <trkpt lat="37.4979766" lon="126.9534668"></trkpt>
   <trkpt lat="37.4979223" lon="126.953422"></trkpt>
   <trkpt lat="37.4978761" lon="126.9533793"></trkpt>
   <trkpt lat="37.4978425" lon="126.9533366"></trkpt>
   <trkpt lat="37.4978217" lon="126.9533084"></trkpt>
   <trkpt lat="37.497789" lon="126.9532544"></trkpt>
   <trkpt lat="37.4977408" lon="126.9531597"></trkpt>
   <trkpt lat="37.4975318" lon="126.9528003"></trkpt>
   <trkpt lat="37.4975318" lon="126.9528003"></trkpt>
   <trkpt lat="37.497504" lon="126.9528277"></trkpt>
   <trkpt lat="37.4974412" lon="126.9528858"></trkpt>
   <trkpt lat="37.4974322" lon="126.9528927"></trkpt>
   <trkpt lat="37.4971602" lon="126.95313"></trkpt>
   <trkpt lat="37.4959986" lon="126.9541713"></trkpt>
   <trkpt lat="37.4959546" lon="126.9542123"></trkpt>
   <trkpt lat="37.4959098" lon="126.9542534"></trkpt>
   <trkpt lat="37.4959098" lon="126.9542534"></trkpt>
   <trkpt lat="37.4959571" lon="126.9543594"></trkpt>
   <trkpt lat="37.4960401" lon="126.9545726"></trkpt>
   <trkpt lat="37.4960604" lon="126.954655"></trkpt>
   <trkpt lat="37.4960604" lon="126.954655"></trkpt>
   <trkpt lat="37.496228" lon="126.9546629"></trkpt>
   <trkpt lat="37.4962497" lon="126.9546638"></trkpt>
   <trkpt lat="37.4963345" lon="126.9546904"></trkpt>
   <trkpt lat="37.4964757" lon="126.9548025"></trkpt>
   <trkpt lat="37.4965427" lon="126.9548812"></trkpt>
   <trkpt lat="37.4965609" lon="126.9549105"></trkpt>
   <trkpt lat="37.4965609" lon="126.9549105"></trkpt>
   <trkpt lat="37.4965151" lon="126.9549493"></trkpt>
   <trkpt lat="37.4964218" lon="126.9550529"></trkpt>
   <trkpt lat="37.4963837" lon="126.9551855"></trkpt>
   <trkpt lat="37.4963869" lon="126.9552918"></trkpt>
   <trkpt lat="37.4963869" lon="126.9552918"></trkpt>
   <trkpt lat="37.4963837" lon="126.9551855"></trkpt>
   <trkpt lat="37.4964218" lon="126.9550529"></trkpt>
   <trkpt lat="37.4965151" lon="126.9549493"></trkpt>
   <trkpt lat="37.4965609" lon="126.9549105"></trkpt>
   <trkpt lat="37.4965609" lon="126.9549105"></trkpt>
   <trkpt lat="37.4966235" lon="126.9550096"></trkpt>
   <trkpt lat="37.4966864" lon="126.9551641"></trkpt>
   <trkpt lat="37.4967166" lon="126.9552623"></trkpt>
   <trkpt lat="37.4967404" lon="126.9553368"></trkpt>
   <trkpt lat="37.4967404" lon="126.9553368"></trkpt>
   <trkpt lat="37.4967619" lon="126.9553151"></trkpt>
   <trkpt lat="37.4968016" lon="126.9553035"></trkpt>
   <trkpt lat="37.4976672" lon="126.9553866"></trkpt>
   <trkpt lat="37.4977087" lon="126.9553965"></trkpt>
   <trkpt lat="37.4977441" lon="126.9554449"></trkpt>
   <trkpt lat="37.4977615" lon="126.9555047"></trkpt>
   <trkpt lat="37.4977628" lon="126.9555873"></trkpt>
   <trkpt lat="37.4977628" lon="126.9555873"></trkpt>
   <trkpt lat="37.4979033" lon="126.955558"></trkpt>
   <trkpt lat="37.497977" lon="126.955519"></trkpt>
   <trkpt lat="37.497977" lon="126.955519"></trkpt>
   <trkpt lat="37.4979918" lon="126.9556026"></trkpt>
   <trkpt lat="37.4979318" lon="126.9566699"></trkpt>
   <trkpt lat="37.4979298" lon="126.9568124"></trkpt>
   <trkpt lat="37.4979293" lon="126.9569086"></trkpt>
   <trkpt lat="37.4979102" lon="126.9570648"></trkpt>
   <trkpt lat="37.4978808" lon="126.9571329"></trkpt>
   <trkpt lat="37.4978567" lon="126.957184"></trkpt>
   <trkpt lat="37.497837" lon="126.957226"></trkpt>
   <trkpt lat="37.4978383" lon="126.957312"></trkpt>
   <trkpt lat="37.4976923" lon="126.9577079"></trkpt>
   <trkpt lat="37.4975811" lon="126.9580175"></trkpt>
   <trkpt lat="37.4975259" lon="126.9581706"></trkpt>
   <trkpt lat="37.4974747" lon="126.9584063"></trkpt>
   <trkpt lat="37.497454" lon="126.9586033"></trkpt>
   <trkpt lat="37.4974557" lon="126.9587741"></trkpt>
   <trkpt lat="37.4974769" lon="126.9590885"></trkpt>
   <trkpt lat="37.4975014" lon="126.9591143"></trkpt>
   <trkpt lat="37.4975267" lon="126.9591232"></trkpt>
   <trkpt lat="37.4976303" lon="126.959119"></trkpt>
   <trkpt lat="37.4977762" lon="126.959092"></trkpt>
   <trkpt lat="37.4978348" lon="126.9590949"></trkpt>
   <trkpt lat="37.49788" lon="126.9591206"></trkpt>
   <trkpt lat="37.4979507" lon="126.9592027"></trkpt>
   <trkpt lat="37.4979885" lon="126.9592013"></trkpt>
   <trkpt lat="37.4980489" lon="126.9592077"></trkpt>
   <trkpt lat="37.4981518" lon="126.9592228"></trkpt>
   <trkpt lat="37.4982168" lon="126.959246"></trkpt>
   <trkpt lat="37.4983053" lon="126.9592793"></trkpt>
   <trkpt lat="37.4983893" lon="126.9593195"></trkpt>
   <trkpt lat="37.4984263" lon="126.9593396"></trkpt>
   <trkpt lat="37.4985583" lon="126.959428"></trkpt>
   <trkpt lat="37.4986306" lon="126.9594772"></trkpt>
   <trkpt lat="37.4989688" lon="126.959709"></trkpt>
   <trkpt lat="37.4989815" lon="126.9597168"></trkpt>
   <trkpt lat="37.4990963" lon="126.9597895"></trkpt>
   <trkpt lat="37.4991415" lon="126.959822"></trkpt>
   <trkpt lat="37.4991614" lon="126.9598445"></trkpt>
   <trkpt lat="37.4992077" lon="126.9599109"></trkpt>
   <trkpt lat="37.4992641" lon="126.9600315"></trkpt>
   <trkpt lat="37.4993541" lon="126.9601983"></trkpt>
   <trkpt lat="37.4994375" lon="126.9602928"></trkpt>
   <trkpt lat="37.4995053" lon="126.96035"></trkpt>
   <trkpt lat="37.499575" lon="126.9603936"></trkpt>
   <trkpt lat="37.4996733" lon="126.9604257"></trkpt>
   <trkpt lat="37.4999439" lon="126.9604554"></trkpt>
   <trkpt lat="37.4999998" lon="126.9604584"></trkpt>
   <trkpt lat="37.5003513" lon="126.960448"></trkpt>
   <trkpt lat="37.500472" lon="126.9604324"></trkpt>
   <trkpt lat="37.5005728" lon="126.9604102"></trkpt>
   <trkpt lat="37.5007132" lon="126.9603616"></trkpt>
   <trkpt lat="37.5008068" lon="126.9603225"></trkpt>
   <trkpt lat="37.5009947" lon="126.9602239"></trkpt>
   <trkpt lat="37.5010387" lon="126.9601919"></trkpt>
   <trkpt lat="37.501241" lon="126.9600671"></trkpt>
   <trkpt lat="37.5013508" lon="126.9600471"></trkpt>
   <trkpt lat="37.5014328" lon="126.9600363"></trkpt>
   <trkpt lat="37.5015689" lon="126.960041"></trkpt>
   <trkpt lat="37.5017223" lon="126.9600682"></trkpt>
   <trkpt lat="37.5017223" lon="126.9600682"></trkpt>
   <trkpt lat="37.501724" lon="126.9600478"></trkpt>
   <trkpt lat="37.5017421" lon="126.9594718"></trkpt>
   <trkpt lat="37.5017815" lon="126.9594104"></trkpt>
   <trkpt lat="37.5018329" lon="126.95941"></trkpt>
   <trkpt lat="37.5018329" lon="126.95941"></trkpt>
   <trkpt lat="37.5018329" lon="126.9586396"></trkpt>
  </trkseg>
 </trk>
</gpx>
