<?xml version="1.0" encoding="UTF-8"?>
<gpx creator="daengrun-naver-route" version="1.1" xmlns="http://www.topografix.com/GPX/1/1" xmlns:xsi="http://www.w3.org/2001/XMLSchema-instance" xsi:schemaLocation="http://www.topografix.com/GPX/1/1 http://www.topografix.com/GPX/1/1/gpx.xsd">
 <metadata>
  <name>마포 경의선숲길공원·심원정터 루프 3.65km</name>
  <desc>daengrun candidate geometry — measured 3.65km via Naver pedestrian router (o=flat, 계단회피). Elevation NOT available from this source. stairs=0 crosswalk=5 steppingstone=0 underpass=0 overpass=0</desc>
  <link href="naver:12tzm8g"><text>daengrun route id</text></link>
  <copyright author="NAVER Corp."><license>https://map.naver.com/</license></copyright>
 </metadata>
 <trk>
  <name>마포 경의선숲길공원·심원정터 루프 3.65km</name>
  <trkseg>
   <trkpt lat="37.5366666" lon="126.9508155"></trkpt>
   <trkpt lat="37.5366652" lon="126.9509208"></trkpt>
   <trkpt lat="37.5366608" lon="126.9511291"></trkpt>
   <trkpt lat="37.5366709" lon="126.9511641"></trkpt>
   <trkpt lat="37.5366909" lon="126.951199"></trkpt>
   <trkpt lat="37.5367279" lon="126.9512112"></trkpt>
   <trkpt lat="37.5367441" lon="126.9512122"></trkpt>
   <trkpt lat="37.5367441" lon="126.9512122"></trkpt>
   <trkpt lat="37.5367438" lon="126.9513356"></trkpt>
   <trkpt lat="37.5367396" lon="126.9513968"></trkpt>
   <trkpt lat="37.5367706" lon="126.9514712"></trkpt>
   <trkpt lat="37.5367987" lon="126.9515231"></trkpt>
   <trkpt lat="37.536845" lon="126.9515748"></trkpt>
   <trkpt lat="37.5369109" lon="126.951597"></trkpt>
   <trkpt lat="37.5371597" lon="126.9516042"></trkpt>
   <trkpt lat="37.5371867" lon="126.9516131"></trkpt>
   <trkpt lat="37.5372076" lon="126.9516469"></trkpt>
   <trkpt lat="37.5372133" lon="126.9516966"></trkpt>
   <trkpt lat="37.5372089" lon="126.9519129"></trkpt>
   <trkpt lat="37.5372226" lon="126.9519558"></trkpt>
   <trkpt lat="37.5373462" lon="126.9521779"></trkpt>
   <trkpt lat="37.5373679" lon="126.9521902"></trkpt>
   <trkpt lat="37.5375203" lon="126.9521992"></trkpt>
   <trkpt lat="37.5375203" lon="126.9521992"></trkpt>
   <trkpt lat="37.5374978" lon="126.9527902"></trkpt>
   <trkpt lat="37.5375017" lon="126.9528547"></trkpt>
   <trkpt lat="37.5375864" lon="126.9530511"></trkpt>
   <trkpt lat="37.5379096" lon="126.9533543"></trkpt>
   <trkpt lat="37.5379404" lon="126.9534016"></trkpt>
   <trkpt lat="37.5379396" lon="126.9534198"></trkpt>
   <trkpt lat="37.5379396" lon="126.9534198"></trkpt>
   <trkpt lat="37.5380227" lon="126.9534565"></trkpt>
   <trkpt lat="37.5381122" lon="126.953517"></trkpt>
   <trkpt lat="37.5383482" lon="126.9536715"></trkpt>
   <trkpt lat="37.5387433" lon="126.95393"></trkpt>
   <trkpt lat="37.5388447" lon="126.9540255"></trkpt>
   <trkpt lat="37.5389117" lon="126.9540918"></trkpt>
   <trkpt lat="37.538958" lon="126.9541628"></trkpt>
   <trkpt lat="37.5390745" lon="126.95442"></trkpt>
   <trkpt lat="37.5391375" lon="126.9545927"></trkpt>
   <trkpt lat="37.5392717" lon="126.9551509"></trkpt>
   <trkpt lat="37.5393038" lon="126.9552616"></trkpt>
   <trkpt lat="37.5394656" lon="126.9555706"></trkpt>
   <trkpt lat="37.539502" lon="126.9556349"></trkpt>
   <trkpt lat="37.5395536" lon="126.9556888"></trkpt>
   <trkpt lat="37.5400328" lon="126.9560045"></trkpt>
   <trkpt lat="37.5401051" lon="126.9560516"></trkpt>
   <trkpt lat="37.5401535" lon="126.9559822"></trkpt>
   <trkpt lat="37.5401535" lon="126.9559822"></trkpt>
   <trkpt lat="37.5402096" lon="126.9560406"></trkpt>
   <trkpt lat="37.5402865" lon="126.9561068"></trkpt>
   <trkpt lat="37.5402865" lon="126.9561068"></trkpt>
   <trkpt lat="37.5402204" lon="126.9562307"></trkpt>
   <trkpt lat="37.5402025" lon="126.9562625"></trkpt>
   <trkpt lat="37.5402025" lon="126.9562625"></trkpt>
   <trkpt lat="37.5401864" lon="126.9562943"></trkpt>
   <trkpt lat="37.5401731" lon="126.9563239"></trkpt>
   <trkpt lat="37.5401276" lon="126.956443"></trkpt>
   <trkpt lat="37.5401276" lon="126.956443"></trkpt>
   <trkpt lat="37.5401674" lon="126.9564609"></trkpt>
   <trkpt lat="37.5402018" lon="126.9564946"></trkpt>
   <trkpt lat="37.5403727" lon="126.9570061"></trkpt>
   <trkpt lat="37.5403727" lon="126.9570061"></trkpt>
   <trkpt lat="37.540299" lon="126.9570553"></trkpt>
   <trkpt lat="37.5402676" lon="126.9570895"></trkpt>
   <trkpt lat="37.5402362" lon="126.9571237"></trkpt>
   <trkpt lat="37.5402174" lon="126.9571487"></trkpt>
   <trkpt lat="37.5402174" lon="126.9571487"></trkpt>
   <trkpt lat="37.5402362" lon="126.9571237"></trkpt>
   <trkpt lat="37.5402676" lon="126.9570895"></trkpt>
   <trkpt lat="37.540299" lon="126.9570553"></trkpt>
   <trkpt lat="37.5403727" lon="126.9570061"></trkpt>
   <trkpt lat="37.5403727" lon="126.9570061"></trkpt>
   <trkpt lat="37.5402018" lon="126.9564946"></trkpt>
   <trkpt lat="37.5401674" lon="126.9564609"></trkpt>
   <trkpt lat="37.5401276" lon="126.956443"></trkpt>
   <trkpt lat="37.5401276" lon="126.956443"></trkpt>
   <trkpt lat="37.5399195" lon="126.9570422"></trkpt>
   <trkpt lat="37.5398812" lon="126.9571421"></trkpt>
   <trkpt lat="37.5398723" lon="126.9571659"></trkpt>
   <trkpt lat="37.5395887" lon="126.9580339"></trkpt>
   <trkpt lat="37.5395781" lon="126.958077"></trkpt>
   <trkpt lat="37.5395372" lon="126.9582064"></trkpt>
   <trkpt lat="37.539508" lon="126.9583107"></trkpt>
   <trkpt lat="37.5394699" lon="126.9584547"></trkpt>
   <trkpt lat="37.5394513" lon="126.9585262"></trkpt>
   <trkpt lat="37.5394469" lon="126.9585432"></trkpt>
   <trkpt lat="37.5393193" lon="126.9590241"></trkpt>
   <trkpt lat="37.5392883" lon="126.9591409"></trkpt>
   <trkpt lat="37.5392438" lon="126.9592781"></trkpt>
   <trkpt lat="37.539234" lon="126.9592975"></trkpt>
   <trkpt lat="37.5392295" lon="126.9593088"></trkpt>
   <trkpt lat="37.5391963" lon="126.9593419"></trkpt>
   <trkpt lat="37.5391586" lon="126.9593784"></trkpt>
   <trkpt lat="37.5390256" lon="126.9594654"></trkpt>
   <trkpt lat="37.5388702" lon="126.9595774"></trkpt>
   <trkpt lat="37.5386222" lon="126.9597388"></trkpt>
   <trkpt lat="37.5385432" lon="126.9598028"></trkpt>
   <trkpt lat="37.5381216" lon="126.9600695"></trkpt>
   <trkpt lat="37.5380147" lon="126.9601405"></trkpt>
   <trkpt lat="37.5377434" lon="126.9603383"></trkpt>
   <trkpt lat="37.5377354" lon="126.9603621"></trkpt>
   <trkpt lat="37.5377354" lon="126.9603621"></trkpt>
   <trkpt lat="37.5373708" lon="126.960264"></trkpt>
   <trkpt lat="37.5373708" lon="126.960264"></trkpt>
   <trkpt lat="37.5373549" lon="126.9603252"></trkpt>
   <trkpt lat="37.5372614" lon="126.9603746"></trkpt>
   <trkpt lat="37.5369854" lon="126.9605486"></trkpt>
   <trkpt lat="37.5369351" lon="126.9605784"></trkpt>
   <trkpt lat="37.536705" lon="126.9607125"></trkpt>
   <trkpt lat="37.5366249" lon="126.9607583"></trkpt>
   <trkpt lat="37.5365288" lon="126.960819"></trkpt>
   <trkpt lat="37.5364524" lon="126.9608705"></trkpt>
   <trkpt lat="37.5361791" lon="126.9610343"></trkpt>
   <trkpt lat="37.5361216" lon="126.9610664"></trkpt>
   <trkpt lat="37.535887" lon="126.9612153"></trkpt>
   <trkpt lat="37.5358025" lon="126.9612589"></trkpt>
   <trkpt lat="37.5355202" lon="126.9614262"></trkpt>
   <trkpt lat="37.5354824" lon="126.9614196"></trkpt>
   <trkpt lat="37.5354498" lon="126.9614063"></trkpt>
   <trkpt lat="37.5354498" lon="126.9614063"></trkpt>
   <trkpt lat="37.5354227" lon="126.9613906"></trkpt>
   <trkpt lat="37.5353865" lon="126.961357"></trkpt>
   <trkpt lat="37.5349207" lon="126.9602137"></trkpt>
   <trkpt lat="37.5348915" lon="126.9601381"></trkpt>
   <trkpt lat="37.5345186" lon="126.9591957"></trkpt>
   <trkpt lat="37.5343117" lon="126.9587127"></trkpt>
   <trkpt lat="37.5341804" lon="126.9583787"></trkpt>
   <trkpt lat="37.5339553" lon="126.9578336"></trkpt>
   <trkpt lat="37.5338379" lon="126.9575866"></trkpt>
   <trkpt lat="37.533796" lon="126.9575054"></trkpt>
   <trkpt lat="37.5337397" lon="126.9574062"></trkpt>
   <trkpt lat="37.533717" lon="126.9573758"></trkpt>
   <trkpt lat="37.5336182" lon="126.9572452"></trkpt>
   <trkpt lat="37.533551" lon="126.9571529"></trkpt>
   <trkpt lat="37.5332388" lon="126.9566809"></trkpt>
   <trkpt lat="37.5332388" lon="126.9566809"></trkpt>
   <trkpt lat="37.5332007" lon="126.9566156"></trkpt>
   <trkpt lat="37.5331761" lon="126.9565739"></trkpt>
   <trkpt lat="37.5331761" lon="126.9565739"></trkpt>
   <trkpt lat="37.5329726" lon="126.956212"></trkpt>
   <trkpt lat="37.5329217" lon="126.9561207"></trkpt>
   <trkpt lat="37.5328217" lon="126.9559369"></trkpt>
   <trkpt lat="37.5326317" lon="126.9555897"></trkpt>
   <trkpt lat="37.5325395" lon="126.9553504"></trkpt>
   <trkpt lat="37.5324984" lon="126.9552206"></trkpt>
   <trkpt lat="37.5324524" lon="126.9550217"></trkpt>
   <trkpt lat="37.5323883" lon="126.9546091"></trkpt>
   <trkpt lat="37.5323491" lon="126.9543173"></trkpt>
   <trkpt lat="37.5323136" lon="126.9540403"></trkpt>
   <trkpt lat="37.5323166" lon="126.9539113"></trkpt>
   <trkpt lat="37.5324086" lon="126.9533549"></trkpt>
   <trkpt lat="37.5325194" lon="126.9527508"></trkpt>
   <trkpt lat="37.5325991" lon="126.9524344"></trkpt>
   <trkpt lat="37.5325991" lon="126.9524344"></trkpt>
   <trkpt lat="37.5326226" lon="126.9524444"></trkpt>
   <trkpt lat="37.5327421" lon="126.9525681"></trkpt>
   <trkpt lat="37.5328997" lon="126.9527424"></trkpt>
   <trkpt lat="37.5329413" lon="126.9527658"></trkpt>
   <trkpt lat="37.5329413" lon="126.9527658"></trkpt>
   <trkpt lat="37.5329547" lon="126.9527295"></trkpt>
   <trkpt lat="37.5329852" lon="126.9527021"></trkpt>
   <trkpt lat="37.5330401" lon="126.9526825"></trkpt>
   <trkpt lat="37.5332564" lon="126.9526865"></trkpt>
   <trkpt lat="37.5333385" lon="126.9526882"></trkpt>
   <trkpt lat="37.5333385" lon="126.9526882"></trkpt>
   <trkpt lat="37.533393" lon="126.9526018"></trkpt>
   <trkpt lat="37.5335514" lon="126.9523403"></trkpt>
   <trkpt lat="37.5336892" lon="126.9521299"></trkpt>
   <trkpt lat="37.5337142" lon="126.952089"></trkpt>
   <trkpt lat="37.5337142" lon="126.952089"></trkpt>
   <trkpt lat="37.5337581" lon="126.9520241"></trkpt>
   <trkpt lat="37.5338908" lon="126.9518625"></trkpt>
   <trkpt lat="37.5339705" lon="126.9517543"></trkpt>
   <trkpt lat="37.5341788" lon="126.9515921"></trkpt>
   <trkpt lat="37.5344021" lon="126.9513449"></trkpt>
   <trkpt lat="37.5344426" lon="126.9513197"></trkpt>
   <trkpt lat="37.5344426" lon="126.9513197"></trkpt>
   <trkpt lat="37.5345374" lon="126.9515646"></trkpt>
   <trkpt lat="37.5345849" lon="126.9516955"></trkpt>
   <trkpt lat="37.5345849" lon="126.9516955"></trkpt>
   <trkpt lat="37.5346299" lon="126.951668"></trkpt>
   <trkpt lat="37.5346973" lon="126.9516234"></trkpt>
   <trkpt lat="37.5346973" lon="126.9516234"></trkpt>
   <trkpt lat="37.5347659" lon="126.9520439"></trkpt>
   <trkpt lat="37.5348162" lon="126.9521884"></trkpt>
   <trkpt lat="37.5348789" lon="126.9523102"></trkpt>
   <trkpt lat="37.534957" lon="126.952424"></trkpt>
   <trkpt lat="37.5350684" lon="126.9525499"></trkpt>
   <trkpt lat="37.5351691" lon="126.9526929"></trkpt>
   <trkpt lat="37.5352499" lon="126.9528146"></trkpt>
   <trkpt lat="37.5353472" lon="126.9529939"></trkpt>
   <trkpt lat="37.5353663" lon="126.9530446"></trkpt>
   <trkpt lat="37.5353766" lon="126.9531215"></trkpt>
   <trkpt lat="37.535386" lon="126.9531962"></trkpt>
   <trkpt lat="37.535386" lon="126.9531962"></trkpt>
   <trkpt lat="37.5354482" lon="126.9532138"></trkpt>
   <trkpt lat="37.5355241" lon="126.9532495"></trkpt>
   <trkpt lat="37.5357993" lon="126.9532996"></trkpt>
   <trkpt lat="37.5362005" lon="126.9533317"></trkpt>
   <trkpt lat="37.5362447" lon="126.9533359"></trkpt>
   <trkpt lat="37.5365535" lon="126.9534502"></trkpt>
   <trkpt lat="37.5366609" lon="126.9534891"></trkpt>
   <trkpt lat="37.5368433" lon="126.9535568"></trkpt>
   <trkpt lat="37.5369481" lon="126.9535956"></trkpt>
   <trkpt lat="37.5370664" lon="126.9536491"></trkpt>
   <trkpt lat="37.5371992" lon="126.953724"></trkpt>
   <trkpt lat="37.5372265" lon="126.9537849"></trkpt>
   <trkpt lat="37.5372739" lon="126.9538932"></trkpt>
   <trkpt lat="37.5372739" lon="126.9538932"></trkpt>
   <trkpt lat="37.5373499" lon="126.9537489"></trkpt>
   <trkpt lat="37.5374991" lon="126.9534739"></trkpt>
   <trkpt lat="37.5375494" lon="126.9534373"></trkpt>
   <trkpt lat="37.5378162" lon="126.9534252"></trkpt>
   <trkpt lat="37.5378243" lon="126.953424"></trkpt>
   <trkpt lat="37.5378541" lon="126.9534374"></trkpt>
   <trkpt lat="37.5379333" lon="126.9534175"></trkpt>
   <trkpt lat="37.5379396" lon="126.9534198"></trkpt>
   <trkpt lat="37.5379396" lon="126.9534198"></trkpt>
   <trkpt lat="37.5379404" lon="126.9534016"></trkpt>
   <trkpt lat="37.5379096" lon="126.9533543"></trkpt>
   <trkpt lat="37.5375864" lon="126.9530511"></trkpt>
   <trkpt lat="37.5375017" lon="126.9528547"></trkpt>
   <trkpt lat="37.5374978" lon="126.9527902"></trkpt>
   <trkpt lat="37.5375203" lon="126.9521992"></trkpt>
   <trkpt lat="37.5375203" lon="126.9521992"></trkpt>
   <trkpt lat="37.5373679" lon="126.9521902"></trkpt>
   <trkpt lat="37.5373462" lon="126.9521779"></trkpt>
   <trkpt lat="37.5372226" lon="126.9519558"></trkpt>
   <trkpt lat="37.5372089" lon="126.9519129"></trkpt>
   <trkpt lat="37.5372133" lon="126.9516966"></trkpt>
   <trkpt lat="37.5372076" lon="126.9516469"></trkpt>
   <trkpt lat="37.5371867" lon="126.9516131"></trkpt>
   <trkpt lat="37.5371597" lon="126.9516042"></trkpt>
   <trkpt lat="37.5369109" lon="126.951597"></trkpt>
   <trkpt lat="37.536845" lon="126.9515748"></trkpt>
   <trkpt lat="37.5367987" lon="126.9515231"></trkpt>
   <trkpt lat="37.5367706" lon="126.9514712"></trkpt>
   <trkpt lat="37.5367396" lon="126.9513968"></trkpt>
   <trkpt lat="37.5367438" lon="126.9513356"></trkpt>
   <trkpt lat="37.5367441" lon="126.9512122"></trkpt>
   <trkpt lat="37.5367441" lon="126.9512122"></trkpt>
   <trkpt lat="37.5367279" lon="126.9512112"></trkpt>
   <trkpt lat="37.5366909" lon="126.951199"></trkpt>
   <trkpt lat="37.5366709" lon="126.9511641"></trkpt>
   <trkpt lat="37.5366608" lon="126.9511291"></trkpt>
   <trkpt lat="37.5366652" lon="126.9509208"></trkpt>
   <trkpt lat="37.5366666" lon="126.9508155"></trkpt>
  </trkseg>
 </trk>
</gpx>
