<?xml version="1.0" encoding="UTF-8"?>
<gpx creator="StravaGPX" version="1.1" xmlns="http://www.topografix.com/GPX/1/1" xmlns:xsi="http://www.w3.org/2001/XMLSchema-instance" xsi:schemaLocation="http://www.topografix.com/GPX/1/1 http://www.topografix.com/GPX/1/1/gpx.xsd">
 <metadata>
  <name>마포 상암 난지천 루프 7.1km</name>
  <desc>daengrun candidate geometry — measured 7.1km, gain 53</desc>
  <author>
   <name>S Kim</name>
   <link href="https://www.strava.com/athletes/558867461"/>
  </author>
  <copyright author="OpenStreetMap contributors">
   <year>2020</year>
   <license>https://www.openstreetmap.org/copyright</license>
  </copyright>
  <link href="https://www.strava.com/routes/3525062010743940042"/>
 </metadata>
 <trk>
  <name>마포 상암 난지천 루프 7.1km</name>
  <desc>daengrun candidate geometry — measured 7.1km, gain 53</desc>
  <link href="https://www.strava.com/routes/3525062010743940042"/>
  <type>running</type>
  <trkseg>
   <trkpt lat="37.57406" lon="126.89163">
    <ele>40.59</ele>
   </trkpt>
   <trkpt lat="37.574090000000005" lon="126.89151000000001">
    <ele>40.59</ele>
   </trkpt>
   <trkpt lat="37.574160000000006" lon="126.89130000000002">
    <ele>36.13</ele>
   </trkpt>
   <trkpt lat="37.574250000000006" lon="126.89111000000001">
    <ele>36.13</ele>
   </trkpt>
   <trkpt lat="37.57457000107878" lon="126.8905850023933">
    <ele>30.300000000000004</ele>
   </trkpt>
   <trkpt lat="37.57489" lon="126.89006">
    <ele>21.580000000000002</ele>
   </trkpt>
   <trkpt lat="37.575410002362446" lon="126.8905899925908">
    <ele>22.17</ele>
   </trkpt>
   <trkpt lat="37.575930002355456" lon="126.89111999258358">
    <ele>22.64</ele>
   </trkpt>
   <trkpt lat="37.57645" lon="126.89165000000001">
    <ele>21.92</ele>
   </trkpt>
   <trkpt lat="37.57714" lon="126.89233000000002">
    <ele>20.09</ele>
   </trkpt>
   <trkpt lat="37.577510000000004" lon="126.89273000000001">
    <ele>17.79</ele>
   </trkpt>
   <trkpt lat="37.57799" lon="126.89248">
    <ele>16.23</ele>
   </trkpt>
   <trkpt lat="37.577510000000004" lon="126.89273000000001">
    <ele>17.79</ele>
   </trkpt>
   <trkpt lat="37.57714" lon="126.89233000000002">
    <ele>20.09</ele>
   </trkpt>
   <trkpt lat="37.577430000965144" lon="126.89187000167627">
    <ele>19.64</ele>
   </trkpt>
   <trkpt lat="37.57772000000001" lon="126.89141000000001">
    <ele>19.12</ele>
   </trkpt>
   <trkpt lat="37.578210000000006" lon="126.89058000000001">
    <ele>18.64</ele>
   </trkpt>
   <trkpt lat="37.57755" lon="126.88994000000001">
    <ele>18.85</ele>
   </trkpt>
   <trkpt lat="37.576870008039144" lon="126.8892499748028">
    <ele>22.0</ele>
   </trkpt>
   <trkpt lat="37.57619001206201" lon="126.88855996220818">
    <ele>23.53</ele>
   </trkpt>
   <trkpt lat="37.57551001206877" lon="126.88786996221566">
    <ele>22.240000000000002</ele>
   </trkpt>
   <trkpt lat="37.57483000805959" lon="126.8871799748248">
    <ele>19.16</ele>
   </trkpt>
   <trkpt lat="37.57415" lon="126.88649000000001">
    <ele>17.16</ele>
   </trkpt>
   <trkpt lat="37.574570004433745" lon="126.88576334156541">
    <ele>17.34</ele>
   </trkpt>
   <trkpt lat="37.5749900044134" lon="126.88503667493404">
    <ele>17.490000000000002</ele>
   </trkpt>
   <trkpt lat="37.575410000000005" lon="126.88431000000001">
    <ele>17.59</ele>
   </trkpt>
   <trkpt lat="37.57591500934689" lon="126.88345001751601">
    <ele>17.69</ele>
   </trkpt>
   <trkpt lat="37.576420012455245" lon="126.88259002336746">
    <ele>17.66</ele>
   </trkpt>
   <trkpt lat="37.57692500932487" lon="126.88173001755408">
    <ele>17.37</ele>
   </trkpt>
   <trkpt lat="37.57743" lon="126.88087000000002">
    <ele>17.01</ele>
   </trkpt>
   <trkpt lat="37.577310000000004" lon="126.88067000000001">
    <ele>17.02</ele>
   </trkpt>
   <trkpt lat="37.57676" lon="126.88010000000001">
    <ele>16.18</ele>
   </trkpt>
   <trkpt lat="37.57668" lon="126.88006000000001">
    <ele>16.18</ele>
   </trkpt>
   <trkpt lat="37.57654" lon="126.88006000000001">
    <ele>16.03</ele>
   </trkpt>
   <trkpt lat="37.57636" lon="126.88017">
    <ele>15.75</ele>
   </trkpt>
   <trkpt lat="37.5763" lon="126.88023000000001">
    <ele>15.75</ele>
   </trkpt>
   <trkpt lat="37.57593" lon="126.8803">
    <ele>17.220000000000002</ele>
   </trkpt>
   <trkpt lat="37.575375007223734" lon="126.88105501686563">
    <ele>17.19</ele>
   </trkpt>
   <trkpt lat="37.57482000963903" lon="126.88181002247711">
    <ele>17.11</ele>
   </trkpt>
   <trkpt lat="37.57426500724609" lon="126.88256501683469">
    <ele>16.87</ele>
   </trkpt>
   <trkpt lat="37.573710000000005" lon="126.88332000000001">
    <ele>16.830000000000002</ele>
   </trkpt>
   <trkpt lat="37.57392" lon="126.88333000000002">
    <ele>16.85</ele>
   </trkpt>
   <trkpt lat="37.57406" lon="126.88326">
    <ele>16.85</ele>
   </trkpt>
   <trkpt lat="37.57385" lon="126.88364000000001">
    <ele>16.85</ele>
   </trkpt>
   <trkpt lat="37.57338" lon="126.88426000000001">
    <ele>16.560000000000002</ele>
   </trkpt>
   <trkpt lat="37.57323" lon="126.88427000000001">
    <ele>16.43</ele>
   </trkpt>
   <trkpt lat="37.57302" lon="126.88436000000002">
    <ele>16.14</ele>
   </trkpt>
   <trkpt lat="37.57276" lon="126.88450000000002">
    <ele>16.060000000000002</ele>
   </trkpt>
   <trkpt lat="37.57255" lon="126.88466000000001">
    <ele>16.19</ele>
   </trkpt>
   <trkpt lat="37.572390000000006" lon="126.88490000000002">
    <ele>16.23</ele>
   </trkpt>
   <trkpt lat="37.571780000000004" lon="126.88570000000001">
    <ele>16.64</ele>
   </trkpt>
   <trkpt lat="37.57132" lon="126.88653000000001">
    <ele>16.41</ele>
   </trkpt>
   <trkpt lat="37.57123" lon="126.88679">
    <ele>16.32</ele>
   </trkpt>
   <trkpt lat="37.57119" lon="126.88703000000001">
    <ele>16.17</ele>
   </trkpt>
   <trkpt lat="37.571090000000005" lon="126.88732000000002">
    <ele>16.080000000000002</ele>
   </trkpt>
   <trkpt lat="37.57151" lon="126.88725000000001">
    <ele>15.950000000000003</ele>
   </trkpt>
   <trkpt lat="37.57168" lon="126.88733">
    <ele>16.020000000000003</ele>
   </trkpt>
   <trkpt lat="37.571760000000005" lon="126.88733">
    <ele>15.870000000000001</ele>
   </trkpt>
   <trkpt lat="37.57179" lon="126.88717000000001">
    <ele>15.56</ele>
   </trkpt>
   <trkpt lat="37.571850000000005" lon="126.88708000000001">
    <ele>15.56</ele>
   </trkpt>
   <trkpt lat="37.57188" lon="126.88697">
    <ele>15.450000000000001</ele>
   </trkpt>
   <trkpt lat="37.571960000000004" lon="126.88699000000001">
    <ele>15.450000000000001</ele>
   </trkpt>
   <trkpt lat="37.57222" lon="126.88701">
    <ele>16.26</ele>
   </trkpt>
   <trkpt lat="37.5724" lon="126.88695000000001">
    <ele>16.27</ele>
   </trkpt>
   <trkpt lat="37.572590000000005" lon="126.88684">
    <ele>16.099999999999998</ele>
   </trkpt>
   <trkpt lat="37.57278" lon="126.88662000000001">
    <ele>15.76</ele>
   </trkpt>
   <trkpt lat="37.572900000000004" lon="126.88644000000001">
    <ele>15.76</ele>
   </trkpt>
   <trkpt lat="37.57309" lon="126.88594">
    <ele>15.48</ele>
   </trkpt>
   <trkpt lat="37.57311" lon="126.88574000000001">
    <ele>15.39</ele>
   </trkpt>
   <trkpt lat="37.573100000000004" lon="126.88556000000001">
    <ele>15.120000000000001</ele>
   </trkpt>
   <trkpt lat="37.57307" lon="126.8854">
    <ele>14.770000000000001</ele>
   </trkpt>
   <trkpt lat="37.57287" lon="126.88513">
    <ele>13.71</ele>
   </trkpt>
   <trkpt lat="37.572750000000006" lon="126.88507000000001">
    <ele>13.19</ele>
   </trkpt>
   <trkpt lat="37.572660000000006" lon="126.88508000000002">
    <ele>13.120000000000001</ele>
   </trkpt>
   <trkpt lat="37.5726" lon="126.88511000000001">
    <ele>13.13</ele>
   </trkpt>
   <trkpt lat="37.572540000000004" lon="126.88517000000002">
    <ele>13.21</ele>
   </trkpt>
   <trkpt lat="37.57236" lon="126.88553000000002">
    <ele>13.49</ele>
   </trkpt>
   <trkpt lat="37.57227" lon="126.88576">
    <ele>13.7</ele>
   </trkpt>
   <trkpt lat="37.57215" lon="126.88593000000002">
    <ele>14.020000000000001</ele>
   </trkpt>
   <trkpt lat="37.571810000000006" lon="126.88624000000002">
    <ele>14.74</ele>
   </trkpt>
   <trkpt lat="37.57175" lon="126.88633000000002">
    <ele>14.820000000000002</ele>
   </trkpt>
   <trkpt lat="37.571690000000004" lon="126.88650000000001">
    <ele>14.820000000000002</ele>
   </trkpt>
   <trkpt lat="37.571670000000005" lon="126.88669000000002">
    <ele>14.97</ele>
   </trkpt>
   <trkpt lat="37.57173" lon="126.88681000000001">
    <ele>15.06</ele>
   </trkpt>
   <trkpt lat="37.571720000000006" lon="126.88681000000001">
    <ele>15.070000000000002</ele>
   </trkpt>
   <trkpt lat="37.571780000000004" lon="126.88689000000001">
    <ele>15.170000000000002</ele>
   </trkpt>
   <trkpt lat="37.57188" lon="126.88697">
    <ele>15.450000000000001</ele>
   </trkpt>
   <trkpt lat="37.571850000000005" lon="126.88708000000001">
    <ele>15.56</ele>
   </trkpt>
   <trkpt lat="37.57179" lon="126.88717000000001">
    <ele>15.870000000000001</ele>
   </trkpt>
   <trkpt lat="37.571760000000005" lon="126.88733">
    <ele>15.870000000000001</ele>
   </trkpt>
   <trkpt lat="37.57168" lon="126.88733">
    <ele>16.020000000000003</ele>
   </trkpt>
   <trkpt lat="37.57151" lon="126.88725000000001">
    <ele>15.950000000000003</ele>
   </trkpt>
   <trkpt lat="37.571090000000005" lon="126.88732000000002">
    <ele>16.080000000000002</ele>
   </trkpt>
   <trkpt lat="37.570930000000004" lon="126.88768000000002">
    <ele>15.950000000000003</ele>
   </trkpt>
   <trkpt lat="37.57067" lon="126.88806000000001">
    <ele>16.07</ele>
   </trkpt>
   <trkpt lat="37.57041" lon="126.88837000000001">
    <ele>16.84</ele>
   </trkpt>
   <trkpt lat="37.570150000000005" lon="126.8888">
    <ele>17.68</ele>
   </trkpt>
   <trkpt lat="37.56982" lon="126.88922000000001">
    <ele>19.14</ele>
   </trkpt>
   <trkpt lat="37.569570000000006" lon="126.88942000000002">
    <ele>20.5</ele>
   </trkpt>
   <trkpt lat="37.5688800028515" lon="126.8898950132029">
    <ele>21.62</ele>
   </trkpt>
   <trkpt lat="37.56819000379984" lon="126.89037001760506">
    <ele>21.93</ele>
   </trkpt>
   <trkpt lat="37.56750000284514" lon="126.89084501320686">
    <ele>22.29</ele>
   </trkpt>
   <trkpt lat="37.566810000000004" lon="126.89132000000001">
    <ele>24.650000000000002</ele>
   </trkpt>
   <trkpt lat="37.56658" lon="126.89144000000002">
    <ele>25.66</ele>
   </trkpt>
   <trkpt lat="37.56649" lon="126.89146000000001">
    <ele>25.66</ele>
   </trkpt>
   <trkpt lat="37.566390000000006" lon="126.89146000000001">
    <ele>27.200000000000003</ele>
   </trkpt>
   <trkpt lat="37.56626" lon="126.89139000000002">
    <ele>27.200000000000003</ele>
   </trkpt>
   <trkpt lat="37.566030000000005" lon="126.89122">
    <ele>28.330000000000002</ele>
   </trkpt>
   <trkpt lat="37.566100000000006" lon="126.89144000000002">
    <ele>27.4</ele>
   </trkpt>
   <trkpt lat="37.5665200011565" lon="126.89193999730249">
    <ele>20.080000000000002</ele>
   </trkpt>
   <trkpt lat="37.56694" lon="126.89244000000001">
    <ele>18.400000000000002</ele>
   </trkpt>
   <trkpt lat="37.567080000000004" lon="126.89254000000001">
    <ele>18.680000000000003</ele>
   </trkpt>
   <trkpt lat="37.56748" lon="126.89294000000001">
    <ele>19.810000000000002</ele>
   </trkpt>
   <trkpt lat="37.567690000000006" lon="126.89304000000001">
    <ele>20.03</ele>
   </trkpt>
   <trkpt lat="37.567820000000005" lon="126.89322000000001">
    <ele>19.15</ele>
   </trkpt>
   <trkpt lat="37.568090000000005" lon="126.89352000000001">
    <ele>19.42</ele>
   </trkpt>
   <trkpt lat="37.5681" lon="126.89369">
    <ele>19.470000000000002</ele>
   </trkpt>
   <trkpt lat="37.568160000000006" lon="126.89380000000001">
    <ele>19.470000000000002</ele>
   </trkpt>
   <trkpt lat="37.568550000670314" lon="126.8941799980701">
    <ele>19.44</ele>
   </trkpt>
   <trkpt lat="37.568940000000005" lon="126.89456000000001">
    <ele>19.48</ele>
   </trkpt>
   <trkpt lat="37.569010000000006" lon="126.89447000000001">
    <ele>19.5</ele>
   </trkpt>
   <trkpt lat="37.56915" lon="126.89437000000001">
    <ele>19.53</ele>
   </trkpt>
   <trkpt lat="37.569970000000005" lon="126.89434000000001">
    <ele>20.09</ele>
   </trkpt>
   <trkpt lat="37.570060000000005" lon="126.89402000000001">
    <ele>20.66</ele>
   </trkpt>
   <trkpt lat="37.57014" lon="126.89383000000001">
    <ele>21.19</ele>
   </trkpt>
   <trkpt lat="37.57054" lon="126.89306">
    <ele>26.87</ele>
   </trkpt>
   <trkpt lat="37.570620000000005" lon="126.89298000000001">
    <ele>27.53</ele>
   </trkpt>
   <trkpt lat="37.57121" lon="126.89358000000001">
    <ele>27.560000000000002</ele>
   </trkpt>
   <trkpt lat="37.57121" lon="126.89357000000001">
    <ele>27.55</ele>
   </trkpt>
   <trkpt lat="37.570620000000005" lon="126.89298000000001">
    <ele>27.53</ele>
   </trkpt>
   <trkpt lat="37.57054" lon="126.89306">
    <ele>26.87</ele>
   </trkpt>
   <trkpt lat="37.57014" lon="126.89383000000001">
    <ele>21.19</ele>
   </trkpt>
   <trkpt lat="37.570060000000005" lon="126.89402000000001">
    <ele>20.46</ele>
   </trkpt>
   <trkpt lat="37.569970000000005" lon="126.89434000000001">
    <ele>20.09</ele>
   </trkpt>
   <trkpt lat="37.56915" lon="126.89437000000001">
    <ele>19.5</ele>
   </trkpt>
   <trkpt lat="37.569010000000006" lon="126.89447000000001">
    <ele>19.48</ele>
   </trkpt>
   <trkpt lat="37.568940000000005" lon="126.89456000000001">
    <ele>19.48</ele>
   </trkpt>
   <trkpt lat="37.56855000054766" lon="126.89417999795059">
    <ele>19.44</ele>
   </trkpt>
   <trkpt lat="37.568160000000006" lon="126.89380000000001">
    <ele>19.470000000000002</ele>
   </trkpt>
   <trkpt lat="37.5681" lon="126.89369">
    <ele>19.470000000000002</ele>
   </trkpt>
   <trkpt lat="37.568090000000005" lon="126.89352000000001">
    <ele>19.42</ele>
   </trkpt>
   <trkpt lat="37.567890000000006" lon="126.89330000000001">
    <ele>19.15</ele>
   </trkpt>
   <trkpt lat="37.56806" lon="126.89308000000001">
    <ele>18.97</ele>
   </trkpt>
   <trkpt lat="37.56838500094312" lon="126.89262500188728">
    <ele>18.770000000000003</ele>
   </trkpt>
   <trkpt lat="37.56871" lon="126.89217000000001">
    <ele>18.61</ele>
   </trkpt>
   <trkpt lat="37.56908000091439" lon="126.89171500220947">
    <ele>18.54</ele>
   </trkpt>
   <trkpt lat="37.56945" lon="126.89126000000002">
    <ele>18.500000000000004</ele>
   </trkpt>
   <trkpt lat="37.569975001265725" lon="126.89073000365404">
    <ele>18.410000000000004</ele>
   </trkpt>
   <trkpt lat="37.5705" lon="126.89020000000001">
    <ele>18.28</ele>
   </trkpt>
   <trkpt lat="37.57097500071363" lon="126.88980000251837">
    <ele>18.160000000000004</ele>
   </trkpt>
   <trkpt lat="37.571450000000006" lon="126.88940000000001">
    <ele>18.04</ele>
   </trkpt>
   <trkpt lat="37.57191500063777" lon="126.88905500205334">
    <ele>17.95</ele>
   </trkpt>
   <trkpt lat="37.57238" lon="126.88871000000002">
    <ele>17.78</ele>
   </trkpt>
   <trkpt lat="37.57302" lon="126.88813">
    <ele>17.45</ele>
   </trkpt>
   <trkpt lat="37.57364333676308" lon="126.8887733225004">
    <ele>18.46</ele>
   </trkpt>
   <trkpt lat="37.574266670035115" lon="126.88941665577028">
    <ele>19.8</ele>
   </trkpt>
   <trkpt lat="37.57489" lon="126.89006">
    <ele>21.580000000000002</ele>
   </trkpt>
   <trkpt lat="37.574570001246165" lon="126.89058500211871">
    <ele>30.300000000000004</ele>
   </trkpt>
   <trkpt lat="37.574250000000006" lon="126.89111000000001">
    <ele>36.13</ele>
   </trkpt>
   <trkpt lat="37.574160000000006" lon="126.89130000000002">
    <ele>37.28</ele>
   </trkpt>
   <trkpt lat="37.574090000000005" lon="126.89151000000001">
    <ele>40.67</ele>
   </trkpt>
   <trkpt lat="37.57406" lon="126.89164000000001">
    <ele>40.67</ele>
   </trkpt>
  </trkseg>
 </trk>
</gpx>
