<?xml version="1.0" encoding="UTF-8"?>
<gpx creator="daengrun-naver-route" version="1.1" xmlns="http://www.topografix.com/GPX/1/1" xmlns:xsi="http://www.w3.org/2001/XMLSchema-instance" xsi:schemaLocation="http://www.topografix.com/GPX/1/1 http://www.topografix.com/GPX/1/1/gpx.xsd">
 <metadata>
  <name>마포 서강대정문공원·한화오벨리스크 중앙 루프 2.75km</name>
  <desc>daengrun candidate geometry — measured 2.75km via Naver pedestrian router (o=flat, 계단회피). Elevation NOT available from this source. stairs=0 crosswalk=10 steppingstone=0 underpass=0 overpass=0</desc>
  <link href="naver:gi2shq"><text>daengrun route id</text></link>
  <copyright author="NAVER Corp."><license>https://map.naver.com/</license></copyright>
 </metadata>
 <trk>
  <name>마포 서강대정문공원·한화오벨리스크 중앙 루프 2.75km</name>
  <trkseg>
   <trkpt lat="37.5491466" lon="126.9343858"></trkpt>
   <trkpt lat="37.5490061" lon="126.9345895"></trkpt>
   <trkpt lat="37.5490061" lon="126.9345895"></trkpt>
   <trkpt lat="37.549084" lon="126.9346874"></trkpt>
   <trkpt lat="37.549347" lon="126.9350171"></trkpt>
   <trkpt lat="37.5493751" lon="126.9350452"></trkpt>
   <trkpt lat="37.5493751" lon="126.9350452"></trkpt>
   <trkpt lat="37.5494159" lon="126.9350891"></trkpt>
   <trkpt lat="37.5494784" lon="126.9351588"></trkpt>
   <trkpt lat="37.5494784" lon="126.9351588"></trkpt>
   <trkpt lat="37.549502" lon="126.9351892"></trkpt>
   <trkpt lat="37.5498543" lon="126.9355533"></trkpt>
   <trkpt lat="37.5498543" lon="126.9355533"></trkpt>
   <trkpt lat="37.549986" lon="126.935558"></trkpt>
   <trkpt lat="37.5499767" lon="126.9356973"></trkpt>
   <trkpt lat="37.549947" lon="126.9358979"></trkpt>
   <trkpt lat="37.549947" lon="126.9358979"></trkpt>
   <trkpt lat="37.5501463" lon="126.9361081"></trkpt>
   <trkpt lat="37.5502886" lon="126.9362701"></trkpt>
   <trkpt lat="37.5504889" lon="126.9364938"></trkpt>
   <trkpt lat="37.5506538" lon="126.9366828"></trkpt>
   <trkpt lat="37.5507028" lon="126.9367379"></trkpt>
   <trkpt lat="37.5507544" lon="126.9367975"></trkpt>
   <trkpt lat="37.5509058" lon="126.9369707"></trkpt>
   <trkpt lat="37.5509429" lon="126.9370134"></trkpt>
   <trkpt lat="37.551039" lon="126.9371225"></trkpt>
   <trkpt lat="37.5510961" lon="126.9371878"></trkpt>
   <trkpt lat="37.5511568" lon="126.9372564"></trkpt>
   <trkpt lat="37.5512284" lon="126.9373385"></trkpt>
   <trkpt lat="37.5513257" lon="126.9375279"></trkpt>
   <trkpt lat="37.551243" lon="126.937575"></trkpt>
   <trkpt lat="37.551243" lon="126.937575"></trkpt>
   <trkpt lat="37.5512744" lon="126.9377264"></trkpt>
   <trkpt lat="37.5513047" lon="126.937836"></trkpt>
   <trkpt lat="37.5513047" lon="126.937836"></trkpt>
   <trkpt lat="37.5513928" lon="126.9377957"></trkpt>
   <trkpt lat="37.551445" lon="126.9377738"></trkpt>
   <trkpt lat="37.5514567" lon="126.9377738"></trkpt>
   <trkpt lat="37.5515298" lon="126.9377834"></trkpt>
   <trkpt lat="37.5515568" lon="126.9377923"></trkpt>
   <trkpt lat="37.5515568" lon="126.9377923"></trkpt>
   <trkpt lat="37.5515957" lon="126.9378225"></trkpt>
   <trkpt lat="37.5516691" lon="126.9379012"></trkpt>
   <trkpt lat="37.5516706" lon="126.9380099"></trkpt>
   <trkpt lat="37.5516706" lon="126.9380099"></trkpt>
   <trkpt lat="37.5516246" lon="126.9380068"></trkpt>
   <trkpt lat="37.5515957" lon="126.9380116"></trkpt>
   <trkpt lat="37.5515473" lon="126.9380527"></trkpt>
   <trkpt lat="37.5515213" lon="126.9380869"></trkpt>
   <trkpt lat="37.5514147" lon="126.9382371"></trkpt>
   <trkpt lat="37.5514147" lon="126.9382371"></trkpt>
   <trkpt lat="37.5513329" lon="126.938077"></trkpt>
   <trkpt lat="37.5513329" lon="126.938077"></trkpt>
   <trkpt lat="37.5514147" lon="126.9382371"></trkpt>
   <trkpt lat="37.5514147" lon="126.9382371"></trkpt>
   <trkpt lat="37.5515213" lon="126.9380869"></trkpt>
   <trkpt lat="37.5515473" lon="126.9380527"></trkpt>
   <trkpt lat="37.5515957" lon="126.9380116"></trkpt>
   <trkpt lat="37.5516246" lon="126.9380068"></trkpt>
   <trkpt lat="37.5516706" lon="126.9380099"></trkpt>
   <trkpt lat="37.5516706" lon="126.9380099"></trkpt>
   <trkpt lat="37.5516691" lon="126.9379012"></trkpt>
   <trkpt lat="37.5517479" lon="126.9377761"></trkpt>
   <trkpt lat="37.5517675" lon="126.9377409"></trkpt>
   <trkpt lat="37.5517675" lon="126.9377409"></trkpt>
   <trkpt lat="37.5518554" lon="126.9376372"></trkpt>
   <trkpt lat="37.5518887" lon="126.9376267"></trkpt>
   <trkpt lat="37.5520786" lon="126.9375755"></trkpt>
   <trkpt lat="37.5522505" lon="126.937521"></trkpt>
   <trkpt lat="37.5526242" lon="126.9374412"></trkpt>
   <trkpt lat="37.552761" lon="126.9374085"></trkpt>
   <trkpt lat="37.5530366" lon="126.9373543"></trkpt>
   <trkpt lat="37.5531915" lon="126.9373237"></trkpt>
   <trkpt lat="37.5532392" lon="126.9373143"></trkpt>
   <trkpt lat="37.5532392" lon="126.9373143"></trkpt>
   <trkpt lat="37.5531973" lon="126.9370384"></trkpt>
   <trkpt lat="37.5531973" lon="126.9370384"></trkpt>
   <trkpt lat="37.5534774" lon="126.9369865"></trkpt>
   <trkpt lat="37.55426" lon="126.9368594"></trkpt>
   <trkpt lat="37.5545015" lon="126.9368316"></trkpt>
   <trkpt lat="37.5545591" lon="126.9368255"></trkpt>
   <trkpt lat="37.5545888" lon="126.9368151"></trkpt>
   <trkpt lat="37.5546293" lon="126.9367876"></trkpt>
   <trkpt lat="37.5546463" lon="126.9367682"></trkpt>
   <trkpt lat="37.5546642" lon="126.9367432"></trkpt>
   <trkpt lat="37.5546722" lon="126.9367239"></trkpt>
   <trkpt lat="37.5546722" lon="126.9367239"></trkpt>
   <trkpt lat="37.5546739" lon="126.9367069"></trkpt>
   <trkpt lat="37.5546756" lon="126.9366752"></trkpt>
   <trkpt lat="37.5546691" lon="126.9366378"></trkpt>
   <trkpt lat="37.5546589" lon="126.9365847"></trkpt>
   <trkpt lat="37.5546353" lon="126.9365339"></trkpt>
   <trkpt lat="37.5545925" lon="126.9364527"></trkpt>
   <trkpt lat="37.5544163" lon="126.9361722"></trkpt>
   <trkpt lat="37.55391" lon="126.9352737"></trkpt>
   <trkpt lat="37.5538554" lon="126.9351688"></trkpt>
   <trkpt lat="37.5538354" lon="126.9351316"></trkpt>
   <trkpt lat="37.553553" lon="126.9347046"></trkpt>
   <trkpt lat="37.5533117" lon="126.9343815"></trkpt>
   <trkpt lat="37.5531204" lon="126.9341441"></trkpt>
   <trkpt lat="37.5530886" lon="126.9341036"></trkpt>
   <trkpt lat="37.5530877" lon="126.9341024"></trkpt>
   <trkpt lat="37.5529091" lon="126.9338796"></trkpt>
   <trkpt lat="37.5527595" lon="126.9336974"></trkpt>
   <trkpt lat="37.5526617" lon="126.9335962"></trkpt>
   <trkpt lat="37.5524527" lon="126.9334348"></trkpt>
   <trkpt lat="37.5523171" lon="126.9333475"></trkpt>
   <trkpt lat="37.5520883" lon="126.9331964"></trkpt>
   <trkpt lat="37.552017" lon="126.9331811"></trkpt>
   <trkpt lat="37.5519449" lon="126.9331793"></trkpt>
   <trkpt lat="37.5519449" lon="126.9331793"></trkpt>
   <trkpt lat="37.5518439" lon="126.9331767"></trkpt>
   <trkpt lat="37.5518439" lon="126.9331767"></trkpt>
   <trkpt lat="37.5512102" lon="126.9331476"></trkpt>
   <trkpt lat="37.5510082" lon="126.9331344"></trkpt>
   <trkpt lat="37.5510082" lon="126.9331344"></trkpt>
   <trkpt lat="37.5510112" lon="126.9330041"></trkpt>
   <trkpt lat="37.5510097" lon="126.9328921"></trkpt>
   <trkpt lat="37.5510097" lon="126.9328921"></trkpt>
   <trkpt lat="37.5510376" lon="126.9328817"></trkpt>
   <trkpt lat="37.5510573" lon="126.9328555"></trkpt>
   <trkpt lat="37.5510707" lon="126.9328203"></trkpt>
   <trkpt lat="37.551056" lon="126.9327717"></trkpt>
   <trkpt lat="37.5510189" lon="126.9327279"></trkpt>
   <trkpt lat="37.5503329" lon="126.9325259"></trkpt>
   <trkpt lat="37.5500927" lon="126.9324417"></trkpt>
   <trkpt lat="37.5497894" lon="126.9323421"></trkpt>
   <trkpt lat="37.5496196" lon="126.9322868"></trkpt>
   <trkpt lat="37.5494066" lon="126.9322227"></trkpt>
   <trkpt lat="37.5492658" lon="126.9321751"></trkpt>
   <trkpt lat="37.5484758" lon="126.9319083"></trkpt>
   <trkpt lat="37.5478043" lon="126.9317243"></trkpt>
   <trkpt lat="37.54778" lon="126.9317222"></trkpt>
   <trkpt lat="37.5477611" lon="126.9317314"></trkpt>
   <trkpt lat="37.5476973" lon="126.9317772"></trkpt>
   <trkpt lat="37.5476973" lon="126.9317772"></trkpt>
   <trkpt lat="37.5476498" lon="126.9318342"></trkpt>
   <trkpt lat="37.5476231" lon="126.9319046"></trkpt>
   <trkpt lat="37.5476017" lon="126.9323168"></trkpt>
   <trkpt lat="37.5476017" lon="126.9323168"></trkpt>
   <trkpt lat="37.5475097" lon="126.9323163"></trkpt>
   <trkpt lat="37.5473547" lon="126.9323164"></trkpt>
   <trkpt lat="37.5473547" lon="126.9323164"></trkpt>
   <trkpt lat="37.5473754" lon="126.9317423"></trkpt>
   <trkpt lat="37.5473716" lon="126.9317084"></trkpt>
   <trkpt lat="37.5473606" lon="126.9316733"></trkpt>
   <trkpt lat="37.5473424" lon="126.9316327"></trkpt>
   <trkpt lat="37.5473424" lon="126.9316327"></trkpt>
   <trkpt lat="37.5472771" lon="126.9315449"></trkpt>
   <trkpt lat="37.5472572" lon="126.9315281"></trkpt>
   <trkpt lat="37.5472309" lon="126.9315068"></trkpt>
   <trkpt lat="37.5469169" lon="126.9314345"></trkpt>
   <trkpt lat="37.5465649" lon="126.9313239"></trkpt>
   <trkpt lat="37.5465649" lon="126.9313239"></trkpt>
   <trkpt lat="37.5465117" lon="126.93151"></trkpt>
   <trkpt lat="37.5465117" lon="126.93151"></trkpt>
   <trkpt lat="37.5464567" lon="126.931704"></trkpt>
   <trkpt lat="37.5464567" lon="126.931704"></trkpt>
   <trkpt lat="37.5465996" lon="126.931987"></trkpt>
   <trkpt lat="37.5465996" lon="126.931987"></trkpt>
   <trkpt lat="37.5465644" lon="126.932156"></trkpt>
   <trkpt lat="37.5465644" lon="126.932156"></trkpt>
   <trkpt lat="37.5471749" lon="126.9324094"></trkpt>
   <trkpt lat="37.5472858" lon="126.9324154"></trkpt>
   <trkpt lat="37.5472858" lon="126.9324154"></trkpt>
   <trkpt lat="37.5472656" lon="126.9325412"></trkpt>
   <trkpt lat="37.547241" lon="126.9326569"></trkpt>
   <trkpt lat="37.547241" lon="126.9326569"></trkpt>
   <trkpt lat="37.5472726" lon="126.9326725"></trkpt>
   <trkpt lat="37.5473043" lon="126.9327017"></trkpt>
   <trkpt lat="37.5473224" lon="126.9327287"></trkpt>
   <trkpt lat="37.5473335" lon="126.932783"></trkpt>
   <trkpt lat="37.5473328" lon="126.9328135"></trkpt>
   <trkpt lat="37.5473321" lon="126.9328667"></trkpt>
   <trkpt lat="37.5473305" lon="126.933272"></trkpt>
   <trkpt lat="37.5473305" lon="126.9332799"></trkpt>
   <trkpt lat="37.5473234" lon="126.9336875"></trkpt>
   <trkpt lat="37.5473241" lon="126.9338222"></trkpt>
   <trkpt lat="37.5473119" lon="126.934111"></trkpt>
   <trkpt lat="37.5473096" lon="126.9341971"></trkpt>
   <trkpt lat="37.5473096" lon="126.9341971"></trkpt>
   <trkpt lat="37.5475387" lon="126.934227"></trkpt>
   <trkpt lat="37.5475387" lon="126.934227"></trkpt>
   <trkpt lat="37.5479616" lon="126.934251"></trkpt>
   <trkpt lat="37.5482474" lon="126.9342681"></trkpt>
   <trkpt lat="37.5483123" lon="126.934271"></trkpt>
   <trkpt lat="37.54837" lon="126.9342728"></trkpt>
   <trkpt lat="37.5483943" lon="126.9342749"></trkpt>
   <trkpt lat="37.5484376" lon="126.9342757"></trkpt>
   <trkpt lat="37.5487134" lon="126.9342702"></trkpt>
   <trkpt lat="37.5487486" lon="126.9342903"></trkpt>
   <trkpt lat="37.5490061" lon="126.9345895"></trkpt>
   <trkpt lat="37.5490061" lon="126.9345895"></trkpt>
   <trkpt lat="37.5491466" lon="126.9343858"></trkpt>
  </trkseg>
 </trk>
</gpx>
