<?xml version="1.0" encoding="UTF-8"?>
<gpx creator="StravaGPX" version="1.1" xmlns="http://www.topografix.com/GPX/1/1" xmlns:xsi="http://www.w3.org/2001/XMLSchema-instance" xsi:schemaLocation="http://www.topografix.com/GPX/1/1 http://www.topografix.com/GPX/1/1/gpx.xsd">
 <metadata>
  <name>마포 상암 문화비축기지 루프 7.05km</name>
  <desc>daengrun candidate geometry — measured 7.05km, gain 156</desc>
  <author>
   <name>S Kim</name>
   <link href="https://www.strava.com/athletes/558867461"/>
  </author>
  <copyright author="OpenStreetMap contributors">
   <year>2020</year>
   <license>https://www.openstreetmap.org/copyright</license>
  </copyright>
  <link href="https://www.strava.com/routes/3524982565721803160"/>
 </metadata>
 <trk>
  <name>마포 상암 문화비축기지 루프 7.05km</name>
  <desc>daengrun candidate geometry — measured 7.05km, gain 156</desc>
  <link href="https://www.strava.com/routes/3524982565721803160"/>
  <type>running</type>
  <trkseg>
   <trkpt lat="37.57406" lon="126.89163">
    <ele>40.59</ele>
   </trkpt>
   <trkpt lat="37.574090000000005" lon="126.89151000000001">
    <ele>40.59</ele>
   </trkpt>
   <trkpt lat="37.574160000000006" lon="126.89130000000002">
    <ele>36.13</ele>
   </trkpt>
   <trkpt lat="37.574250000000006" lon="126.89111000000001">
    <ele>36.13</ele>
   </trkpt>
   <trkpt lat="37.57457000107878" lon="126.8905850023933">
    <ele>30.300000000000004</ele>
   </trkpt>
   <trkpt lat="37.57489" lon="126.89006">
    <ele>21.580000000000002</ele>
   </trkpt>
   <trkpt lat="37.575410002362446" lon="126.8905899925908">
    <ele>22.17</ele>
   </trkpt>
   <trkpt lat="37.575930002355456" lon="126.89111999258358">
    <ele>22.64</ele>
   </trkpt>
   <trkpt lat="37.57645" lon="126.89165000000001">
    <ele>21.92</ele>
   </trkpt>
   <trkpt lat="37.57714" lon="126.89233000000002">
    <ele>20.09</ele>
   </trkpt>
   <trkpt lat="37.57686000096937" lon="126.8928150018631">
    <ele>21.970000000000002</ele>
   </trkpt>
   <trkpt lat="37.57658" lon="126.89330000000001">
    <ele>24.07</ele>
   </trkpt>
   <trkpt lat="37.577040000000004" lon="126.89363000000002">
    <ele>21.980000000000004</ele>
   </trkpt>
   <trkpt lat="37.57697" lon="126.89373">
    <ele>22.73</ele>
   </trkpt>
   <trkpt lat="37.57683" lon="126.89395">
    <ele>24.84</ele>
   </trkpt>
   <trkpt lat="37.57674" lon="126.89398000000001">
    <ele>24.84</ele>
   </trkpt>
   <trkpt lat="37.57665" lon="126.89399000000002">
    <ele>24.84</ele>
   </trkpt>
   <trkpt lat="37.57656" lon="126.89396">
    <ele>27.82</ele>
   </trkpt>
   <trkpt lat="37.57645" lon="126.89409">
    <ele>27.82</ele>
   </trkpt>
   <trkpt lat="37.57623" lon="126.89388000000001">
    <ele>27.590000000000003</ele>
   </trkpt>
   <trkpt lat="37.57586000340934" lon="126.89452000643918">
    <ele>30.650000000000002</ele>
   </trkpt>
   <trkpt lat="37.575490003363555" lon="126.8951600065183">
    <ele>30.42</ele>
   </trkpt>
   <trkpt lat="37.575120000000005" lon="126.89580000000001">
    <ele>29.720000000000002</ele>
   </trkpt>
   <trkpt lat="37.574560000000005" lon="126.89529000000002">
    <ele>33.07</ele>
   </trkpt>
   <trkpt lat="37.57419" lon="126.89588">
    <ele>36.46000000000001</ele>
   </trkpt>
   <trkpt lat="37.57412" lon="126.89623000000002">
    <ele>39.589999999999996</ele>
   </trkpt>
   <trkpt lat="37.57408" lon="126.89627000000002">
    <ele>39.0</ele>
   </trkpt>
   <trkpt lat="37.57401" lon="126.89630000000001">
    <ele>38.78</ele>
   </trkpt>
   <trkpt lat="37.57395" lon="126.89640000000001">
    <ele>38.06</ele>
   </trkpt>
   <trkpt lat="37.57386" lon="126.89678">
    <ele>37.03</ele>
   </trkpt>
   <trkpt lat="37.573820000000005" lon="126.89677">
    <ele>37.03</ele>
   </trkpt>
   <trkpt lat="37.57377" lon="126.89680000000001">
    <ele>41.32</ele>
   </trkpt>
   <trkpt lat="37.57363" lon="126.89695">
    <ele>45.03</ele>
   </trkpt>
   <trkpt lat="37.573510000000006" lon="126.89681000000002">
    <ele>47.910000000000004</ele>
   </trkpt>
   <trkpt lat="37.573440000000005" lon="126.89681000000002">
    <ele>53.99</ele>
   </trkpt>
   <trkpt lat="37.57341" lon="126.89683000000001">
    <ele>53.99</ele>
   </trkpt>
   <trkpt lat="37.57336" lon="126.89680000000001">
    <ele>55.43000000000001</ele>
   </trkpt>
   <trkpt lat="37.573330000000006" lon="126.89672000000002">
    <ele>58.02</ele>
   </trkpt>
   <trkpt lat="37.573370000000004" lon="126.89649000000001">
    <ele>62.00000000000001</ele>
   </trkpt>
   <trkpt lat="37.5733" lon="126.89656000000001">
    <ele>61.61000000000001</ele>
   </trkpt>
   <trkpt lat="37.573260000000005" lon="126.89656000000001">
    <ele>61.550000000000004</ele>
   </trkpt>
   <trkpt lat="37.573260000000005" lon="126.89650000000002">
    <ele>61.59</ele>
   </trkpt>
   <trkpt lat="37.573330000000006" lon="126.89632000000002">
    <ele>62.00000000000001</ele>
   </trkpt>
   <trkpt lat="37.573280000000004" lon="126.89634000000001">
    <ele>62.00000000000001</ele>
   </trkpt>
   <trkpt lat="37.57292" lon="126.89680000000001">
    <ele>62.00000000000001</ele>
   </trkpt>
   <trkpt lat="37.57267" lon="126.89697000000001">
    <ele>28.990000000000002</ele>
   </trkpt>
   <trkpt lat="37.57247" lon="126.89724000000001">
    <ele>28.990000000000002</ele>
   </trkpt>
   <trkpt lat="37.572540000000004" lon="126.89751000000001">
    <ele>28.990000000000002</ele>
   </trkpt>
   <trkpt lat="37.57258" lon="126.89758">
    <ele>28.990000000000002</ele>
   </trkpt>
   <trkpt lat="37.572680000000005" lon="126.89768000000001">
    <ele>28.990000000000002</ele>
   </trkpt>
   <trkpt lat="37.572720000000004" lon="126.89757000000002">
    <ele>34.4</ele>
   </trkpt>
   <trkpt lat="37.573060000000005" lon="126.89725000000001">
    <ele>47.00000000000001</ele>
   </trkpt>
   <trkpt lat="37.573060000000005" lon="126.89710000000001">
    <ele>46.580000000000005</ele>
   </trkpt>
   <trkpt lat="37.573010000000004" lon="126.89706000000001">
    <ele>46.220000000000006</ele>
   </trkpt>
   <trkpt lat="37.57302" lon="126.89692000000001">
    <ele>44.56</ele>
   </trkpt>
   <trkpt lat="37.57296" lon="126.89683000000001">
    <ele>43.77</ele>
   </trkpt>
   <trkpt lat="37.57287" lon="126.89654000000002">
    <ele>47.41</ele>
   </trkpt>
   <trkpt lat="37.57289" lon="126.89633">
    <ele>50.050000000000004</ele>
   </trkpt>
   <trkpt lat="37.57293000000001" lon="126.89628">
    <ele>55.790000000000006</ele>
   </trkpt>
   <trkpt lat="37.572970000000005" lon="126.89568000000001">
    <ele>67.76</ele>
   </trkpt>
   <trkpt lat="37.573040000000006" lon="126.89558000000001">
    <ele>69.63000000000001</ele>
   </trkpt>
   <trkpt lat="37.57302" lon="126.89546000000001">
    <ele>71.0</ele>
   </trkpt>
   <trkpt lat="37.57294" lon="126.89522000000001">
    <ele>72.85000000000001</ele>
   </trkpt>
   <trkpt lat="37.57282" lon="126.89506000000002">
    <ele>73.61000000000001</ele>
   </trkpt>
   <trkpt lat="37.572700000000005" lon="126.89453000000002">
    <ele>77.94000000000001</ele>
   </trkpt>
   <trkpt lat="37.57283" lon="126.89428000000001">
    <ele>81.02000000000001</ele>
   </trkpt>
   <trkpt lat="37.573280000000004" lon="126.89393000000001">
    <ele>82.77000000000001</ele>
   </trkpt>
   <trkpt lat="37.57332" lon="126.89383000000001">
    <ele>82.43</ele>
   </trkpt>
   <trkpt lat="37.573280000000004" lon="126.89393000000001">
    <ele>82.77000000000001</ele>
   </trkpt>
   <trkpt lat="37.57283" lon="126.89428000000001">
    <ele>81.02000000000001</ele>
   </trkpt>
   <trkpt lat="37.572700000000005" lon="126.89453000000002">
    <ele>77.94000000000001</ele>
   </trkpt>
   <trkpt lat="37.57282" lon="126.89506000000002">
    <ele>73.61000000000001</ele>
   </trkpt>
   <trkpt lat="37.57294" lon="126.89522000000001">
    <ele>72.85000000000001</ele>
   </trkpt>
   <trkpt lat="37.57302" lon="126.89546000000001">
    <ele>71.0</ele>
   </trkpt>
   <trkpt lat="37.57248500019561" lon="126.89568500162387">
    <ele>61.32000000000001</ele>
   </trkpt>
   <trkpt lat="37.57195" lon="126.89591000000001">
    <ele>52.010000000000005</ele>
   </trkpt>
   <trkpt lat="37.571540000000006" lon="126.89614000000002">
    <ele>47.830000000000005</ele>
   </trkpt>
   <trkpt lat="37.571310000000004" lon="126.89645000000002">
    <ele>43.160000000000004</ele>
   </trkpt>
   <trkpt lat="37.571270000000005" lon="126.89665000000001">
    <ele>35.32</ele>
   </trkpt>
   <trkpt lat="37.57137" lon="126.89690000000002">
    <ele>30.770000000000003</ele>
   </trkpt>
   <trkpt lat="37.57157" lon="126.89709">
    <ele>24.990000000000002</ele>
   </trkpt>
   <trkpt lat="37.571310000000004" lon="126.89696">
    <ele>30.390000000000004</ele>
   </trkpt>
   <trkpt lat="37.57099" lon="126.89689000000001">
    <ele>36.35</ele>
   </trkpt>
   <trkpt lat="37.5707" lon="126.89662000000001">
    <ele>33.45</ele>
   </trkpt>
   <trkpt lat="37.57088" lon="126.89629000000001">
    <ele>33.510000000000005</ele>
   </trkpt>
   <trkpt lat="37.570870000000006" lon="126.89596000000002">
    <ele>33.21</ele>
   </trkpt>
   <trkpt lat="37.57085" lon="126.89583">
    <ele>33.370000000000005</ele>
   </trkpt>
   <trkpt lat="37.571020000000004" lon="126.89580000000001">
    <ele>34.17</ele>
   </trkpt>
   <trkpt lat="37.5711" lon="126.89575">
    <ele>34.370000000000005</ele>
   </trkpt>
   <trkpt lat="37.57119" lon="126.89564000000001">
    <ele>34.010000000000005</ele>
   </trkpt>
   <trkpt lat="37.57146" lon="126.89520000000002">
    <ele>33.870000000000005</ele>
   </trkpt>
   <trkpt lat="37.57151" lon="126.89508000000001">
    <ele>34.59</ele>
   </trkpt>
   <trkpt lat="37.571540000000006" lon="126.89491000000001">
    <ele>34.96</ele>
   </trkpt>
   <trkpt lat="37.57157" lon="126.89421000000002">
    <ele>36.37</ele>
   </trkpt>
   <trkpt lat="37.57159" lon="126.89408000000002">
    <ele>36.39000000000001</ele>
   </trkpt>
   <trkpt lat="37.57164" lon="126.89395">
    <ele>36.35</ele>
   </trkpt>
   <trkpt lat="37.571670000000005" lon="126.89367000000001">
    <ele>36.0</ele>
   </trkpt>
   <trkpt lat="37.57164" lon="126.89346">
    <ele>36.0</ele>
   </trkpt>
   <trkpt lat="37.57151" lon="126.89300000000001">
    <ele>35.22</ele>
   </trkpt>
   <trkpt lat="37.57143000000001" lon="126.89291000000001">
    <ele>35.050000000000004</ele>
   </trkpt>
   <trkpt lat="37.57135" lon="126.89286000000001">
    <ele>34.9</ele>
   </trkpt>
   <trkpt lat="37.5711" lon="126.89290000000001">
    <ele>33.580000000000005</ele>
   </trkpt>
   <trkpt lat="37.570840000000004" lon="126.89290000000001">
    <ele>28.380000000000003</ele>
   </trkpt>
   <trkpt lat="37.57074" lon="126.89292">
    <ele>28.380000000000003</ele>
   </trkpt>
   <trkpt lat="37.570620000000005" lon="126.89298000000001">
    <ele>27.53</ele>
   </trkpt>
   <trkpt lat="37.57121" lon="126.89358000000001">
    <ele>27.560000000000002</ele>
   </trkpt>
   <trkpt lat="37.57121" lon="126.89357000000001">
    <ele>27.55</ele>
   </trkpt>
   <trkpt lat="37.570620000000005" lon="126.89298000000001">
    <ele>27.53</ele>
   </trkpt>
   <trkpt lat="37.57054" lon="126.89306">
    <ele>26.87</ele>
   </trkpt>
   <trkpt lat="37.57014" lon="126.89383000000001">
    <ele>21.19</ele>
   </trkpt>
   <trkpt lat="37.570060000000005" lon="126.89402000000001">
    <ele>20.46</ele>
   </trkpt>
   <trkpt lat="37.569970000000005" lon="126.89434000000001">
    <ele>20.09</ele>
   </trkpt>
   <trkpt lat="37.56915" lon="126.89437000000001">
    <ele>19.5</ele>
   </trkpt>
   <trkpt lat="37.569010000000006" lon="126.89447000000001">
    <ele>19.48</ele>
   </trkpt>
   <trkpt lat="37.568940000000005" lon="126.89456000000001">
    <ele>19.48</ele>
   </trkpt>
   <trkpt lat="37.56855000054766" lon="126.89417999795059">
    <ele>19.44</ele>
   </trkpt>
   <trkpt lat="37.568160000000006" lon="126.89380000000001">
    <ele>19.470000000000002</ele>
   </trkpt>
   <trkpt lat="37.5681" lon="126.89369">
    <ele>19.470000000000002</ele>
   </trkpt>
   <trkpt lat="37.568090000000005" lon="126.89352000000001">
    <ele>19.42</ele>
   </trkpt>
   <trkpt lat="37.567820000000005" lon="126.89322000000001">
    <ele>19.650000000000002</ele>
   </trkpt>
   <trkpt lat="37.567690000000006" lon="126.89304000000001">
    <ele>20.03</ele>
   </trkpt>
   <trkpt lat="37.56748" lon="126.89294000000001">
    <ele>19.810000000000002</ele>
   </trkpt>
   <trkpt lat="37.567080000000004" lon="126.89254000000001">
    <ele>18.680000000000003</ele>
   </trkpt>
   <trkpt lat="37.56694" lon="126.89244000000001">
    <ele>18.400000000000002</ele>
   </trkpt>
   <trkpt lat="37.56652000095213" lon="126.89193999705923">
    <ele>20.080000000000002</ele>
   </trkpt>
   <trkpt lat="37.566100000000006" lon="126.89144000000002">
    <ele>27.4</ele>
   </trkpt>
   <trkpt lat="37.566030000000005" lon="126.89122">
    <ele>28.330000000000002</ele>
   </trkpt>
   <trkpt lat="37.56626" lon="126.89139000000002">
    <ele>27.200000000000003</ele>
   </trkpt>
   <trkpt lat="37.566390000000006" lon="126.89146000000001">
    <ele>27.200000000000003</ele>
   </trkpt>
   <trkpt lat="37.56649" lon="126.89146000000001">
    <ele>25.66</ele>
   </trkpt>
   <trkpt lat="37.56658" lon="126.89144000000002">
    <ele>25.66</ele>
   </trkpt>
   <trkpt lat="37.566810000000004" lon="126.89132000000001">
    <ele>24.650000000000002</ele>
   </trkpt>
   <trkpt lat="37.56750000285771" lon="126.8908450131982">
    <ele>22.29</ele>
   </trkpt>
   <trkpt lat="37.56819000381242" lon="126.89037001759641">
    <ele>21.93</ele>
   </trkpt>
   <trkpt lat="37.56888000286408" lon="126.88989501319425">
    <ele>21.62</ele>
   </trkpt>
   <trkpt lat="37.569570000000006" lon="126.88942000000002">
    <ele>20.5</ele>
   </trkpt>
   <trkpt lat="37.56982" lon="126.88922000000001">
    <ele>19.14</ele>
   </trkpt>
   <trkpt lat="37.570150000000005" lon="126.8888">
    <ele>17.68</ele>
   </trkpt>
   <trkpt lat="37.57041" lon="126.88837000000001">
    <ele>16.84</ele>
   </trkpt>
   <trkpt lat="37.57067" lon="126.88806000000001">
    <ele>16.07</ele>
   </trkpt>
   <trkpt lat="37.570910000000005" lon="126.88770000000001">
    <ele>15.96</ele>
   </trkpt>
   <trkpt lat="37.571090000000005" lon="126.88732000000002">
    <ele>16.080000000000002</ele>
   </trkpt>
   <trkpt lat="37.57119" lon="126.88703000000001">
    <ele>16.17</ele>
   </trkpt>
   <trkpt lat="37.57123" lon="126.88679">
    <ele>16.32</ele>
   </trkpt>
   <trkpt lat="37.57132" lon="126.88653000000001">
    <ele>16.41</ele>
   </trkpt>
   <trkpt lat="37.571780000000004" lon="126.88570000000001">
    <ele>16.64</ele>
   </trkpt>
   <trkpt lat="37.572390000000006" lon="126.88490000000002">
    <ele>16.23</ele>
   </trkpt>
   <trkpt lat="37.57255" lon="126.88466000000001">
    <ele>16.19</ele>
   </trkpt>
   <trkpt lat="37.57276" lon="126.88450000000002">
    <ele>16.060000000000002</ele>
   </trkpt>
   <trkpt lat="37.57302" lon="126.88436000000002">
    <ele>16.14</ele>
   </trkpt>
   <trkpt lat="37.57323" lon="126.88427000000001">
    <ele>16.43</ele>
   </trkpt>
   <trkpt lat="37.57338" lon="126.88426000000001">
    <ele>16.560000000000002</ele>
   </trkpt>
   <trkpt lat="37.57385" lon="126.88364000000001">
    <ele>16.85</ele>
   </trkpt>
   <trkpt lat="37.57406" lon="126.88326">
    <ele>16.85</ele>
   </trkpt>
   <trkpt lat="37.57392" lon="126.88333000000002">
    <ele>16.85</ele>
   </trkpt>
   <trkpt lat="37.573710000000005" lon="126.88332000000001">
    <ele>16.830000000000002</ele>
   </trkpt>
   <trkpt lat="37.57426500720104" lon="126.88256501689598">
    <ele>16.87</ele>
   </trkpt>
   <trkpt lat="37.57482000959398" lon="126.88181002253837">
    <ele>17.11</ele>
   </trkpt>
   <trkpt lat="37.57537500717868" lon="126.88105501692694">
    <ele>17.19</ele>
   </trkpt>
   <trkpt lat="37.57593" lon="126.8803">
    <ele>17.220000000000002</ele>
   </trkpt>
   <trkpt lat="37.5763" lon="126.88023000000001">
    <ele>15.75</ele>
   </trkpt>
   <trkpt lat="37.57636" lon="126.88017">
    <ele>15.870000000000001</ele>
   </trkpt>
   <trkpt lat="37.57654" lon="126.88006000000001">
    <ele>16.03</ele>
   </trkpt>
   <trkpt lat="37.57668" lon="126.88006000000001">
    <ele>16.18</ele>
   </trkpt>
   <trkpt lat="37.57676" lon="126.88010000000001">
    <ele>16.18</ele>
   </trkpt>
   <trkpt lat="37.577310000000004" lon="126.88067000000001">
    <ele>17.02</ele>
   </trkpt>
   <trkpt lat="37.57743" lon="126.88087000000002">
    <ele>17.01</ele>
   </trkpt>
   <trkpt lat="37.576925009369326" lon="126.88173001747839">
    <ele>17.37</ele>
   </trkpt>
   <trkpt lat="37.57642001249971" lon="126.88259002329174">
    <ele>17.66</ele>
   </trkpt>
   <trkpt lat="37.57591500939136" lon="126.88345001744031">
    <ele>17.69</ele>
   </trkpt>
   <trkpt lat="37.575410000000005" lon="126.88431000000001">
    <ele>17.59</ele>
   </trkpt>
   <trkpt lat="37.57499000447455" lon="126.88503667482827">
    <ele>17.490000000000002</ele>
   </trkpt>
   <trkpt lat="37.57457000449489" lon="126.88576334145964">
    <ele>17.34</ele>
   </trkpt>
   <trkpt lat="37.57415" lon="126.88649000000001">
    <ele>17.16</ele>
   </trkpt>
   <trkpt lat="37.574766669898736" lon="126.88711332296384">
    <ele>19.16</ele>
   </trkpt>
   <trkpt lat="37.5753833365201" lon="126.88773665625119">
    <ele>21.62</ele>
   </trkpt>
   <trkpt lat="37.576" lon="126.88836">
    <ele>23.560000000000002</ele>
   </trkpt>
   <trkpt lat="37.57547" lon="126.88917000000001">
    <ele>21.93</ele>
   </trkpt>
   <trkpt lat="37.575990000000004" lon="126.88972000000001">
    <ele>23.26</ele>
   </trkpt>
   <trkpt lat="37.575990000000004" lon="126.88971000000001">
    <ele>23.23</ele>
   </trkpt>
   <trkpt lat="37.57547" lon="126.88917000000001">
    <ele>22.02</ele>
   </trkpt>
   <trkpt lat="37.57518000089152" lon="126.88961500164656">
    <ele>21.5</ele>
   </trkpt>
   <trkpt lat="37.57489" lon="126.89006">
    <ele>21.580000000000002</ele>
   </trkpt>
   <trkpt lat="37.574570001246165" lon="126.89058500211871">
    <ele>30.300000000000004</ele>
   </trkpt>
   <trkpt lat="37.574250000000006" lon="126.89111000000001">
    <ele>36.13</ele>
   </trkpt>
   <trkpt lat="37.574160000000006" lon="126.89130000000002">
    <ele>37.28</ele>
   </trkpt>
   <trkpt lat="37.574090000000005" lon="126.89151000000001">
    <ele>40.67</ele>
   </trkpt>
   <trkpt lat="37.57406" lon="126.89164000000001">
    <ele>40.67</ele>
   </trkpt>
  </trkseg>
 </trk>
</gpx>
