<?xml version="1.0" encoding="UTF-8"?>
<gpx creator="daengrun-naver-route" version="1.1" xmlns="http://www.topografix.com/GPX/1/1" xmlns:xsi="http://www.w3.org/2001/XMLSchema-instance" xsi:schemaLocation="http://www.topografix.com/GPX/1/1 http://www.topografix.com/GPX/1/1/gpx.xsd">
 <metadata>
  <name>마포 손기정체육공원·쌍룡산근링공원 루프 4.5km</name>
  <desc>daengrun candidate geometry — measured 4.50km via Naver pedestrian router (o=flat, 계단회피). Elevation NOT available from this source. stairs=0 crosswalk=12 steppingstone=0 underpass=0 overpass=0</desc>
  <link href="naver:12gj0h7"><text>daengrun route id</text></link>
  <copyright author="NAVER Corp."><license>https://map.naver.com/</license></copyright>
 </metadata>
 <trk>
  <name>마포 손기정체육공원·쌍룡산근링공원 루프 4.5km</name>
  <trkseg>
   <trkpt lat="37.5524975" lon="126.9589333"></trkpt>
   <trkpt lat="37.5525968" lon="126.95897"></trkpt>
   <trkpt lat="37.5525968" lon="126.95897"></trkpt>
   <trkpt lat="37.5525622" lon="126.9590914"></trkpt>
   <trkpt lat="37.5525622" lon="126.9590914"></trkpt>
   <trkpt lat="37.5528441" lon="126.9592399"></trkpt>
   <trkpt lat="37.5530609" lon="126.9593538"></trkpt>
   <trkpt lat="37.5530609" lon="126.9593538"></trkpt>
   <trkpt lat="37.5529419" lon="126.9597283"></trkpt>
   <trkpt lat="37.5528876" lon="126.9598759"></trkpt>
   <trkpt lat="37.5528876" lon="126.9598759"></trkpt>
   <trkpt lat="37.5527728" lon="126.9598121"></trkpt>
   <trkpt lat="37.5527728" lon="126.9598121"></trkpt>
   <trkpt lat="37.5527452" lon="126.9598837"></trkpt>
   <trkpt lat="37.5527452" lon="126.9598837"></trkpt>
   <trkpt lat="37.5525572" lon="126.9597639"></trkpt>
   <trkpt lat="37.5523384" lon="126.9596274"></trkpt>
   <trkpt lat="37.5521061" lon="126.9594875"></trkpt>
   <trkpt lat="37.5519976" lon="126.9594124"></trkpt>
   <trkpt lat="37.5519976" lon="126.9594124"></trkpt>
   <trkpt lat="37.5519663" lon="126.9594681"></trkpt>
   <trkpt lat="37.5519585" lon="126.9595248"></trkpt>
   <trkpt lat="37.5519662" lon="126.9598248"></trkpt>
   <trkpt lat="37.5519582" lon="126.9598622"></trkpt>
   <trkpt lat="37.5517578" lon="126.9605746"></trkpt>
   <trkpt lat="37.5516328" lon="126.9608472"></trkpt>
   <trkpt lat="37.5516159" lon="126.9608994"></trkpt>
   <trkpt lat="37.5515999" lon="126.9609369"></trkpt>
   <trkpt lat="37.5515497" lon="126.9611999"></trkpt>
   <trkpt lat="37.5515166" lon="126.9612499"></trkpt>
   <trkpt lat="37.5513021" lon="126.9614609"></trkpt>
   <trkpt lat="37.5512707" lon="126.9614929"></trkpt>
   <trkpt lat="37.5512707" lon="126.9614929"></trkpt>
   <trkpt lat="37.5512865" lon="126.9615822"></trkpt>
   <trkpt lat="37.5513125" lon="126.9617507"></trkpt>
   <trkpt lat="37.5513282" lon="126.9618434"></trkpt>
   <trkpt lat="37.5513469" lon="126.9619859"></trkpt>
   <trkpt lat="37.5514703" lon="126.9621707"></trkpt>
   <trkpt lat="37.5515537" lon="126.9622822"></trkpt>
   <trkpt lat="37.5515955" lon="126.9623373"></trkpt>
   <trkpt lat="37.5515955" lon="126.9623373"></trkpt>
   <trkpt lat="37.5517159" lon="126.9622742"></trkpt>
   <trkpt lat="37.5517583" lon="126.9622818"></trkpt>
   <trkpt lat="37.5517583" lon="126.9622818"></trkpt>
   <trkpt lat="37.5517333" lon="126.9623341"></trkpt>
   <trkpt lat="37.5516344" lon="126.962388"></trkpt>
   <trkpt lat="37.5516344" lon="126.962388"></trkpt>
   <trkpt lat="37.5516834" lon="126.9624544"></trkpt>
   <trkpt lat="37.5517678" lon="126.9625682"></trkpt>
   <trkpt lat="37.5518122" lon="126.9626245"></trkpt>
   <trkpt lat="37.5520072" lon="126.9629016"></trkpt>
   <trkpt lat="37.5520616" lon="126.9629657"></trkpt>
   <trkpt lat="37.5525328" lon="126.9635205"></trkpt>
   <trkpt lat="37.5526316" lon="126.9636341"></trkpt>
   <trkpt lat="37.5527938" lon="126.9638209"></trkpt>
   <trkpt lat="37.5529758" lon="126.9640177"></trkpt>
   <trkpt lat="37.5533645" lon="126.9644553"></trkpt>
   <trkpt lat="37.5535358" lon="126.9646658"></trkpt>
   <trkpt lat="37.5539611" lon="126.9652254"></trkpt>
   <trkpt lat="37.554039" lon="126.9653098"></trkpt>
   <trkpt lat="37.5541267" lon="126.9653828"></trkpt>
   <trkpt lat="37.554199" lon="126.9654038"></trkpt>
   <trkpt lat="37.554199" lon="126.9654038"></trkpt>
   <trkpt lat="37.5542566" lon="126.9654045"></trkpt>
   <trkpt lat="37.5543538" lon="126.9653732"></trkpt>
   <trkpt lat="37.554422" lon="126.9653025"></trkpt>
   <trkpt lat="37.5544714" lon="126.9652524"></trkpt>
   <trkpt lat="37.5546777" lon="126.9650245"></trkpt>
   <trkpt lat="37.5548247" lon="126.9648491"></trkpt>
   <trkpt lat="37.5548426" lon="126.9648274"></trkpt>
   <trkpt lat="37.5548551" lon="126.9647979"></trkpt>
   <trkpt lat="37.5548551" lon="126.9647979"></trkpt>
   <trkpt lat="37.5549815" lon="126.9648366"></trkpt>
   <trkpt lat="37.5549815" lon="126.9648366"></trkpt>
   <trkpt lat="37.5549853" lon="126.9648864"></trkpt>
   <trkpt lat="37.5550005" lon="126.9648614"></trkpt>
   <trkpt lat="37.5550473" lon="126.9646482"></trkpt>
   <trkpt lat="37.555047" lon="126.9645871"></trkpt>
   <trkpt lat="37.5550475" lon="126.9644965"></trkpt>
   <trkpt lat="37.5550959" lon="126.9644293"></trkpt>
   <trkpt lat="37.5552068" lon="126.9644421"></trkpt>
   <trkpt lat="37.5553447" lon="126.9644366"></trkpt>
   <trkpt lat="37.5553519" lon="126.9644298"></trkpt>
   <trkpt lat="37.5553519" lon="126.9644298"></trkpt>
   <trkpt lat="37.5554402" lon="126.9646318"></trkpt>
   <trkpt lat="37.5555607" lon="126.9647589"></trkpt>
   <trkpt lat="37.5558339" lon="126.9649822"></trkpt>
   <trkpt lat="37.5558348" lon="126.9649845"></trkpt>
   <trkpt lat="37.5559701" lon="126.9651975"></trkpt>
   <trkpt lat="37.5559701" lon="126.9651975"></trkpt>
   <trkpt lat="37.5558348" lon="126.9649845"></trkpt>
   <trkpt lat="37.5558339" lon="126.9649822"></trkpt>
   <trkpt lat="37.5555607" lon="126.9647589"></trkpt>
   <trkpt lat="37.5554402" lon="126.9646318"></trkpt>
   <trkpt lat="37.5553519" lon="126.9644298"></trkpt>
   <trkpt lat="37.5553519" lon="126.9644298"></trkpt>
   <trkpt lat="37.5556462" lon="126.9641299"></trkpt>
   <trkpt lat="37.555415" lon="126.9638349"></trkpt>
   <trkpt lat="37.5556627" lon="126.963609"></trkpt>
   <trkpt lat="37.5556192" lon="126.9635459"></trkpt>
   <trkpt lat="37.555663" lon="126.9634799"></trkpt>
   <trkpt lat="37.5556934" lon="126.9634254"></trkpt>
   <trkpt lat="37.5559426" lon="126.9629141"></trkpt>
   <trkpt lat="37.5559631" lon="126.9628675"></trkpt>
   <trkpt lat="37.5559654" lon="126.9627883"></trkpt>
   <trkpt lat="37.5559654" lon="126.9627883"></trkpt>
   <trkpt lat="37.5559995" lon="126.9627371"></trkpt>
   <trkpt lat="37.5563186" lon="126.9623577"></trkpt>
   <trkpt lat="37.5565051" lon="126.962139"></trkpt>
   <trkpt lat="37.5567677" lon="126.9618201"></trkpt>
   <trkpt lat="37.5569578" lon="126.9615991"></trkpt>
   <trkpt lat="37.5573826" lon="126.9610617"></trkpt>
   <trkpt lat="37.5578578" lon="126.9605114"></trkpt>
   <trkpt lat="37.5578578" lon="126.9605114"></trkpt>
   <trkpt lat="37.5570121" lon="126.959477"></trkpt>
   <trkpt lat="37.5569124" lon="126.9593543"></trkpt>
   <trkpt lat="37.5568698" lon="126.9593059"></trkpt>
   <trkpt lat="37.5568182" lon="126.9592452"></trkpt>
   <trkpt lat="37.5568182" lon="126.9592452"></trkpt>
   <trkpt lat="37.556965" lon="126.9590392"></trkpt>
   <trkpt lat="37.5570474" lon="126.9589253"></trkpt>
   <trkpt lat="37.5569206" lon="126.9587791"></trkpt>
   <trkpt lat="37.5569095" lon="126.958718"></trkpt>
   <trkpt lat="37.5568975" lon="126.9586502"></trkpt>
   <trkpt lat="37.5568975" lon="126.9586502"></trkpt>
   <trkpt lat="37.5568676" lon="126.9586357"></trkpt>
   <trkpt lat="37.5568089" lon="126.9585965"></trkpt>
   <trkpt lat="37.5567427" lon="126.9585177"></trkpt>
   <trkpt lat="37.5563448" lon="126.958036"></trkpt>
   <trkpt lat="37.5562959" lon="126.9579809"></trkpt>
   <trkpt lat="37.5562108" lon="126.9579113"></trkpt>
   <trkpt lat="37.5560301" lon="126.9578028"></trkpt>
   <trkpt lat="37.555984" lon="126.9577748"></trkpt>
   <trkpt lat="37.5559135" lon="126.9577289"></trkpt>
   <trkpt lat="37.5557508" lon="126.9576395"></trkpt>
   <trkpt lat="37.5556261" lon="126.957577"></trkpt>
   <trkpt lat="37.5556036" lon="126.9575659"></trkpt>
   <trkpt lat="37.5552702" lon="126.9573939"></trkpt>
   <trkpt lat="37.5551175" lon="126.957326"></trkpt>
   <trkpt lat="37.5547841" lon="126.9571461"></trkpt>
   <trkpt lat="37.5547145" lon="126.9571115"></trkpt>
   <trkpt lat="37.5546775" lon="126.9570891"></trkpt>
   <trkpt lat="37.5546775" lon="126.9570891"></trkpt>
   <trkpt lat="37.5548606" lon="126.9565387"></trkpt>
   <trkpt lat="37.5548731" lon="126.9565047"></trkpt>
   <trkpt lat="37.5549105" lon="126.9564104"></trkpt>
   <trkpt lat="37.5549651" lon="126.9563217"></trkpt>
   <trkpt lat="37.555043" lon="126.956217"></trkpt>
   <trkpt lat="37.5551704" lon="126.9560813"></trkpt>
   <trkpt lat="37.5554619" lon="126.9559603"></trkpt>
   <trkpt lat="37.5554619" lon="126.9559603"></trkpt>
   <trkpt lat="37.5554096" lon="126.955766"></trkpt>
   <trkpt lat="37.5554375" lon="126.9557522"></trkpt>
   <trkpt lat="37.5553658" lon="126.955447"></trkpt>
   <trkpt lat="37.5553602" lon="126.955421"></trkpt>
   <trkpt lat="37.5553458" lon="126.9554075"></trkpt>
   <trkpt lat="37.5553349" lon="126.9554031"></trkpt>
   <trkpt lat="37.5553187" lon="126.9553998"></trkpt>
   <trkpt lat="37.5552884" lon="126.9552947"></trkpt>
   <trkpt lat="37.5552884" lon="126.9552947"></trkpt>
   <trkpt lat="37.5552163" lon="126.9550847"></trkpt>
   <trkpt lat="37.5551469" lon="126.9549006"></trkpt>
   <trkpt lat="37.55501" lon="126.9545224"></trkpt>
   <trkpt lat="37.5549799" lon="126.9544569"></trkpt>
   <trkpt lat="37.5548349" lon="126.9540968"></trkpt>
   <trkpt lat="37.5546768" lon="126.9536225"></trkpt>
   <trkpt lat="37.5546496" lon="126.9535898"></trkpt>
   <trkpt lat="37.5546352" lon="126.9535786"></trkpt>
   <trkpt lat="37.5546352" lon="126.9535786"></trkpt>
   <trkpt lat="37.5546881" lon="126.9533393"></trkpt>
   <trkpt lat="37.5546881" lon="126.9533393"></trkpt>
   <trkpt lat="37.5546682" lon="126.9533259"></trkpt>
   <trkpt lat="37.5546537" lon="126.9533022"></trkpt>
   <trkpt lat="37.5545999" lon="126.9531713"></trkpt>
   <trkpt lat="37.5544656" lon="126.9527805"></trkpt>
   <trkpt lat="37.5543864" lon="126.9526056"></trkpt>
   <trkpt lat="37.5542747" lon="126.9524264"></trkpt>
   <trkpt lat="37.5542012" lon="126.952333"></trkpt>
   <trkpt lat="37.5541134" lon="126.9522431"></trkpt>
   <trkpt lat="37.5540781" lon="126.9522173"></trkpt>
   <trkpt lat="37.5538656" lon="126.952057"></trkpt>
   <trkpt lat="37.5537761" lon="126.9520044"></trkpt>
   <trkpt lat="37.5536658" lon="126.9519396"></trkpt>
   <trkpt lat="37.5534365" lon="126.951862"></trkpt>
   <trkpt lat="37.5533968" lon="126.9518487"></trkpt>
   <trkpt lat="37.5533435" lon="126.9518298"></trkpt>
   <trkpt lat="37.5531756" lon="126.9517756"></trkpt>
   <trkpt lat="37.553089" lon="126.9517457"></trkpt>
   <trkpt lat="37.5529987" lon="126.9517214"></trkpt>
   <trkpt lat="37.5529284" lon="126.9517129"></trkpt>
   <trkpt lat="37.5526713" lon="126.9516842"></trkpt>
   <trkpt lat="37.5525154" lon="126.9516717"></trkpt>
   <trkpt lat="37.5524694" lon="126.9516687"></trkpt>
   <trkpt lat="37.5524694" lon="126.9516687"></trkpt>
   <trkpt lat="37.5525107" lon="126.9514352"></trkpt>
   <trkpt lat="37.5525385" lon="126.9512312"></trkpt>
   <trkpt lat="37.5525537" lon="126.9510103"></trkpt>
   <trkpt lat="37.552561" lon="126.95082"></trkpt>
   <trkpt lat="37.5525588" lon="126.9505393"></trkpt>
   <trkpt lat="37.5525588" lon="126.9505393"></trkpt>
   <trkpt lat="37.5525948" lon="126.950539"></trkpt>
   <trkpt lat="37.5526689" lon="126.9505792"></trkpt>
   <trkpt lat="37.5526689" lon="126.9505792"></trkpt>
   <trkpt lat="37.5528373" lon="126.9501602"></trkpt>
   <trkpt lat="37.5528344" lon="126.9501082"></trkpt>
   <trkpt lat="37.5528344" lon="126.9501082"></trkpt>
   <trkpt lat="37.5528373" lon="126.9501602"></trkpt>
   <trkpt lat="37.5526689" lon="126.9505792"></trkpt>
   <trkpt lat="37.5526689" lon="126.9505792"></trkpt>
   <trkpt lat="37.5525948" lon="126.950539"></trkpt>
   <trkpt lat="37.5525588" lon="126.9505393"></trkpt>
   <trkpt lat="37.5525588" lon="126.9505393"></trkpt>
   <trkpt lat="37.552561" lon="126.95082"></trkpt>
   <trkpt lat="37.5525537" lon="126.9510103"></trkpt>
   <trkpt lat="37.5525385" lon="126.9512312"></trkpt>
   <trkpt lat="37.5525107" lon="126.9514352"></trkpt>
   <trkpt lat="37.5524694" lon="126.9516687"></trkpt>
   <trkpt lat="37.5524694" lon="126.9516687"></trkpt>
   <trkpt lat="37.5525154" lon="126.9516717"></trkpt>
   <trkpt lat="37.5526713" lon="126.9516842"></trkpt>
   <trkpt lat="37.5529284" lon="126.9517129"></trkpt>
   <trkpt lat="37.5529987" lon="126.9517214"></trkpt>
   <trkpt lat="37.553089" lon="126.9517457"></trkpt>
   <trkpt lat="37.5531756" lon="126.9517756"></trkpt>
   <trkpt lat="37.5533435" lon="126.9518298"></trkpt>
   <trkpt lat="37.5533968" lon="126.9518487"></trkpt>
   <trkpt lat="37.5534365" lon="126.951862"></trkpt>
   <trkpt lat="37.5536658" lon="126.9519396"></trkpt>
   <trkpt lat="37.5537761" lon="126.9520044"></trkpt>
   <trkpt lat="37.5538656" lon="126.952057"></trkpt>
   <trkpt lat="37.5540781" lon="126.9522173"></trkpt>
   <trkpt lat="37.5541134" lon="126.9522431"></trkpt>
   <trkpt lat="37.5542012" lon="126.952333"></trkpt>
   <trkpt lat="37.5542747" lon="126.9524264"></trkpt>
   <trkpt lat="37.5543864" lon="126.9526056"></trkpt>
   <trkpt lat="37.5544656" lon="126.9527805"></trkpt>
   <trkpt lat="37.5545999" lon="126.9531713"></trkpt>
   <trkpt lat="37.5546537" lon="126.9533022"></trkpt>
   <trkpt lat="37.5546682" lon="126.9533259"></trkpt>
   <trkpt lat="37.5546881" lon="126.9533393"></trkpt>
   <trkpt lat="37.5546881" lon="126.9533393"></trkpt>
   <trkpt lat="37.5546352" lon="126.9535786"></trkpt>
   <trkpt lat="37.5546352" lon="126.9535786"></trkpt>
   <trkpt lat="37.5546496" lon="126.9535898"></trkpt>
   <trkpt lat="37.5546768" lon="126.9536225"></trkpt>
   <trkpt lat="37.5548349" lon="126.9540968"></trkpt>
   <trkpt lat="37.5549799" lon="126.9544569"></trkpt>
   <trkpt lat="37.55501" lon="126.9545224"></trkpt>
   <trkpt lat="37.5551469" lon="126.9549006"></trkpt>
   <trkpt lat="37.5552163" lon="126.9550847"></trkpt>
   <trkpt lat="37.5552884" lon="126.9552947"></trkpt>
   <trkpt lat="37.5552884" lon="126.9552947"></trkpt>
   <trkpt lat="37.5553187" lon="126.9553998"></trkpt>
   <trkpt lat="37.5553187" lon="126.9553998"></trkpt>
   <trkpt lat="37.5553349" lon="126.9554031"></trkpt>
   <trkpt lat="37.5553458" lon="126.9554075"></trkpt>
   <trkpt lat="37.5553602" lon="126.955421"></trkpt>
   <trkpt lat="37.5553658" lon="126.955447"></trkpt>
   <trkpt lat="37.5554375" lon="126.9557522"></trkpt>
   <trkpt lat="37.5554375" lon="126.9557522"></trkpt>
   <trkpt lat="37.5554096" lon="126.955766"></trkpt>
   <trkpt lat="37.5551038" lon="126.9559154"></trkpt>
   <trkpt lat="37.5549593" lon="126.9560353"></trkpt>
   <trkpt lat="37.554815" lon="126.9562243"></trkpt>
   <trkpt lat="37.5547768" lon="126.9563367"></trkpt>
   <trkpt lat="37.5547394" lon="126.9564354"></trkpt>
   <trkpt lat="37.5547296" lon="126.9564661"></trkpt>
   <trkpt lat="37.5546594" lon="126.9566806"></trkpt>
   <trkpt lat="37.5546594" lon="126.9566806"></trkpt>
   <trkpt lat="37.5546292" lon="126.9567759"></trkpt>
   <trkpt lat="37.5546292" lon="126.9567759"></trkpt>
   <trkpt lat="37.554591" lon="126.9569018"></trkpt>
   <trkpt lat="37.5545597" lon="126.956953"></trkpt>
   <trkpt lat="37.5545077" lon="126.9570077"></trkpt>
   <trkpt lat="37.5545077" lon="126.9570077"></trkpt>
   <trkpt lat="37.5544562" lon="126.9569832"></trkpt>
   <trkpt lat="37.5543993" lon="126.9569587"></trkpt>
   <trkpt lat="37.5543993" lon="126.9569587"></trkpt>
   <trkpt lat="37.5543398" lon="126.9571505"></trkpt>
   <trkpt lat="37.5543326" lon="126.957172"></trkpt>
   <trkpt lat="37.5542829" lon="126.9573241"></trkpt>
   <trkpt lat="37.5542829" lon="126.9573241"></trkpt>
   <trkpt lat="37.5544753" lon="126.9574167"></trkpt>
   <trkpt lat="37.5544753" lon="126.9574167"></trkpt>
   <trkpt lat="37.5544068" lon="126.9576142"></trkpt>
   <trkpt lat="37.5544068" lon="126.9576142"></trkpt>
   <trkpt lat="37.5543516" lon="126.9577583"></trkpt>
   <trkpt lat="37.5543516" lon="126.9577583"></trkpt>
   <trkpt lat="37.5542795" lon="126.9579717"></trkpt>
   <trkpt lat="37.5541514" lon="126.9583372"></trkpt>
   <trkpt lat="37.5541345" lon="126.9583883"></trkpt>
   <trkpt lat="37.5539362" lon="126.9589694"></trkpt>
   <trkpt lat="37.5539086" lon="126.9590431"></trkpt>
   <trkpt lat="37.5539086" lon="126.9590431"></trkpt>
   <trkpt lat="37.55372" lon="126.9589936"></trkpt>
   <trkpt lat="37.5536487" lon="126.9589703"></trkpt>
   <trkpt lat="37.5536089" lon="126.958957"></trkpt>
   <trkpt lat="37.5535864" lon="126.9589458"></trkpt>
   <trkpt lat="37.5533109" lon="126.9588176"></trkpt>
   <trkpt lat="37.5532422" lon="126.9587853"></trkpt>
   <trkpt lat="37.5530371" lon="126.9586838"></trkpt>
   <trkpt lat="37.5529513" lon="126.9586414"></trkpt>
   <trkpt lat="37.552815" lon="126.958588"></trkpt>
   <trkpt lat="37.552815" lon="126.958588"></trkpt>
   <trkpt lat="37.5527461" lon="126.9587006"></trkpt>
   <trkpt lat="37.5526805" lon="126.9587486"></trkpt>
   <trkpt lat="37.5526447" lon="126.9588009"></trkpt>
   <trkpt lat="37.5525968" lon="126.95897"></trkpt>
   <trkpt lat="37.5525968" lon="126.95897"></trkpt>
   <trkpt lat="37.5524975" lon="126.9589333"></trkpt>
  </trkseg>
 </trk>
</gpx>
