<?xml version="1.0" encoding="UTF-8"?>
<gpx creator="StravaGPX" version="1.1" xmlns="http://www.topografix.com/GPX/1/1" xmlns:xsi="http://www.w3.org/2001/XMLSchema-instance" xsi:schemaLocation="http://www.topografix.com/GPX/1/1 http://www.topografix.com/GPX/1/1/gpx.xsd">
 <metadata>
  <name>몽마르뜨 언덕 루프</name>
  <desc>daengrun candidate geometry — anchor 몽마르뜨공원 정문 / 서래마을 residential loop</desc>
  <author>
   <name>S Kim</name>
   <link href="https://www.strava.com/athletes/558867461"/>
  </author>
  <copyright author="OpenStreetMap contributors">
   <year>2020</year>
   <license>https://www.openstreetmap.org/copyright</license>
  </copyright>
  <link href="https://www.strava.com/routes/3523203570730615372"/>
 </metadata>
 <trk>
  <name>몽마르뜨 언덕 루프</name>
  <desc>daengrun candidate geometry — anchor 몽마르뜨공원 정문 / 서래마을 residential loop</desc>
  <link href="https://www.strava.com/routes/3523203570730615372"/>
  <type>running</type>
  <trkseg>
   <trkpt lat="37.492850000000004" lon="127.00260000000002">
    <ele>54.49</ele>
   </trkpt>
   <trkpt lat="37.493170000000006" lon="127.00220000000002">
    <ele>52.95</ele>
   </trkpt>
   <trkpt lat="37.49351" lon="127.00166000000002">
    <ele>50.080000000000005</ele>
   </trkpt>
   <trkpt lat="37.49371" lon="127.00150000000001">
    <ele>48.14</ele>
   </trkpt>
   <trkpt lat="37.493770000000005" lon="127.0014">
    <ele>48.14</ele>
   </trkpt>
   <trkpt lat="37.494" lon="127.00118">
    <ele>46.57000000000001</ele>
   </trkpt>
   <trkpt lat="37.49439" lon="127.00088000000001">
    <ele>43.29</ele>
   </trkpt>
   <trkpt lat="37.49452" lon="127.00073">
    <ele>42.61</ele>
   </trkpt>
   <trkpt lat="37.49465" lon="127.00048000000001">
    <ele>41.93</ele>
   </trkpt>
   <trkpt lat="37.494780000000006" lon="127.00012000000001">
    <ele>41.02</ele>
   </trkpt>
   <trkpt lat="37.49483" lon="126.99990000000001">
    <ele>40.040000000000006</ele>
   </trkpt>
   <trkpt lat="37.49489500133533" lon="126.99933000079382">
    <ele>38.95</ele>
   </trkpt>
   <trkpt lat="37.494960000000006" lon="126.99876">
    <ele>38.59</ele>
   </trkpt>
   <trkpt lat="37.49499" lon="126.99797000000001">
    <ele>40.330000000000005</ele>
   </trkpt>
   <trkpt lat="37.49513" lon="126.99798000000001">
    <ele>39.31</ele>
   </trkpt>
   <trkpt lat="37.495620000191764" lon="126.99808499934221">
    <ele>36.120000000000005</ele>
   </trkpt>
   <trkpt lat="37.49611" lon="126.99819000000001">
    <ele>30.55</ele>
   </trkpt>
   <trkpt lat="37.49694" lon="126.99828000000001">
    <ele>23.82</ele>
   </trkpt>
   <trkpt lat="37.497580000000006" lon="126.99832">
    <ele>20.700000000000003</ele>
   </trkpt>
   <trkpt lat="37.49757" lon="126.99832">
    <ele>20.720000000000002</ele>
   </trkpt>
   <trkpt lat="37.49694" lon="126.99828000000001">
    <ele>23.82</ele>
   </trkpt>
   <trkpt lat="37.49611" lon="126.99819000000001">
    <ele>30.55</ele>
   </trkpt>
   <trkpt lat="37.49561999990117" lon="126.99808499927994">
    <ele>36.120000000000005</ele>
   </trkpt>
   <trkpt lat="37.49513" lon="126.99798000000001">
    <ele>39.31</ele>
   </trkpt>
   <trkpt lat="37.49499" lon="126.99797000000001">
    <ele>40.330000000000005</ele>
   </trkpt>
   <trkpt lat="37.494960000000006" lon="126.99876">
    <ele>38.59</ele>
   </trkpt>
   <trkpt lat="37.49489500140323" lon="126.99933000019837">
    <ele>39.190000000000005</ele>
   </trkpt>
   <trkpt lat="37.49483" lon="126.99990000000001">
    <ele>40.040000000000006</ele>
   </trkpt>
   <trkpt lat="37.494780000000006" lon="127.00012000000001">
    <ele>41.02</ele>
   </trkpt>
   <trkpt lat="37.49465" lon="127.00048000000001">
    <ele>41.93</ele>
   </trkpt>
   <trkpt lat="37.49452" lon="127.00073">
    <ele>42.61</ele>
   </trkpt>
   <trkpt lat="37.49439" lon="127.00088000000001">
    <ele>43.29</ele>
   </trkpt>
   <trkpt lat="37.494" lon="127.00118">
    <ele>46.57000000000001</ele>
   </trkpt>
   <trkpt lat="37.493770000000005" lon="127.0014">
    <ele>48.14</ele>
   </trkpt>
   <trkpt lat="37.49371" lon="127.00150000000001">
    <ele>48.14</ele>
   </trkpt>
   <trkpt lat="37.49351" lon="127.00166000000002">
    <ele>50.080000000000005</ele>
   </trkpt>
   <trkpt lat="37.493170000000006" lon="127.00220000000002">
    <ele>52.95</ele>
   </trkpt>
   <trkpt lat="37.492850000000004" lon="127.00260000000002">
    <ele>54.470000000000006</ele>
   </trkpt>
  </trkseg>
 </trk>
</gpx>
