<?xml version="1.0" encoding="UTF-8"?>
<gpx creator="daengrun-naver-route" version="1.1" xmlns="http://www.topografix.com/GPX/1/1" xmlns:xsi="http://www.w3.org/2001/XMLSchema-instance" xsi:schemaLocation="http://www.topografix.com/GPX/1/1 http://www.topografix.com/GPX/1/1/gpx.xsd">
 <metadata>
  <name>서대문 중앙근린공원 루프 4.48km</name>
  <desc>daengrun candidate geometry — measured 4.48km via Naver pedestrian router (o=flat, 계단회피). Elevation NOT available from this source. stairs=0 crosswalk=12 steppingstone=0 underpass=0 overpass=0</desc>
  <link href="naver:jk710"><text>daengrun route id</text></link>
  <copyright author="NAVER Corp."><license>https://map.naver.com/</license></copyright>
 </metadata>
 <trk>
  <name>서대문 중앙근린공원 루프 4.48km</name>
  <trkseg>
   <trkpt lat="37.5727001" lon="126.9081833"></trkpt>
   <trkpt lat="37.5726912" lon="126.9082038"></trkpt>
   <trkpt lat="37.572569" lon="126.9084652"></trkpt>
   <trkpt lat="37.572569" lon="126.9084652"></trkpt>
   <trkpt lat="37.5727971" lon="126.9086514"></trkpt>
   <trkpt lat="37.573083" lon="126.9088767"></trkpt>
   <trkpt lat="37.57317" lon="126.908961"></trkpt>
   <trkpt lat="37.5732497" lon="126.9090407"></trkpt>
   <trkpt lat="37.5733086" lon="126.9090958"></trkpt>
   <trkpt lat="37.5736402" lon="126.9094487"></trkpt>
   <trkpt lat="37.5736539" lon="126.909469"></trkpt>
   <trkpt lat="37.5738046" lon="126.9096852"></trkpt>
   <trkpt lat="37.5739802" lon="126.9100179"></trkpt>
   <trkpt lat="37.5739911" lon="126.9100382"></trkpt>
   <trkpt lat="37.5740075" lon="126.9100766"></trkpt>
   <trkpt lat="37.574096" lon="126.9102809"></trkpt>
   <trkpt lat="37.5741397" lon="126.9103768"></trkpt>
   <trkpt lat="37.5741597" lon="126.9103982"></trkpt>
   <trkpt lat="37.5741813" lon="126.9104093"></trkpt>
   <trkpt lat="37.5741813" lon="126.9104093"></trkpt>
   <trkpt lat="37.5742147" lon="126.9104056"></trkpt>
   <trkpt lat="37.574239" lon="126.9103998"></trkpt>
   <trkpt lat="37.5743362" lon="126.9103718"></trkpt>
   <trkpt lat="37.5745389" lon="126.910351"></trkpt>
   <trkpt lat="37.5747002" lon="126.9103509"></trkpt>
   <trkpt lat="37.5747354" lon="126.9103506"></trkpt>
   <trkpt lat="37.5748742" lon="126.9103585"></trkpt>
   <trkpt lat="37.5750005" lon="126.9103813"></trkpt>
   <trkpt lat="37.5753696" lon="126.9104668"></trkpt>
   <trkpt lat="37.5754301" lon="126.9104799"></trkpt>
   <trkpt lat="37.5755158" lon="126.9105052"></trkpt>
   <trkpt lat="37.5755158" lon="126.9105052"></trkpt>
   <trkpt lat="37.5754796" lon="126.9106482"></trkpt>
   <trkpt lat="37.5754796" lon="126.9106482"></trkpt>
   <trkpt lat="37.5755771" lon="126.9106961"></trkpt>
   <trkpt lat="37.5757055" lon="126.9107608"></trkpt>
   <trkpt lat="37.5757633" lon="126.9107921"></trkpt>
   <trkpt lat="37.5760417" lon="126.9109462"></trkpt>
   <trkpt lat="37.5761078" lon="126.9110034"></trkpt>
   <trkpt lat="37.5763439" lon="126.9111873"></trkpt>
   <trkpt lat="37.5763785" lon="126.9112402"></trkpt>
   <trkpt lat="37.5763876" lon="126.9112583"></trkpt>
   <trkpt lat="37.576394" lon="126.9112786"></trkpt>
   <trkpt lat="37.576394" lon="126.9112786"></trkpt>
   <trkpt lat="37.5763914" lon="126.9112967"></trkpt>
   <trkpt lat="37.5763869" lon="126.9113172"></trkpt>
   <trkpt lat="37.575625" lon="126.9123458"></trkpt>
   <trkpt lat="37.5755561" lon="126.9124494"></trkpt>
   <trkpt lat="37.5754097" lon="126.9127314"></trkpt>
   <trkpt lat="37.5753357" lon="126.9128962"></trkpt>
   <trkpt lat="37.5752905" lon="126.9130528"></trkpt>
   <trkpt lat="37.5752403" lon="126.9132865"></trkpt>
   <trkpt lat="37.5752263" lon="126.9133715"></trkpt>
   <trkpt lat="37.5752212" lon="126.9134282"></trkpt>
   <trkpt lat="37.5752007" lon="126.9136537"></trkpt>
   <trkpt lat="37.5751825" lon="126.9137966"></trkpt>
   <trkpt lat="37.5751825" lon="126.9137966"></trkpt>
   <trkpt lat="37.5751175" lon="126.913771"></trkpt>
   <trkpt lat="37.5750587" lon="126.9137477"></trkpt>
   <trkpt lat="37.5750046" lon="126.9137266"></trkpt>
   <trkpt lat="37.5750046" lon="126.9137266"></trkpt>
   <trkpt lat="37.5750267" lon="126.9136528"></trkpt>
   <trkpt lat="37.5750234" lon="126.9135362"></trkpt>
   <trkpt lat="37.5749869" lon="126.9134312"></trkpt>
   <trkpt lat="37.574909" lon="126.9133514"></trkpt>
   <trkpt lat="37.5749062" lon="126.9133503"></trkpt>
   <trkpt lat="37.5749062" lon="126.9133503"></trkpt>
   <trkpt lat="37.574909" lon="126.9133514"></trkpt>
   <trkpt lat="37.5749869" lon="126.9134312"></trkpt>
   <trkpt lat="37.5750234" lon="126.9135362"></trkpt>
   <trkpt lat="37.5750267" lon="126.9136528"></trkpt>
   <trkpt lat="37.5750046" lon="126.9137266"></trkpt>
   <trkpt lat="37.5750046" lon="126.9137266"></trkpt>
   <trkpt lat="37.5750587" lon="126.9137477"></trkpt>
   <trkpt lat="37.5751175" lon="126.913771"></trkpt>
   <trkpt lat="37.5751825" lon="126.9137966"></trkpt>
   <trkpt lat="37.5751825" lon="126.9137966"></trkpt>
   <trkpt lat="37.5751767" lon="126.9138963"></trkpt>
   <trkpt lat="37.575146" lon="126.9142521"></trkpt>
   <trkpt lat="37.5751366" lon="126.9143654"></trkpt>
   <trkpt lat="37.575142" lon="126.91455"></trkpt>
   <trkpt lat="37.5751394" lon="126.9147414"></trkpt>
   <trkpt lat="37.5751608" lon="126.9157842"></trkpt>
   <trkpt lat="37.5751671" lon="126.9163345"></trkpt>
   <trkpt lat="37.575143" lon="126.9165533"></trkpt>
   <trkpt lat="37.5751166" lon="126.9166883"></trkpt>
   <trkpt lat="37.5750283" lon="126.9170695"></trkpt>
   <trkpt lat="37.5749768" lon="126.9172295"></trkpt>
   <trkpt lat="37.5749261" lon="126.9173511"></trkpt>
   <trkpt lat="37.5749046" lon="126.9173841"></trkpt>
   <trkpt lat="37.5748795" lon="126.9174058"></trkpt>
   <trkpt lat="37.5748399" lon="126.9174231"></trkpt>
   <trkpt lat="37.5748399" lon="126.9174231"></trkpt>
   <trkpt lat="37.5748056" lon="126.9174211"></trkpt>
   <trkpt lat="37.5747803" lon="126.9174111"></trkpt>
   <trkpt lat="37.574755" lon="126.9173932"></trkpt>
   <trkpt lat="37.5741636" lon="126.9166425"></trkpt>
   <trkpt lat="37.5737219" lon="126.9160842"></trkpt>
   <trkpt lat="37.5736911" lon="126.9160471"></trkpt>
   <trkpt lat="37.5732849" lon="126.9155565"></trkpt>
   <trkpt lat="37.573283" lon="126.9155543"></trkpt>
   <trkpt lat="37.573283" lon="126.9155543"></trkpt>
   <trkpt lat="37.5730446" lon="126.915281"></trkpt>
   <trkpt lat="37.5725787" lon="126.9147456"></trkpt>
   <trkpt lat="37.5725252" lon="126.914686"></trkpt>
   <trkpt lat="37.5725252" lon="126.914686"></trkpt>
   <trkpt lat="37.5724166" lon="126.914586"></trkpt>
   <trkpt lat="37.5724166" lon="126.914586"></trkpt>
   <trkpt lat="37.5723614" lon="126.9145434"></trkpt>
   <trkpt lat="37.5717637" lon="126.9139898"></trkpt>
   <trkpt lat="37.5717637" lon="126.9139898"></trkpt>
   <trkpt lat="37.5716578" lon="126.9138989"></trkpt>
   <trkpt lat="37.5716578" lon="126.9138989"></trkpt>
   <trkpt lat="37.571466" lon="126.9137396"></trkpt>
   <trkpt lat="37.5712323" lon="126.913524"></trkpt>
   <trkpt lat="37.5711581" lon="126.9134589"></trkpt>
   <trkpt lat="37.5711581" lon="126.9134589"></trkpt>
   <trkpt lat="37.5710974" lon="126.9134051"></trkpt>
   <trkpt lat="37.5710974" lon="126.9134051"></trkpt>
   <trkpt lat="37.5705126" lon="126.9128876"></trkpt>
   <trkpt lat="37.5704891" lon="126.9128674"></trkpt>
   <trkpt lat="37.5704772" lon="126.9128381"></trkpt>
   <trkpt lat="37.5704761" lon="126.9128041"></trkpt>
   <trkpt lat="37.5704859" lon="126.9127667"></trkpt>
   <trkpt lat="37.5704859" lon="126.9127667"></trkpt>
   <trkpt lat="37.5702191" lon="126.912591"></trkpt>
   <trkpt lat="37.5702191" lon="126.912591"></trkpt>
   <trkpt lat="37.5705616" lon="126.9118681"></trkpt>
   <trkpt lat="37.5705616" lon="126.9118681"></trkpt>
   <trkpt lat="37.5704847" lon="126.9118007"></trkpt>
   <trkpt lat="37.5704702" lon="126.9117997"></trkpt>
   <trkpt lat="37.5704442" lon="126.9118112"></trkpt>
   <trkpt lat="37.5704172" lon="126.9118307"></trkpt>
   <trkpt lat="37.5703804" lon="126.9118593"></trkpt>
   <trkpt lat="37.5703328" lon="126.9118857"></trkpt>
   <trkpt lat="37.5703301" lon="126.9118857"></trkpt>
   <trkpt lat="37.570275" lon="126.9118805"></trkpt>
   <trkpt lat="37.5702723" lon="126.9118794"></trkpt>
   <trkpt lat="37.5701311" lon="126.9117446"></trkpt>
   <trkpt lat="37.5700638" lon="126.9116262"></trkpt>
   <trkpt lat="37.5700149" lon="126.9115825"></trkpt>
   <trkpt lat="37.5699787" lon="126.911551"></trkpt>
   <trkpt lat="37.5698665" lon="126.9114761"></trkpt>
   <trkpt lat="37.5697735" lon="126.9114462"></trkpt>
   <trkpt lat="37.569714" lon="126.911432"></trkpt>
   <trkpt lat="37.569714" lon="126.911432"></trkpt>
   <trkpt lat="37.5696472" lon="126.911599"></trkpt>
   <trkpt lat="37.5696472" lon="126.911599"></trkpt>
   <trkpt lat="37.5695414" lon="126.9115284"></trkpt>
   <trkpt lat="37.5695414" lon="126.9115284"></trkpt>
   <trkpt lat="37.5695859" lon="126.9114126"></trkpt>
   <trkpt lat="37.5696215" lon="126.9113149"></trkpt>
   <trkpt lat="37.5697077" lon="126.9110798"></trkpt>
   <trkpt lat="37.5699764" lon="126.9103689"></trkpt>
   <trkpt lat="37.5702255" lon="126.9097248"></trkpt>
   <trkpt lat="37.5704734" lon="126.909194"></trkpt>
   <trkpt lat="37.5705233" lon="126.9090793"></trkpt>
   <trkpt lat="37.5708796" lon="126.9083993"></trkpt>
   <trkpt lat="37.5711037" lon="126.9079774"></trkpt>
   <trkpt lat="37.5711162" lon="126.9079546"></trkpt>
   <trkpt lat="37.5711332" lon="126.9079228"></trkpt>
   <trkpt lat="37.5711332" lon="126.9079228"></trkpt>
   <trkpt lat="37.5711626" lon="126.9078637"></trkpt>
   <trkpt lat="37.5711903" lon="126.9078148"></trkpt>
   <trkpt lat="37.5711903" lon="126.9078148"></trkpt>
   <trkpt lat="37.571554" lon="126.9071811"></trkpt>
   <trkpt lat="37.5716353" lon="126.9070389"></trkpt>
   <trkpt lat="37.5716934" lon="126.9069365"></trkpt>
   <trkpt lat="37.5723687" lon="126.9057353"></trkpt>
   <trkpt lat="37.572391" lon="126.9056887"></trkpt>
   <trkpt lat="37.5723529" lon="126.9056415"></trkpt>
   <trkpt lat="37.5723529" lon="126.9056415"></trkpt>
   <trkpt lat="37.5721689" lon="126.9059759"></trkpt>
   <trkpt lat="37.5719348" lon="126.9063763"></trkpt>
   <trkpt lat="37.5719348" lon="126.9063763"></trkpt>
   <trkpt lat="37.5719076" lon="126.9063369"></trkpt>
   <trkpt lat="37.5717749" lon="126.906124"></trkpt>
   <trkpt lat="37.5717115" lon="126.9060622"></trkpt>
   <trkpt lat="37.571697" lon="126.9060521"></trkpt>
   <trkpt lat="37.5716601" lon="126.9060513"></trkpt>
   <trkpt lat="37.5713807" lon="126.9062415"></trkpt>
   <trkpt lat="37.5713159" lon="126.9062624"></trkpt>
   <trkpt lat="37.5709355" lon="126.9062563"></trkpt>
   <trkpt lat="37.5708264" lon="126.906247"></trkpt>
   <trkpt lat="37.5708264" lon="126.906247"></trkpt>
   <trkpt lat="37.5705692" lon="126.9065401"></trkpt>
   <trkpt lat="37.5705692" lon="126.9065401"></trkpt>
   <trkpt lat="37.5708264" lon="126.906247"></trkpt>
   <trkpt lat="37.5708264" lon="126.906247"></trkpt>
   <trkpt lat="37.5709355" lon="126.9062563"></trkpt>
   <trkpt lat="37.5713159" lon="126.9062624"></trkpt>
   <trkpt lat="37.5713807" lon="126.9062415"></trkpt>
   <trkpt lat="37.5716601" lon="126.9060513"></trkpt>
   <trkpt lat="37.571697" lon="126.9060521"></trkpt>
   <trkpt lat="37.5717115" lon="126.9060622"></trkpt>
   <trkpt lat="37.5717749" lon="126.906124"></trkpt>
   <trkpt lat="37.5719076" lon="126.9063369"></trkpt>
   <trkpt lat="37.5719348" lon="126.9063763"></trkpt>
   <trkpt lat="37.5719348" lon="126.9063763"></trkpt>
   <trkpt lat="37.5721689" lon="126.9059759"></trkpt>
   <trkpt lat="37.5723529" lon="126.9056415"></trkpt>
   <trkpt lat="37.5723529" lon="126.9056415"></trkpt>
   <trkpt lat="37.572391" lon="126.9056887"></trkpt>
   <trkpt lat="37.5723687" lon="126.9057353"></trkpt>
   <trkpt lat="37.5716934" lon="126.9069365"></trkpt>
   <trkpt lat="37.5716353" lon="126.9070389"></trkpt>
   <trkpt lat="37.571554" lon="126.9071811"></trkpt>
   <trkpt lat="37.5711903" lon="126.9078148"></trkpt>
   <trkpt lat="37.5711903" lon="126.9078148"></trkpt>
   <trkpt lat="37.5711626" lon="126.9078637"></trkpt>
   <trkpt lat="37.5711332" lon="126.9079228"></trkpt>
   <trkpt lat="37.5711332" lon="126.9079228"></trkpt>
   <trkpt lat="37.5711162" lon="126.9079546"></trkpt>
   <trkpt lat="37.5711037" lon="126.9079774"></trkpt>
   <trkpt lat="37.5708796" lon="126.9083993"></trkpt>
   <trkpt lat="37.5705233" lon="126.9090793"></trkpt>
   <trkpt lat="37.5704734" lon="126.909194"></trkpt>
   <trkpt lat="37.5702255" lon="126.9097248"></trkpt>
   <trkpt lat="37.5699764" lon="126.9103689"></trkpt>
   <trkpt lat="37.5697077" lon="126.9110798"></trkpt>
   <trkpt lat="37.5696215" lon="126.9113149"></trkpt>
   <trkpt lat="37.5695859" lon="126.9114126"></trkpt>
   <trkpt lat="37.5695414" lon="126.9115284"></trkpt>
   <trkpt lat="37.5695414" lon="126.9115284"></trkpt>
   <trkpt lat="37.5696472" lon="126.911599"></trkpt>
   <trkpt lat="37.5696472" lon="126.911599"></trkpt>
   <trkpt lat="37.569714" lon="126.911432"></trkpt>
   <trkpt lat="37.569714" lon="126.911432"></trkpt>
   <trkpt lat="37.5697735" lon="126.9114462"></trkpt>
   <trkpt lat="37.5698665" lon="126.9114761"></trkpt>
   <trkpt lat="37.5699787" lon="126.911551"></trkpt>
   <trkpt lat="37.5700149" lon="126.9115825"></trkpt>
   <trkpt lat="37.5700638" lon="126.9116262"></trkpt>
   <trkpt lat="37.5701649" lon="126.911664"></trkpt>
   <trkpt lat="37.5702998" lon="126.9117931"></trkpt>
   <trkpt lat="37.5703188" lon="126.9117952"></trkpt>
   <trkpt lat="37.5703466" lon="126.9117792"></trkpt>
   <trkpt lat="37.5704032" lon="126.9117357"></trkpt>
   <trkpt lat="37.5704131" lon="126.9117288"></trkpt>
   <trkpt lat="37.5704617" lon="126.911708"></trkpt>
   <trkpt lat="37.5704635" lon="126.911708"></trkpt>
   <trkpt lat="37.5705086" lon="126.9117145"></trkpt>
   <trkpt lat="37.5705104" lon="126.9117156"></trkpt>
   <trkpt lat="37.5705982" lon="126.9117896"></trkpt>
   <trkpt lat="37.5705982" lon="126.9117896"></trkpt>
   <trkpt lat="37.5715387" lon="126.9098956"></trkpt>
   <trkpt lat="37.5718901" lon="126.9091387"></trkpt>
   <trkpt lat="37.5721693" lon="126.9085657"></trkpt>
   <trkpt lat="37.5721693" lon="126.9085657"></trkpt>
   <trkpt lat="37.5722543" lon="126.9086217"></trkpt>
   <trkpt lat="37.5724325" lon="126.9087448"></trkpt>
   <trkpt lat="37.5724325" lon="126.9087448"></trkpt>
   <trkpt lat="37.5725102" lon="126.9085913"></trkpt>
   <trkpt lat="37.5725102" lon="126.9085913"></trkpt>
   <trkpt lat="37.572569" lon="126.9084652"></trkpt>
   <trkpt lat="37.572569" lon="126.9084652"></trkpt>
   <trkpt lat="37.5726912" lon="126.9082038"></trkpt>
   <trkpt lat="37.5727001" lon="126.9081833"></trkpt>
  </trkseg>
 </trk>
</gpx>
