<?xml version="1.0" encoding="UTF-8"?>
<gpx creator="daengrun-naver-route" version="1.1" xmlns="http://www.topografix.com/GPX/1/1" xmlns:xsi="http://www.w3.org/2001/XMLSchema-instance" xsi:schemaLocation="http://www.topografix.com/GPX/1/1 http://www.topografix.com/GPX/1/1/gpx.xsd">
 <metadata>
  <name>서초 역삼 소나무 공원·성당 공원 루프 5.41km</name>
  <desc>daengrun candidate geometry — measured 5.41km via Naver pedestrian router (o=flat, 계단회피). Elevation NOT available from this source. stairs=0 crosswalk=13 steppingstone=0 underpass=0 overpass=0</desc>
  <link href="naver:1qzcaqh"><text>daengrun route id</text></link>
  <copyright author="NAVER Corp."><license>https://map.naver.com/</license></copyright>
 </metadata>
 <trk>
  <name>서초 역삼 소나무 공원·성당 공원 루프 5.41km</name>
  <trkseg>
   <trkpt lat="37.4836131" lon="127.0142669"></trkpt>
   <trkpt lat="37.4836487" lon="127.0145924"></trkpt>
   <trkpt lat="37.4836647" lon="127.0147416"></trkpt>
   <trkpt lat="37.4836647" lon="127.0147416"></trkpt>
   <trkpt lat="37.4837908" lon="127.0147227"></trkpt>
   <trkpt lat="37.4837908" lon="127.0147227"></trkpt>
   <trkpt lat="37.4837918" lon="127.0147634"></trkpt>
   <trkpt lat="37.4837922" lon="127.0148448"></trkpt>
   <trkpt lat="37.4837922" lon="127.0148448"></trkpt>
   <trkpt lat="37.4845353" lon="127.0147167"></trkpt>
   <trkpt lat="37.4845651" lon="127.014729"></trkpt>
   <trkpt lat="37.4845651" lon="127.014729"></trkpt>
   <trkpt lat="37.484585" lon="127.014756"></trkpt>
   <trkpt lat="37.4846061" lon="127.0148497"></trkpt>
   <trkpt lat="37.4848096" lon="127.0158822"></trkpt>
   <trkpt lat="37.4848363" lon="127.0160235"></trkpt>
   <trkpt lat="37.4848537" lon="127.0161059"></trkpt>
   <trkpt lat="37.4848477" lon="127.016175"></trkpt>
   <trkpt lat="37.4848245" lon="127.0162328"></trkpt>
   <trkpt lat="37.4848245" lon="127.0162328"></trkpt>
   <trkpt lat="37.4849232" lon="127.0165636"></trkpt>
   <trkpt lat="37.4851959" lon="127.0164668"></trkpt>
   <trkpt lat="37.4851959" lon="127.0164668"></trkpt>
   <trkpt lat="37.485221" lon="127.0166442"></trkpt>
   <trkpt lat="37.4852792" lon="127.0170035"></trkpt>
   <trkpt lat="37.485305" lon="127.0171323"></trkpt>
   <trkpt lat="37.4853317" lon="127.0172566"></trkpt>
   <trkpt lat="37.4853841" lon="127.0175062"></trkpt>
   <trkpt lat="37.4854482" lon="127.0177682"></trkpt>
   <trkpt lat="37.4854766" lon="127.0178868"></trkpt>
   <trkpt lat="37.4855598" lon="127.0181645"></trkpt>
   <trkpt lat="37.4855918" lon="127.018274"></trkpt>
   <trkpt lat="37.4859773" lon="127.019543"></trkpt>
   <trkpt lat="37.4864422" lon="127.0210286"></trkpt>
   <trkpt lat="37.4864705" lon="127.0211279"></trkpt>
   <trkpt lat="37.4868268" lon="127.0222964"></trkpt>
   <trkpt lat="37.4871903" lon="127.0234874"></trkpt>
   <trkpt lat="37.4872487" lon="127.0236703"></trkpt>
   <trkpt lat="37.487404" lon="127.0241727"></trkpt>
   <trkpt lat="37.4874387" lon="127.0242889"></trkpt>
   <trkpt lat="37.4875794" lon="127.024762"></trkpt>
   <trkpt lat="37.4876214" lon="127.024893"></trkpt>
   <trkpt lat="37.4876881" lon="127.0251165"></trkpt>
   <trkpt lat="37.4880772" lon="127.02639"></trkpt>
   <trkpt lat="37.4881557" lon="127.0266395"></trkpt>
   <trkpt lat="37.4882151" lon="127.0268382"></trkpt>
   <trkpt lat="37.4883174" lon="127.027169"></trkpt>
   <trkpt lat="37.4885877" lon="127.0280484"></trkpt>
   <trkpt lat="37.4885968" lon="127.028062"></trkpt>
   <trkpt lat="37.4886094" lon="127.0280675"></trkpt>
   <trkpt lat="37.4886094" lon="127.0280675"></trkpt>
   <trkpt lat="37.4886368" lon="127.0281635"></trkpt>
   <trkpt lat="37.4886697" lon="127.0282776"></trkpt>
   <trkpt lat="37.4886697" lon="127.0282776"></trkpt>
   <trkpt lat="37.4886617" lon="127.0282968"></trkpt>
   <trkpt lat="37.4886654" lon="127.0283206"></trkpt>
   <trkpt lat="37.4888783" lon="127.0290319"></trkpt>
   <trkpt lat="37.4891057" lon="127.0297883"></trkpt>
   <trkpt lat="37.4891368" lon="127.0298911"></trkpt>
   <trkpt lat="37.4891842" lon="127.0300423"></trkpt>
   <trkpt lat="37.489303" lon="127.0304307"></trkpt>
   <trkpt lat="37.4893404" lon="127.0305493"></trkpt>
   <trkpt lat="37.4893614" lon="127.0306147"></trkpt>
   <trkpt lat="37.4894563" lon="127.0309139"></trkpt>
   <trkpt lat="37.4895814" lon="127.0313079"></trkpt>
   <trkpt lat="37.4896193" lon="127.0313201"></trkpt>
   <trkpt lat="37.4896661" lon="127.0313063"></trkpt>
   <trkpt lat="37.4896661" lon="127.0313063"></trkpt>
   <trkpt lat="37.4897291" lon="127.0315208"></trkpt>
   <trkpt lat="37.489814" lon="127.0317872"></trkpt>
   <trkpt lat="37.489814" lon="127.0317872"></trkpt>
   <trkpt lat="37.4897808" lon="127.0318225"></trkpt>
   <trkpt lat="37.4897747" lon="127.0318757"></trkpt>
   <trkpt lat="37.4900634" lon="127.0328411"></trkpt>
   <trkpt lat="37.4901182" lon="127.0330217"></trkpt>
   <trkpt lat="37.4902103" lon="127.0333085"></trkpt>
   <trkpt lat="37.4902103" lon="127.0333085"></trkpt>
   <trkpt lat="37.4902295" lon="127.0333762"></trkpt>
   <trkpt lat="37.4902423" lon="127.0334191"></trkpt>
   <trkpt lat="37.4902423" lon="127.0334191"></trkpt>
   <trkpt lat="37.4905652" lon="127.0332542"></trkpt>
   <trkpt lat="37.4906327" lon="127.0332221"></trkpt>
   <trkpt lat="37.4906327" lon="127.0332221"></trkpt>
   <trkpt lat="37.4907724" lon="127.0336635"></trkpt>
   <trkpt lat="37.4907724" lon="127.0336635"></trkpt>
   <trkpt lat="37.4906327" lon="127.0332221"></trkpt>
   <trkpt lat="37.4906327" lon="127.0332221"></trkpt>
   <trkpt lat="37.4905652" lon="127.0332542"></trkpt>
   <trkpt lat="37.4902423" lon="127.0334191"></trkpt>
   <trkpt lat="37.4902423" lon="127.0334191"></trkpt>
   <trkpt lat="37.4902295" lon="127.0333762"></trkpt>
   <trkpt lat="37.4902103" lon="127.0333085"></trkpt>
   <trkpt lat="37.4902103" lon="127.0333085"></trkpt>
   <trkpt lat="37.4901182" lon="127.0330217"></trkpt>
   <trkpt lat="37.4900634" lon="127.0328411"></trkpt>
   <trkpt lat="37.4897747" lon="127.0318757"></trkpt>
   <trkpt lat="37.4897808" lon="127.0318225"></trkpt>
   <trkpt lat="37.489814" lon="127.0317872"></trkpt>
   <trkpt lat="37.489814" lon="127.0317872"></trkpt>
   <trkpt lat="37.4897291" lon="127.0315208"></trkpt>
   <trkpt lat="37.4896661" lon="127.0313063"></trkpt>
   <trkpt lat="37.4896661" lon="127.0313063"></trkpt>
   <trkpt lat="37.4896193" lon="127.0313201"></trkpt>
   <trkpt lat="37.4895814" lon="127.0313079"></trkpt>
   <trkpt lat="37.4894563" lon="127.0309139"></trkpt>
   <trkpt lat="37.4893614" lon="127.0306147"></trkpt>
   <trkpt lat="37.4893404" lon="127.0305493"></trkpt>
   <trkpt lat="37.489303" lon="127.0304307"></trkpt>
   <trkpt lat="37.4891842" lon="127.0300423"></trkpt>
   <trkpt lat="37.4891368" lon="127.0298911"></trkpt>
   <trkpt lat="37.4891057" lon="127.0297883"></trkpt>
   <trkpt lat="37.4888783" lon="127.0290319"></trkpt>
   <trkpt lat="37.4886654" lon="127.0283206"></trkpt>
   <trkpt lat="37.4886617" lon="127.0282968"></trkpt>
   <trkpt lat="37.4886617" lon="127.0282968"></trkpt>
   <trkpt lat="37.4886697" lon="127.0282776"></trkpt>
   <trkpt lat="37.4888704" lon="127.0281801"></trkpt>
   <trkpt lat="37.4894335" lon="127.0279063"></trkpt>
   <trkpt lat="37.4894686" lon="127.0278891"></trkpt>
   <trkpt lat="37.4895334" lon="127.0278592"></trkpt>
   <trkpt lat="37.489636" lon="127.0278156"></trkpt>
   <trkpt lat="37.4901272" lon="127.0275829"></trkpt>
   <trkpt lat="37.4905527" lon="127.0273845"></trkpt>
   <trkpt lat="37.491017" lon="127.0271678"></trkpt>
   <trkpt lat="37.4911177" lon="127.0271208"></trkpt>
   <trkpt lat="37.4915784" lon="127.0269063"></trkpt>
   <trkpt lat="37.4919337" lon="127.0267401"></trkpt>
   <trkpt lat="37.4919581" lon="127.0267365"></trkpt>
   <trkpt lat="37.4919581" lon="127.0267365"></trkpt>
   <trkpt lat="37.4920714" lon="127.0264519"></trkpt>
   <trkpt lat="37.4920714" lon="127.0264519"></trkpt>
   <trkpt lat="37.4920542" lon="127.0264305"></trkpt>
   <trkpt lat="37.4918222" lon="127.0256695"></trkpt>
   <trkpt lat="37.4915764" lon="127.0248498"></trkpt>
   <trkpt lat="37.4915545" lon="127.0247775"></trkpt>
   <trkpt lat="37.4915371" lon="127.0247188"></trkpt>
   <trkpt lat="37.4911353" lon="127.0234092"></trkpt>
   <trkpt lat="37.4911051" lon="127.0233098"></trkpt>
   <trkpt lat="37.4910119" lon="127.022988"></trkpt>
   <trkpt lat="37.4909762" lon="127.0228706"></trkpt>
   <trkpt lat="37.4908575" lon="127.0224845"></trkpt>
   <trkpt lat="37.4908127" lon="127.0223275"></trkpt>
   <trkpt lat="37.4908127" lon="127.0223275"></trkpt>
   <trkpt lat="37.4913905" lon="127.0220999"></trkpt>
   <trkpt lat="37.49153" lon="127.0220458"></trkpt>
   <trkpt lat="37.4916056" lon="127.0220171"></trkpt>
   <trkpt lat="37.4918098" lon="127.0219377"></trkpt>
   <trkpt lat="37.4919601" lon="127.0218757"></trkpt>
   <trkpt lat="37.4923165" lon="127.0217422"></trkpt>
   <trkpt lat="37.4928988" lon="127.0215281"></trkpt>
   <trkpt lat="37.4928988" lon="127.0215281"></trkpt>
   <trkpt lat="37.4923165" lon="127.0217422"></trkpt>
   <trkpt lat="37.4919601" lon="127.0218757"></trkpt>
   <trkpt lat="37.4918098" lon="127.0219377"></trkpt>
   <trkpt lat="37.4916056" lon="127.0220171"></trkpt>
   <trkpt lat="37.49153" lon="127.0220458"></trkpt>
   <trkpt lat="37.4913905" lon="127.0220999"></trkpt>
   <trkpt lat="37.4908127" lon="127.0223275"></trkpt>
   <trkpt lat="37.4908127" lon="127.0223275"></trkpt>
   <trkpt lat="37.4906885" lon="127.0219211"></trkpt>
   <trkpt lat="37.4904163" lon="127.0210315"></trkpt>
   <trkpt lat="37.4903971" lon="127.0209603"></trkpt>
   <trkpt lat="37.4901879" lon="127.0202784"></trkpt>
   <trkpt lat="37.490039" lon="127.0197862"></trkpt>
   <trkpt lat="37.4900015" lon="127.0196597"></trkpt>
   <trkpt lat="37.4899485" lon="127.0194825"></trkpt>
   <trkpt lat="37.4897749" lon="127.018918"></trkpt>
   <trkpt lat="37.4897457" lon="127.0188141"></trkpt>
   <trkpt lat="37.4896743" lon="127.0185634"></trkpt>
   <trkpt lat="37.4895501" lon="127.0181593"></trkpt>
   <trkpt lat="37.4894322" lon="127.0177709"></trkpt>
   <trkpt lat="37.489287" lon="127.0172888"></trkpt>
   <trkpt lat="37.4891051" lon="127.0166871"></trkpt>
   <trkpt lat="37.4890649" lon="127.0165505"></trkpt>
   <trkpt lat="37.4888375" lon="127.0158246"></trkpt>
   <trkpt lat="37.4886731" lon="127.0152951"></trkpt>
   <trkpt lat="37.4885278" lon="127.0148164"></trkpt>
   <trkpt lat="37.4885278" lon="127.0148164"></trkpt>
   <trkpt lat="37.4884477" lon="127.014852"></trkpt>
   <trkpt lat="37.4883901" lon="127.014875"></trkpt>
   <trkpt lat="37.4883901" lon="127.014875"></trkpt>
   <trkpt lat="37.4883503" lon="127.01483"></trkpt>
   <trkpt lat="37.4883087" lon="127.0147998"></trkpt>
   <trkpt lat="37.4882708" lon="127.0147977"></trkpt>
   <trkpt lat="37.4882195" lon="127.0148037"></trkpt>
   <trkpt lat="37.4875217" lon="127.0149836"></trkpt>
   <trkpt lat="37.4868776" lon="127.0153022"></trkpt>
   <trkpt lat="37.4867796" lon="127.0153617"></trkpt>
   <trkpt lat="37.4864307" lon="127.0155641"></trkpt>
   <trkpt lat="37.4858959" lon="127.0159205"></trkpt>
   <trkpt lat="37.4855766" lon="127.016108"></trkpt>
   <trkpt lat="37.4853556" lon="127.016278"></trkpt>
   <trkpt lat="37.485228" lon="127.0163693"></trkpt>
   <trkpt lat="37.4852011" lon="127.0164113"></trkpt>
   <trkpt lat="37.4851959" lon="127.0164668"></trkpt>
   <trkpt lat="37.4851959" lon="127.0164668"></trkpt>
   <trkpt lat="37.4849232" lon="127.0165636"></trkpt>
   <trkpt lat="37.4848245" lon="127.0162328"></trkpt>
   <trkpt lat="37.4848245" lon="127.0162328"></trkpt>
   <trkpt lat="37.4848477" lon="127.016175"></trkpt>
   <trkpt lat="37.4848537" lon="127.0161059"></trkpt>
   <trkpt lat="37.4848363" lon="127.0160235"></trkpt>
   <trkpt lat="37.4848096" lon="127.0158822"></trkpt>
   <trkpt lat="37.4846061" lon="127.0148497"></trkpt>
   <trkpt lat="37.484585" lon="127.014756"></trkpt>
   <trkpt lat="37.4845651" lon="127.014729"></trkpt>
   <trkpt lat="37.4845651" lon="127.014729"></trkpt>
   <trkpt lat="37.4845353" lon="127.0147167"></trkpt>
   <trkpt lat="37.4837922" lon="127.0148448"></trkpt>
   <trkpt lat="37.4837922" lon="127.0148448"></trkpt>
   <trkpt lat="37.4837918" lon="127.0147634"></trkpt>
   <trkpt lat="37.4837908" lon="127.0147227"></trkpt>
   <trkpt lat="37.4837908" lon="127.0147227"></trkpt>
   <trkpt lat="37.4836647" lon="127.0147416"></trkpt>
   <trkpt lat="37.4836647" lon="127.0147416"></trkpt>
   <trkpt lat="37.4836487" lon="127.0145924"></trkpt>
   <trkpt lat="37.4836131" lon="127.0142669"></trkpt>
  </trkseg>
 </trk>
</gpx>
