<?xml version="1.0" encoding="UTF-8"?>
<gpx creator="daengrun-naver-route" version="1.1" xmlns="http://www.topografix.com/GPX/1/1" xmlns:xsi="http://www.w3.org/2001/XMLSchema-instance" xsi:schemaLocation="http://www.topografix.com/GPX/1/1 http://www.topografix.com/GPX/1/1/gpx.xsd">
 <metadata>
  <name>서초 형촌천·서초문화예술공원 루프 3.65km</name>
  <desc>daengrun candidate geometry — measured 3.65km via Naver pedestrian router (o=flat, 계단회피). Elevation NOT available from this source. stairs=0 crosswalk=6 steppingstone=0 underpass=0 overpass=0</desc>
  <link href="naver:1athgse"><text>daengrun route id</text></link>
  <copyright author="NAVER Corp."><license>https://map.naver.com/</license></copyright>
 </metadata>
 <trk>
  <name>서초 형촌천·서초문화예술공원 루프 3.65km</name>
  <trkseg>
   <trkpt lat="37.4624843" lon="127.0260279"></trkpt>
   <trkpt lat="37.4625835" lon="127.0258215"></trkpt>
   <trkpt lat="37.4625966" lon="127.0257219"></trkpt>
   <trkpt lat="37.4626196" lon="127.0256188"></trkpt>
   <trkpt lat="37.4626196" lon="127.0256188"></trkpt>
   <trkpt lat="37.4624275" lon="127.0253589"></trkpt>
   <trkpt lat="37.4624275" lon="127.0253589"></trkpt>
   <trkpt lat="37.4625549" lon="127.0249883"></trkpt>
   <trkpt lat="37.4626208" lon="127.0247968"></trkpt>
   <trkpt lat="37.4626333" lon="127.0247616"></trkpt>
   <trkpt lat="37.462704" lon="127.0243971"></trkpt>
   <trkpt lat="37.4627474" lon="127.024208"></trkpt>
   <trkpt lat="37.4627489" lon="127.0241503"></trkpt>
   <trkpt lat="37.4627371" lon="127.0241142"></trkpt>
   <trkpt lat="37.4627334" lon="127.0241063"></trkpt>
   <trkpt lat="37.4627334" lon="127.0241063"></trkpt>
   <trkpt lat="37.4629004" lon="127.0239232"></trkpt>
   <trkpt lat="37.4629004" lon="127.0239232"></trkpt>
   <trkpt lat="37.4627936" lon="127.023813"></trkpt>
   <trkpt lat="37.462768" lon="127.0237397"></trkpt>
   <trkpt lat="37.4627738" lon="127.0236006"></trkpt>
   <trkpt lat="37.4627328" lon="127.0235092"></trkpt>
   <trkpt lat="37.4626759" lon="127.0234621"></trkpt>
   <trkpt lat="37.4626227" lon="127.0234737"></trkpt>
   <trkpt lat="37.4626227" lon="127.0234737"></trkpt>
   <trkpt lat="37.4626084" lon="127.0232839"></trkpt>
   <trkpt lat="37.4626189" lon="127.0232024"></trkpt>
   <trkpt lat="37.4626422" lon="127.0231683"></trkpt>
   <trkpt lat="37.4626422" lon="127.0231683"></trkpt>
   <trkpt lat="37.4625562" lon="127.0230648"></trkpt>
   <trkpt lat="37.4625562" lon="127.0230648"></trkpt>
   <trkpt lat="37.4625857" lon="127.0230115"></trkpt>
   <trkpt lat="37.462591" lon="127.0229787"></trkpt>
   <trkpt lat="37.4625529" lon="127.022919"></trkpt>
   <trkpt lat="37.4617809" lon="127.0219322"></trkpt>
   <trkpt lat="37.4616441" lon="127.0217555"></trkpt>
   <trkpt lat="37.4616441" lon="127.0217555"></trkpt>
   <trkpt lat="37.4613954" lon="127.0224492"></trkpt>
   <trkpt lat="37.4613954" lon="127.0224492"></trkpt>
   <trkpt lat="37.4616441" lon="127.0217555"></trkpt>
   <trkpt lat="37.4616441" lon="127.0217555"></trkpt>
   <trkpt lat="37.4617809" lon="127.0219322"></trkpt>
   <trkpt lat="37.4625529" lon="127.022919"></trkpt>
   <trkpt lat="37.462591" lon="127.0229787"></trkpt>
   <trkpt lat="37.4625857" lon="127.0230115"></trkpt>
   <trkpt lat="37.4625562" lon="127.0230648"></trkpt>
   <trkpt lat="37.4625562" lon="127.0230648"></trkpt>
   <trkpt lat="37.4626422" lon="127.0231683"></trkpt>
   <trkpt lat="37.4626422" lon="127.0231683"></trkpt>
   <trkpt lat="37.4626602" lon="127.0231512"></trkpt>
   <trkpt lat="37.4626845" lon="127.0231454"></trkpt>
   <trkpt lat="37.4627188" lon="127.023152"></trkpt>
   <trkpt lat="37.4627405" lon="127.02317"></trkpt>
   <trkpt lat="37.4632053" lon="127.0237788"></trkpt>
   <trkpt lat="37.4634499" lon="127.0240848"></trkpt>
   <trkpt lat="37.4635967" lon="127.024258"></trkpt>
   <trkpt lat="37.463651" lon="127.0243198"></trkpt>
   <trkpt lat="37.4637126" lon="127.0243884"></trkpt>
   <trkpt lat="37.4639724" lon="127.0246774"></trkpt>
   <trkpt lat="37.4643355" lon="127.0250731"></trkpt>
   <trkpt lat="37.4647175" lon="127.0254993"></trkpt>
   <trkpt lat="37.4647456" lon="127.0255297"></trkpt>
   <trkpt lat="37.464771" lon="127.0255713"></trkpt>
   <trkpt lat="37.464773" lon="127.0256098"></trkpt>
   <trkpt lat="37.4647659" lon="127.0256426"></trkpt>
   <trkpt lat="37.4647659" lon="127.0256426"></trkpt>
   <trkpt lat="37.4648455" lon="127.0257111"></trkpt>
   <trkpt lat="37.4648627" lon="127.0257302"></trkpt>
   <trkpt lat="37.4648627" lon="127.0257302"></trkpt>
   <trkpt lat="37.4648933" lon="127.025721"></trkpt>
   <trkpt lat="37.4649212" lon="127.0257219"></trkpt>
   <trkpt lat="37.46498" lon="127.0257634"></trkpt>
   <trkpt lat="37.4653213" lon="127.0261412"></trkpt>
   <trkpt lat="37.4655622" lon="127.0264144"></trkpt>
   <trkpt lat="37.4658192" lon="127.0266763"></trkpt>
   <trkpt lat="37.4668203" lon="127.0277172"></trkpt>
   <trkpt lat="37.4668981" lon="127.0278015"></trkpt>
   <trkpt lat="37.4669978" lon="127.0279241"></trkpt>
   <trkpt lat="37.4671465" lon="127.0281527"></trkpt>
   <trkpt lat="37.4673127" lon="127.0284604"></trkpt>
   <trkpt lat="37.4673491" lon="127.028545"></trkpt>
   <trkpt lat="37.4673491" lon="127.028545"></trkpt>
   <trkpt lat="37.4674056" lon="127.0287097"></trkpt>
   <trkpt lat="37.4674056" lon="127.0287097"></trkpt>
   <trkpt lat="37.4674317" lon="127.0286983"></trkpt>
   <trkpt lat="37.4676044" lon="127.0290534"></trkpt>
   <trkpt lat="37.4677514" lon="127.0293001"></trkpt>
   <trkpt lat="37.4678711" lon="127.0294792"></trkpt>
   <trkpt lat="37.4678711" lon="127.0294792"></trkpt>
   <trkpt lat="37.4678298" lon="127.02951"></trkpt>
   <trkpt lat="37.4677873" lon="127.0294876"></trkpt>
   <trkpt lat="37.4676491" lon="127.029424"></trkpt>
   <trkpt lat="37.4668007" lon="127.0298048"></trkpt>
   <trkpt lat="37.4667471" lon="127.0299216"></trkpt>
   <trkpt lat="37.4667356" lon="127.0299907"></trkpt>
   <trkpt lat="37.4667405" lon="127.0300901"></trkpt>
   <trkpt lat="37.4666176" lon="127.0304686"></trkpt>
   <trkpt lat="37.4666316" lon="127.0305794"></trkpt>
   <trkpt lat="37.4671314" lon="127.0309257"></trkpt>
   <trkpt lat="37.4680874" lon="127.0315134"></trkpt>
   <trkpt lat="37.4682789" lon="127.0316196"></trkpt>
   <trkpt lat="37.4685036" lon="127.0316702"></trkpt>
   <trkpt lat="37.4685036" lon="127.0316702"></trkpt>
   <trkpt lat="37.4684953" lon="127.0316262"></trkpt>
   <trkpt lat="37.4685067" lon="127.0315605"></trkpt>
   <trkpt lat="37.4685322" lon="127.031384"></trkpt>
   <trkpt lat="37.4685624" lon="127.0312922"></trkpt>
   <trkpt lat="37.4685624" lon="127.0312922"></trkpt>
   <trkpt lat="37.4685322" lon="127.031384"></trkpt>
   <trkpt lat="37.4685067" lon="127.0315605"></trkpt>
   <trkpt lat="37.4684953" lon="127.0316262"></trkpt>
   <trkpt lat="37.4685036" lon="127.0316702"></trkpt>
   <trkpt lat="37.4685036" lon="127.0316702"></trkpt>
   <trkpt lat="37.4682789" lon="127.0316196"></trkpt>
   <trkpt lat="37.4680874" lon="127.0315134"></trkpt>
   <trkpt lat="37.4671314" lon="127.0309257"></trkpt>
   <trkpt lat="37.4666316" lon="127.0305794"></trkpt>
   <trkpt lat="37.4666176" lon="127.0304686"></trkpt>
   <trkpt lat="37.4667405" lon="127.0300901"></trkpt>
   <trkpt lat="37.4667356" lon="127.0299907"></trkpt>
   <trkpt lat="37.4667471" lon="127.0299216"></trkpt>
   <trkpt lat="37.4668007" lon="127.0298048"></trkpt>
   <trkpt lat="37.4676491" lon="127.029424"></trkpt>
   <trkpt lat="37.4677873" lon="127.0294876"></trkpt>
   <trkpt lat="37.4678298" lon="127.02951"></trkpt>
   <trkpt lat="37.4678711" lon="127.0294792"></trkpt>
   <trkpt lat="37.4678711" lon="127.0294792"></trkpt>
   <trkpt lat="37.4677514" lon="127.0293001"></trkpt>
   <trkpt lat="37.4676044" lon="127.0290534"></trkpt>
   <trkpt lat="37.4674317" lon="127.0286983"></trkpt>
   <trkpt lat="37.4674056" lon="127.0287097"></trkpt>
   <trkpt lat="37.4674056" lon="127.0287097"></trkpt>
   <trkpt lat="37.4673491" lon="127.028545"></trkpt>
   <trkpt lat="37.4673491" lon="127.028545"></trkpt>
   <trkpt lat="37.4673127" lon="127.0284604"></trkpt>
   <trkpt lat="37.4671465" lon="127.0281527"></trkpt>
   <trkpt lat="37.4669978" lon="127.0279241"></trkpt>
   <trkpt lat="37.4668981" lon="127.0278015"></trkpt>
   <trkpt lat="37.4668203" lon="127.0277172"></trkpt>
   <trkpt lat="37.4658192" lon="127.0266763"></trkpt>
   <trkpt lat="37.4655622" lon="127.0264144"></trkpt>
   <trkpt lat="37.4653213" lon="127.0261412"></trkpt>
   <trkpt lat="37.46498" lon="127.0257634"></trkpt>
   <trkpt lat="37.4649212" lon="127.0257219"></trkpt>
   <trkpt lat="37.4648933" lon="127.025721"></trkpt>
   <trkpt lat="37.4648627" lon="127.0257302"></trkpt>
   <trkpt lat="37.4648627" lon="127.0257302"></trkpt>
   <trkpt lat="37.4648455" lon="127.0257111"></trkpt>
   <trkpt lat="37.4647659" lon="127.0256426"></trkpt>
   <trkpt lat="37.4647659" lon="127.0256426"></trkpt>
   <trkpt lat="37.464773" lon="127.0256098"></trkpt>
   <trkpt lat="37.464771" lon="127.0255713"></trkpt>
   <trkpt lat="37.4647456" lon="127.0255297"></trkpt>
   <trkpt lat="37.4647175" lon="127.0254993"></trkpt>
   <trkpt lat="37.4643355" lon="127.0250731"></trkpt>
   <trkpt lat="37.4639724" lon="127.0246774"></trkpt>
   <trkpt lat="37.4637126" lon="127.0243884"></trkpt>
   <trkpt lat="37.463651" lon="127.0243198"></trkpt>
   <trkpt lat="37.4635967" lon="127.024258"></trkpt>
   <trkpt lat="37.4634499" lon="127.0240848"></trkpt>
   <trkpt lat="37.4632053" lon="127.0237788"></trkpt>
   <trkpt lat="37.4627405" lon="127.02317"></trkpt>
   <trkpt lat="37.4627188" lon="127.023152"></trkpt>
   <trkpt lat="37.4626845" lon="127.0231454"></trkpt>
   <trkpt lat="37.4626845" lon="127.0231454"></trkpt>
   <trkpt lat="37.4626602" lon="127.0231512"></trkpt>
   <trkpt lat="37.4626422" lon="127.0231683"></trkpt>
   <trkpt lat="37.4626189" lon="127.0232024"></trkpt>
   <trkpt lat="37.4626189" lon="127.0232024"></trkpt>
   <trkpt lat="37.4626084" lon="127.0232839"></trkpt>
   <trkpt lat="37.4626227" lon="127.0234737"></trkpt>
   <trkpt lat="37.4626227" lon="127.0234737"></trkpt>
   <trkpt lat="37.4626759" lon="127.0234621"></trkpt>
   <trkpt lat="37.4627328" lon="127.0235092"></trkpt>
   <trkpt lat="37.4627738" lon="127.0236006"></trkpt>
   <trkpt lat="37.462768" lon="127.0237397"></trkpt>
   <trkpt lat="37.4627936" lon="127.023813"></trkpt>
   <trkpt lat="37.4629004" lon="127.0239232"></trkpt>
   <trkpt lat="37.4629004" lon="127.0239232"></trkpt>
   <trkpt lat="37.4627334" lon="127.0241063"></trkpt>
   <trkpt lat="37.4627334" lon="127.0241063"></trkpt>
   <trkpt lat="37.4627371" lon="127.0241142"></trkpt>
   <trkpt lat="37.4627489" lon="127.0241503"></trkpt>
   <trkpt lat="37.4627474" lon="127.024208"></trkpt>
   <trkpt lat="37.462704" lon="127.0243971"></trkpt>
   <trkpt lat="37.4626333" lon="127.0247616"></trkpt>
   <trkpt lat="37.4626208" lon="127.0247968"></trkpt>
   <trkpt lat="37.4625549" lon="127.0249883"></trkpt>
   <trkpt lat="37.4624275" lon="127.0253589"></trkpt>
   <trkpt lat="37.4624275" lon="127.0253589"></trkpt>
   <trkpt lat="37.4626196" lon="127.0256188"></trkpt>
   <trkpt lat="37.4626196" lon="127.0256188"></trkpt>
   <trkpt lat="37.4625966" lon="127.0257219"></trkpt>
   <trkpt lat="37.4625835" lon="127.0258215"></trkpt>
   <trkpt lat="37.4624843" lon="127.0260279"></trkpt>
  </trkseg>
 </trk>
</gpx>
