<?xml version="1.0" encoding="UTF-8"?>
<gpx creator="daengrun-naver-route" version="1.1" xmlns="http://www.topografix.com/GPX/1/1" xmlns:xsi="http://www.w3.org/2001/XMLSchema-instance" xsi:schemaLocation="http://www.topografix.com/GPX/1/1 http://www.topografix.com/GPX/1/1/gpx.xsd">
 <metadata>
  <name>서초 서초래미안 중앙공원·성당 공원 루프 2.44km</name>
  <desc>daengrun candidate geometry — measured 2.44km via Naver pedestrian router (o=flat, 계단회피). Elevation NOT available from this source. stairs=0 crosswalk=5 steppingstone=0 underpass=0 overpass=0</desc>
  <link href="naver:12zgwuy"><text>daengrun route id</text></link>
  <copyright author="NAVER Corp."><license>https://map.naver.com/</license></copyright>
 </metadata>
 <trk>
  <name>서초 서초래미안 중앙공원·성당 공원 루프 2.44km</name>
  <trkseg>
   <trkpt lat="37.4965295" lon="127.0157715"></trkpt>
   <trkpt lat="37.4965525" lon="127.0152397"></trkpt>
   <trkpt lat="37.4965525" lon="127.0152397"></trkpt>
   <trkpt lat="37.4970995" lon="127.0149873"></trkpt>
   <trkpt lat="37.4970995" lon="127.0149873"></trkpt>
   <trkpt lat="37.4971875" lon="127.0157729"></trkpt>
   <trkpt lat="37.497211" lon="127.0160239"></trkpt>
   <trkpt lat="37.4972648" lon="127.0161593"></trkpt>
   <trkpt lat="37.4974974" lon="127.0166149"></trkpt>
   <trkpt lat="37.4981524" lon="127.0178743"></trkpt>
   <trkpt lat="37.4981822" lon="127.0178843"></trkpt>
   <trkpt lat="37.4983099" lon="127.0178021"></trkpt>
   <trkpt lat="37.4983526" lon="127.0178934"></trkpt>
   <trkpt lat="37.498553" lon="127.0177462"></trkpt>
   <trkpt lat="37.4987165" lon="127.0176252"></trkpt>
   <trkpt lat="37.4987165" lon="127.0176252"></trkpt>
   <trkpt lat="37.4987529" lon="127.0176883"></trkpt>
   <trkpt lat="37.498977" lon="127.0184879"></trkpt>
   <trkpt lat="37.498994" lon="127.0186925"></trkpt>
   <trkpt lat="37.498994" lon="127.0186925"></trkpt>
   <trkpt lat="37.4989184" lon="127.0187258"></trkpt>
   <trkpt lat="37.4988653" lon="127.0187273"></trkpt>
   <trkpt lat="37.4988219" lon="127.0187117"></trkpt>
   <trkpt lat="37.4985232" lon="127.0188279"></trkpt>
   <trkpt lat="37.4985232" lon="127.0188279"></trkpt>
   <trkpt lat="37.4983072" lon="127.018913"></trkpt>
   <trkpt lat="37.4981506" lon="127.018983"></trkpt>
   <trkpt lat="37.4980992" lon="127.0189788"></trkpt>
   <trkpt lat="37.498055" lon="127.0189746"></trkpt>
   <trkpt lat="37.4977581" lon="127.0190908"></trkpt>
   <trkpt lat="37.4977581" lon="127.0190908"></trkpt>
   <trkpt lat="37.4978232" lon="127.0193754"></trkpt>
   <trkpt lat="37.4978232" lon="127.0193754"></trkpt>
   <trkpt lat="37.4975083" lon="127.0195076"></trkpt>
   <trkpt lat="37.4974966" lon="127.019511"></trkpt>
   <trkpt lat="37.4974966" lon="127.019511"></trkpt>
   <trkpt lat="37.4975035" lon="127.019658"></trkpt>
   <trkpt lat="37.4974976" lon="127.0197701"></trkpt>
   <trkpt lat="37.4974854" lon="127.0198754"></trkpt>
   <trkpt lat="37.4974291" lon="127.0202027"></trkpt>
   <trkpt lat="37.4974257" lon="127.0202525"></trkpt>
   <trkpt lat="37.4974286" lon="127.0203068"></trkpt>
   <trkpt lat="37.4974578" lon="127.0203824"></trkpt>
   <trkpt lat="37.4974578" lon="127.0203824"></trkpt>
   <trkpt lat="37.4974012" lon="127.020428"></trkpt>
   <trkpt lat="37.4973056" lon="127.020432"></trkpt>
   <trkpt lat="37.4973056" lon="127.020432"></trkpt>
   <trkpt lat="37.4972977" lon="127.0204773"></trkpt>
   <trkpt lat="37.4972852" lon="127.0205023"></trkpt>
   <trkpt lat="37.4972582" lon="127.0205183"></trkpt>
   <trkpt lat="37.4968289" lon="127.0206805"></trkpt>
   <trkpt lat="37.496828" lon="127.0206805"></trkpt>
   <trkpt lat="37.496792" lon="127.0206864"></trkpt>
   <trkpt lat="37.4967649" lon="127.0206719"></trkpt>
   <trkpt lat="37.4967649" lon="127.0206719"></trkpt>
   <trkpt lat="37.4966623" lon="127.0207167"></trkpt>
   <trkpt lat="37.4966353" lon="127.020727"></trkpt>
   <trkpt lat="37.4966353" lon="127.020727"></trkpt>
   <trkpt lat="37.4965588" lon="127.0207501"></trkpt>
   <trkpt lat="37.4960683" lon="127.0209275"></trkpt>
   <trkpt lat="37.4960683" lon="127.0209275"></trkpt>
   <trkpt lat="37.4960592" lon="127.0209027"></trkpt>
   <trkpt lat="37.4960181" lon="127.020774"></trkpt>
   <trkpt lat="37.4959706" lon="127.0206283"></trkpt>
   <trkpt lat="37.4959706" lon="127.0206283"></trkpt>
   <trkpt lat="37.4958689" lon="127.0206731"></trkpt>
   <trkpt lat="37.4957457" lon="127.0207293"></trkpt>
   <trkpt lat="37.4956863" lon="127.0207546"></trkpt>
   <trkpt lat="37.4956863" lon="127.0207546"></trkpt>
   <trkpt lat="37.4956078" lon="127.0205017"></trkpt>
   <trkpt lat="37.4956078" lon="127.0205017"></trkpt>
   <trkpt lat="37.4952199" lon="127.0206478"></trkpt>
   <trkpt lat="37.4947915" lon="127.0208123"></trkpt>
   <trkpt lat="37.4942218" lon="127.0210241"></trkpt>
   <trkpt lat="37.4940553" lon="127.0210874"></trkpt>
   <trkpt lat="37.4938249" lon="127.0211748"></trkpt>
   <trkpt lat="37.4933488" lon="127.0213578"></trkpt>
   <trkpt lat="37.4932651" lon="127.0213922"></trkpt>
   <trkpt lat="37.4931382" lon="127.0214405"></trkpt>
   <trkpt lat="37.4928988" lon="127.0215281"></trkpt>
   <trkpt lat="37.4928988" lon="127.0215281"></trkpt>
   <trkpt lat="37.4931382" lon="127.0214405"></trkpt>
   <trkpt lat="37.4932651" lon="127.0213922"></trkpt>
   <trkpt lat="37.4933488" lon="127.0213578"></trkpt>
   <trkpt lat="37.4938249" lon="127.0211748"></trkpt>
   <trkpt lat="37.4940553" lon="127.0210874"></trkpt>
   <trkpt lat="37.4942218" lon="127.0210241"></trkpt>
   <trkpt lat="37.4947915" lon="127.0208123"></trkpt>
   <trkpt lat="37.4952199" lon="127.0206478"></trkpt>
   <trkpt lat="37.4956078" lon="127.0205017"></trkpt>
   <trkpt lat="37.4956078" lon="127.0205017"></trkpt>
   <trkpt lat="37.4954496" lon="127.0199495"></trkpt>
   <trkpt lat="37.4954432" lon="127.0199246"></trkpt>
   <trkpt lat="37.4952056" lon="127.0191331"></trkpt>
   <trkpt lat="37.4950256" lon="127.0185438"></trkpt>
   <trkpt lat="37.4948548" lon="127.0179826"></trkpt>
   <trkpt lat="37.4948173" lon="127.0178652"></trkpt>
   <trkpt lat="37.4948173" lon="127.0178652"></trkpt>
   <trkpt lat="37.4948803" lon="127.0178343"></trkpt>
   <trkpt lat="37.4949873" lon="127.0177714"></trkpt>
   <trkpt lat="37.4950799" lon="127.0177176"></trkpt>
   <trkpt lat="37.4950799" lon="127.0177176"></trkpt>
   <trkpt lat="37.4950233" lon="127.0175392"></trkpt>
   <trkpt lat="37.4949731" lon="127.0173699"></trkpt>
   <trkpt lat="37.4947721" lon="127.0167196"></trkpt>
   <trkpt lat="37.4947684" lon="127.0167004"></trkpt>
   <trkpt lat="37.4947684" lon="127.0167004"></trkpt>
   <trkpt lat="37.494933" lon="127.016619"></trkpt>
   <trkpt lat="37.4949513" lon="127.0166765"></trkpt>
   <trkpt lat="37.4949513" lon="127.0166765"></trkpt>
   <trkpt lat="37.4950062" lon="127.0166502"></trkpt>
   <trkpt lat="37.4950718" lon="127.0166169"></trkpt>
   <trkpt lat="37.4950718" lon="127.0166169"></trkpt>
   <trkpt lat="37.4950572" lon="127.0165537"></trkpt>
   <trkpt lat="37.4950478" lon="127.0164723"></trkpt>
   <trkpt lat="37.4950385" lon="127.0164011"></trkpt>
   <trkpt lat="37.4949919" lon="127.0160202"></trkpt>
   <trkpt lat="37.4949919" lon="127.0160202"></trkpt>
   <trkpt lat="37.4955828" lon="127.0157166"></trkpt>
   <trkpt lat="37.4958095" lon="127.0156042"></trkpt>
   <trkpt lat="37.4961648" lon="127.01543"></trkpt>
   <trkpt lat="37.4965525" lon="127.0152397"></trkpt>
   <trkpt lat="37.4965525" lon="127.0152397"></trkpt>
   <trkpt lat="37.4965295" lon="127.0157715"></trkpt>
  </trkseg>
 </trk>
</gpx>
