<?xml version="1.0" encoding="UTF-8"?>
<gpx creator="daengrun-naver-route" version="1.1" xmlns="http://www.topografix.com/GPX/1/1" xmlns:xsi="http://www.w3.org/2001/XMLSchema-instance" xsi:schemaLocation="http://www.topografix.com/GPX/1/1 http://www.topografix.com/GPX/1/1/gpx.xsd">
 <metadata>
  <name>성동 Rose Garde·금옥공원 루프 2.73km</name>
  <desc>daengrun candidate geometry — measured 2.73km via Naver pedestrian router (o=flat, 계단회피). Elevation NOT available from this source. stairs=0 crosswalk=4 steppingstone=0 underpass=0 overpass=0</desc>
  <link href="naver:puzpzq"><text>daengrun route id</text></link>
  <copyright author="NAVER Corp."><license>https://map.naver.com/</license></copyright>
 </metadata>
 <trk>
  <name>성동 Rose Garde·금옥공원 루프 2.73km</name>
  <trkseg>
   <trkpt lat="37.5509762" lon="127.0265459"></trkpt>
   <trkpt lat="37.5509726" lon="127.026547"></trkpt>
   <trkpt lat="37.5509393" lon="127.0265563"></trkpt>
   <trkpt lat="37.5508474" lon="127.0265625"></trkpt>
   <trkpt lat="37.5506139" lon="127.0265595"></trkpt>
   <trkpt lat="37.5505933" lon="127.0265709"></trkpt>
   <trkpt lat="37.5505735" lon="127.0265948"></trkpt>
   <trkpt lat="37.5502619" lon="127.0270972"></trkpt>
   <trkpt lat="37.5500488" lon="127.0274472"></trkpt>
   <trkpt lat="37.5500237" lon="127.0274881"></trkpt>
   <trkpt lat="37.5498455" lon="127.0277802"></trkpt>
   <trkpt lat="37.5498196" lon="127.0278438"></trkpt>
   <trkpt lat="37.5498056" lon="127.0279389"></trkpt>
   <trkpt lat="37.5497961" lon="127.0280556"></trkpt>
   <trkpt lat="37.5497792" lon="127.0281214"></trkpt>
   <trkpt lat="37.5497364" lon="127.0282247"></trkpt>
   <trkpt lat="37.549533" lon="127.028518"></trkpt>
   <trkpt lat="37.5494666" lon="127.0286"></trkpt>
   <trkpt lat="37.5493696" lon="127.0287013"></trkpt>
   <trkpt lat="37.5493248" lon="127.0287514"></trkpt>
   <trkpt lat="37.5492755" lon="127.0288174"></trkpt>
   <trkpt lat="37.5492612" lon="127.028848"></trkpt>
   <trkpt lat="37.5492504" lon="127.0288685"></trkpt>
   <trkpt lat="37.5492424" lon="127.0288923"></trkpt>
   <trkpt lat="37.5492424" lon="127.0288923"></trkpt>
   <trkpt lat="37.5492246" lon="127.0289581"></trkpt>
   <trkpt lat="37.5492194" lon="127.0290034"></trkpt>
   <trkpt lat="37.5492169" lon="127.0290498"></trkpt>
   <trkpt lat="37.5492244" lon="127.0291166"></trkpt>
   <trkpt lat="37.5492344" lon="127.0291527"></trkpt>
   <trkpt lat="37.5495015" lon="127.0296809"></trkpt>
   <trkpt lat="37.5495334" lon="127.0297475"></trkpt>
   <trkpt lat="37.5495334" lon="127.0297475"></trkpt>
   <trkpt lat="37.5495159" lon="127.029674"></trkpt>
   <trkpt lat="37.5494414" lon="127.0295114"></trkpt>
   <trkpt lat="37.5493396" lon="127.0293174"></trkpt>
   <trkpt lat="37.5493196" lon="127.0292677"></trkpt>
   <trkpt lat="37.549305" lon="127.0292112"></trkpt>
   <trkpt lat="37.549302" lon="127.0291489"></trkpt>
   <trkpt lat="37.5492998" lon="127.0290369"></trkpt>
   <trkpt lat="37.5493075" lon="127.0289496"></trkpt>
   <trkpt lat="37.5493414" lon="127.0288498"></trkpt>
   <trkpt lat="37.5493915" lon="127.0287623"></trkpt>
   <trkpt lat="37.5494248" lon="127.0287372"></trkpt>
   <trkpt lat="37.5494743" lon="127.0287256"></trkpt>
   <trkpt lat="37.5495149" lon="127.0287298"></trkpt>
   <trkpt lat="37.5496493" lon="127.0287743"></trkpt>
   <trkpt lat="37.5497992" lon="127.0288243"></trkpt>
   <trkpt lat="37.5499412" lon="127.0289615"></trkpt>
   <trkpt lat="37.5500913" lon="127.0290749"></trkpt>
   <trkpt lat="37.5501148" lon="127.0290917"></trkpt>
   <trkpt lat="37.5501727" lon="127.0291333"></trkpt>
   <trkpt lat="37.5502576" lon="127.0291746"></trkpt>
   <trkpt lat="37.550585" lon="127.0292484"></trkpt>
   <trkpt lat="37.5506996" lon="127.0292748"></trkpt>
   <trkpt lat="37.5508872" lon="127.0293054"></trkpt>
   <trkpt lat="37.5509383" lon="127.0292303"></trkpt>
   <trkpt lat="37.5509716" lon="127.029212"></trkpt>
   <trkpt lat="37.5511114" lon="127.0292326"></trkpt>
   <trkpt lat="37.5512556" lon="127.0292351"></trkpt>
   <trkpt lat="37.5513556" lon="127.0292334"></trkpt>
   <trkpt lat="37.551416" lon="127.029216"></trkpt>
   <trkpt lat="37.5514304" lon="127.0292114"></trkpt>
   <trkpt lat="37.5514609" lon="127.0291919"></trkpt>
   <trkpt lat="37.5515168" lon="127.0291905"></trkpt>
   <trkpt lat="37.5515276" lon="127.0291802"></trkpt>
   <trkpt lat="37.5515601" lon="127.029197"></trkpt>
   <trkpt lat="37.5515971" lon="127.0291967"></trkpt>
   <trkpt lat="37.5516024" lon="127.0291922"></trkpt>
   <trkpt lat="37.5516501" lon="127.0291523"></trkpt>
   <trkpt lat="37.551677" lon="127.0291408"></trkpt>
   <trkpt lat="37.5517157" lon="127.0291066"></trkpt>
   <trkpt lat="37.5517535" lon="127.0290939"></trkpt>
   <trkpt lat="37.5517986" lon="127.029097"></trkpt>
   <trkpt lat="37.5517986" lon="127.029097"></trkpt>
   <trkpt lat="37.5517938" lon="127.0290314"></trkpt>
   <trkpt lat="37.5517827" lon="127.0289726"></trkpt>
   <trkpt lat="37.5517827" lon="127.0289726"></trkpt>
   <trkpt lat="37.5518278" lon="127.0289711"></trkpt>
   <trkpt lat="37.5518539" lon="127.0289585"></trkpt>
   <trkpt lat="37.5518602" lon="127.028954"></trkpt>
   <trkpt lat="37.5518602" lon="127.028954"></trkpt>
   <trkpt lat="37.5518539" lon="127.0289585"></trkpt>
   <trkpt lat="37.5518278" lon="127.0289711"></trkpt>
   <trkpt lat="37.5517827" lon="127.0289726"></trkpt>
   <trkpt lat="37.5517827" lon="127.0289726"></trkpt>
   <trkpt lat="37.5517938" lon="127.0290314"></trkpt>
   <trkpt lat="37.5517986" lon="127.029097"></trkpt>
   <trkpt lat="37.5517986" lon="127.029097"></trkpt>
   <trkpt lat="37.551832" lon="127.0291092"></trkpt>
   <trkpt lat="37.5518643" lon="127.0290909"></trkpt>
   <trkpt lat="37.5518948" lon="127.0290477"></trkpt>
   <trkpt lat="37.5519163" lon="127.0290057"></trkpt>
   <trkpt lat="37.5519585" lon="127.0289839"></trkpt>
   <trkpt lat="37.552" lon="127.0289735"></trkpt>
   <trkpt lat="37.5520198" lon="127.0289677"></trkpt>
   <trkpt lat="37.5520385" lon="127.0289132"></trkpt>
   <trkpt lat="37.5520436" lon="127.0288373"></trkpt>
   <trkpt lat="37.552046" lon="127.0287648"></trkpt>
   <trkpt lat="37.5520657" lon="127.028724"></trkpt>
   <trkpt lat="37.5521016" lon="127.0286977"></trkpt>
   <trkpt lat="37.5521716" lon="127.0286158"></trkpt>
   <trkpt lat="37.5521841" lon="127.0285953"></trkpt>
   <trkpt lat="37.5521857" lon="127.0285274"></trkpt>
   <trkpt lat="37.5521857" lon="127.0285274"></trkpt>
   <trkpt lat="37.5522082" lon="127.0285249"></trkpt>
   <trkpt lat="37.5524996" lon="127.0283748"></trkpt>
   <trkpt lat="37.5525887" lon="127.0283414"></trkpt>
   <trkpt lat="37.5526328" lon="127.0283242"></trkpt>
   <trkpt lat="37.5526644" lon="127.0283217"></trkpt>
   <trkpt lat="37.5527581" lon="127.028312"></trkpt>
   <trkpt lat="37.552833" lon="127.0283365"></trkpt>
   <trkpt lat="37.552833" lon="127.0283365"></trkpt>
   <trkpt lat="37.5528992" lon="127.0282115"></trkpt>
   <trkpt lat="37.5532578" lon="127.0279489"></trkpt>
   <trkpt lat="37.5534332" lon="127.0278742"></trkpt>
   <trkpt lat="37.5534907" lon="127.027824"></trkpt>
   <trkpt lat="37.553641" lon="127.0275366"></trkpt>
   <trkpt lat="37.5537658" lon="127.0274249"></trkpt>
   <trkpt lat="37.5538746" lon="127.0273597"></trkpt>
   <trkpt lat="37.5538908" lon="127.0273494"></trkpt>
   <trkpt lat="37.5540331" lon="127.0273122"></trkpt>
   <trkpt lat="37.5543743" lon="127.027224"></trkpt>
   <trkpt lat="37.5545249" lon="127.0272367"></trkpt>
   <trkpt lat="37.5545249" lon="127.0272367"></trkpt>
   <trkpt lat="37.5545665" lon="127.0270371"></trkpt>
   <trkpt lat="37.5546412" lon="127.0267989"></trkpt>
   <trkpt lat="37.5547748" lon="127.0263996"></trkpt>
   <trkpt lat="37.5549408" lon="127.0259864"></trkpt>
   <trkpt lat="37.5550491" lon="127.0257864"></trkpt>
   <trkpt lat="37.5551911" lon="127.0256746"></trkpt>
   <trkpt lat="37.5554241" lon="127.0255622"></trkpt>
   <trkpt lat="37.5555689" lon="127.0255012"></trkpt>
   <trkpt lat="37.5555689" lon="127.0255012"></trkpt>
   <trkpt lat="37.555539" lon="127.025241"></trkpt>
   <trkpt lat="37.5555332" lon="127.0251245"></trkpt>
   <trkpt lat="37.5555488" lon="127.0249828"></trkpt>
   <trkpt lat="37.5555505" lon="127.0249477"></trkpt>
   <trkpt lat="37.5555468" lon="127.0249319"></trkpt>
   <trkpt lat="37.5555314" lon="127.0249195"></trkpt>
   <trkpt lat="37.5555314" lon="127.0249195"></trkpt>
   <trkpt lat="37.5555623" lon="127.0247552"></trkpt>
   <trkpt lat="37.5555773" lon="127.0246747"></trkpt>
   <trkpt lat="37.5555773" lon="127.0246747"></trkpt>
   <trkpt lat="37.5555881" lon="127.024669"></trkpt>
   <trkpt lat="37.5556052" lon="127.0246473"></trkpt>
   <trkpt lat="37.555615" lon="127.0246314"></trkpt>
   <trkpt lat="37.5556248" lon="127.0246087"></trkpt>
   <trkpt lat="37.5556154" lon="127.0242918"></trkpt>
   <trkpt lat="37.5556118" lon="127.0240699"></trkpt>
   <trkpt lat="37.5556068" lon="127.0239397"></trkpt>
   <trkpt lat="37.5556027" lon="127.023805"></trkpt>
   <trkpt lat="37.5556017" lon="127.0237869"></trkpt>
   <trkpt lat="37.5555893" lon="127.0229424"></trkpt>
   <trkpt lat="37.5555731" lon="127.0227376"></trkpt>
   <trkpt lat="37.5555474" lon="127.0226256"></trkpt>
   <trkpt lat="37.5554955" lon="127.0225003"></trkpt>
   <trkpt lat="37.5554201" lon="127.0223411"></trkpt>
   <trkpt lat="37.5553494" lon="127.0222352"></trkpt>
   <trkpt lat="37.5553258" lon="127.0222138"></trkpt>
   <trkpt lat="37.5552644" lon="127.0221882"></trkpt>
   <trkpt lat="37.5549588" lon="127.0221641"></trkpt>
   <trkpt lat="37.5548938" lon="127.0221418"></trkpt>
   <trkpt lat="37.5548134" lon="127.0220937"></trkpt>
   <trkpt lat="37.5547355" lon="127.0220104"></trkpt>
   <trkpt lat="37.5546802" lon="127.0219224"></trkpt>
   <trkpt lat="37.5546345" lon="127.0217812"></trkpt>
   <trkpt lat="37.5545995" lon="127.021581"></trkpt>
   <trkpt lat="37.5545816" lon="127.0213944"></trkpt>
   <trkpt lat="37.5545802" lon="127.0212619"></trkpt>
   <trkpt lat="37.5545983" lon="127.0210659"></trkpt>
   <trkpt lat="37.5546042" lon="127.0209583"></trkpt>
   <trkpt lat="37.5545855" lon="127.0203618"></trkpt>
   <trkpt lat="37.5545781" lon="127.0203211"></trkpt>
   <trkpt lat="37.5545681" lon="127.0202985"></trkpt>
   <trkpt lat="37.55456" lon="127.0202816"></trkpt>
   <trkpt lat="37.5545374" lon="127.0202681"></trkpt>
   <trkpt lat="37.5545374" lon="127.0202681"></trkpt>
   <trkpt lat="37.5545238" lon="127.020266"></trkpt>
   <trkpt lat="37.5545094" lon="127.0202672"></trkpt>
   <trkpt lat="37.5544915" lon="127.0202865"></trkpt>
   <trkpt lat="37.5544538" lon="127.0203366"></trkpt>
   <trkpt lat="37.5544458" lon="127.0203468"></trkpt>
   <trkpt lat="37.5544072" lon="127.0203924"></trkpt>
   <trkpt lat="37.5544072" lon="127.0203924"></trkpt>
   <trkpt lat="37.5543202" lon="127.020291"></trkpt>
   <trkpt lat="37.5543202" lon="127.020291"></trkpt>
   <trkpt lat="37.5538979" lon="127.0208225"></trkpt>
   <trkpt lat="37.5536873" lon="127.021125"></trkpt>
   <trkpt lat="37.5536425" lon="127.0211954"></trkpt>
   <trkpt lat="37.5536425" lon="127.0211954"></trkpt>
   <trkpt lat="37.5536253" lon="127.0211695"></trkpt>
   <trkpt lat="37.553555" lon="127.0211779"></trkpt>
   <trkpt lat="37.5535081" lon="127.0211827"></trkpt>
   <trkpt lat="37.5533865" lon="127.0211835"></trkpt>
   <trkpt lat="37.5533865" lon="127.0211835"></trkpt>
   <trkpt lat="37.5535081" lon="127.0211827"></trkpt>
   <trkpt lat="37.553555" lon="127.0211779"></trkpt>
   <trkpt lat="37.5536253" lon="127.0211695"></trkpt>
   <trkpt lat="37.5536425" lon="127.0211954"></trkpt>
   <trkpt lat="37.5536425" lon="127.0211954"></trkpt>
   <trkpt lat="37.5535289" lon="127.0214033"></trkpt>
   <trkpt lat="37.5534611" lon="127.0215849"></trkpt>
   <trkpt lat="37.5534025" lon="127.0218163"></trkpt>
   <trkpt lat="37.5533786" lon="127.0219092"></trkpt>
   <trkpt lat="37.5532211" lon="127.0226326"></trkpt>
   <trkpt lat="37.5531316" lon="127.0230282"></trkpt>
   <trkpt lat="37.5530212" lon="127.0233482"></trkpt>
   <trkpt lat="37.5529124" lon="127.0236489"></trkpt>
   <trkpt lat="37.5529124" lon="127.0236489"></trkpt>
   <trkpt lat="37.5530299" lon="127.0237297"></trkpt>
   <trkpt lat="37.5530299" lon="127.0237297"></trkpt>
   <trkpt lat="37.5529737" lon="127.0238851"></trkpt>
   <trkpt lat="37.5529124" lon="127.0240984"></trkpt>
   <trkpt lat="37.5528875" lon="127.0241733"></trkpt>
   <trkpt lat="37.5527411" lon="127.0245229"></trkpt>
   <trkpt lat="37.5525973" lon="127.0248578"></trkpt>
   <trkpt lat="37.5525948" lon="127.0249031"></trkpt>
   <trkpt lat="37.5526021" lon="127.0249393"></trkpt>
   <trkpt lat="37.5526021" lon="127.0249393"></trkpt>
   <trkpt lat="37.5525618" lon="127.0249848"></trkpt>
   <trkpt lat="37.5525062" lon="127.0250633"></trkpt>
   <trkpt lat="37.5525082" lon="127.025121"></trkpt>
   <trkpt lat="37.5525136" lon="127.0253327"></trkpt>
   <trkpt lat="37.5525136" lon="127.0253327"></trkpt>
   <trkpt lat="37.5524479" lon="127.0253727"></trkpt>
   <trkpt lat="37.5524201" lon="127.0254001"></trkpt>
   <trkpt lat="37.5523618" lon="127.0254706"></trkpt>
   <trkpt lat="37.5520614" lon="127.0258439"></trkpt>
   <trkpt lat="37.5520434" lon="127.0258666"></trkpt>
   <trkpt lat="37.551994" lon="127.0259134"></trkpt>
   <trkpt lat="37.5519814" lon="127.0259225"></trkpt>
   <trkpt lat="37.5519356" lon="127.0259624"></trkpt>
   <trkpt lat="37.5518709" lon="127.0259923"></trkpt>
   <trkpt lat="37.5518285" lon="127.0260038"></trkpt>
   <trkpt lat="37.5518195" lon="127.026005"></trkpt>
   <trkpt lat="37.5518069" lon="127.0260074"></trkpt>
   <trkpt lat="37.5514503" lon="127.0260821"></trkpt>
   <trkpt lat="37.5513782" lon="127.0260939"></trkpt>
   <trkpt lat="37.551353" lon="127.0261031"></trkpt>
   <trkpt lat="37.5513306" lon="127.0261225"></trkpt>
   <trkpt lat="37.5512481" lon="127.0262396"></trkpt>
   <trkpt lat="37.5511576" lon="127.026359"></trkpt>
   <trkpt lat="37.5510562" lon="127.026482"></trkpt>
   <trkpt lat="37.5510014" lon="127.0265344"></trkpt>
   <trkpt lat="37.5509762" lon="127.0265459"></trkpt>
  </trkseg>
 </trk>
</gpx>
