<?xml version="1.0" encoding="UTF-8"?>
<gpx creator="daengrun-naver-route" version="1.1" xmlns="http://www.topografix.com/GPX/1/1" xmlns:xsi="http://www.w3.org/2001/XMLSchema-instance" xsi:schemaLocation="http://www.topografix.com/GPX/1/1 http://www.topografix.com/GPX/1/1/gpx.xsd">
 <metadata>
  <name>성동 남산자락숲길·금옥공원 루프 1.79km</name>
  <desc>daengrun candidate geometry — measured 1.79km via Naver pedestrian router (o=flat, 계단회피). Elevation NOT available from this source. stairs=0 crosswalk=2 steppingstone=0 underpass=0 overpass=0</desc>
  <link href="naver:kf15hv"><text>daengrun route id</text></link>
  <copyright author="NAVER Corp."><license>https://map.naver.com/</license></copyright>
 </metadata>
 <trk>
  <name>성동 남산자락숲길·금옥공원 루프 1.79km</name>
  <trkseg>
   <trkpt lat="37.5533191" lon="127.016815"></trkpt>
   <trkpt lat="37.5532995" lon="127.016643"></trkpt>
   <trkpt lat="37.553293" lon="127.0165966"></trkpt>
   <trkpt lat="37.5532847" lon="127.0165661"></trkpt>
   <trkpt lat="37.553241" lon="127.01646"></trkpt>
   <trkpt lat="37.5532028" lon="127.0163595"></trkpt>
   <trkpt lat="37.5531945" lon="127.0163222"></trkpt>
   <trkpt lat="37.5532021" lon="127.016201"></trkpt>
   <trkpt lat="37.5532062" lon="127.0161081"></trkpt>
   <trkpt lat="37.5532069" lon="127.0160447"></trkpt>
   <trkpt lat="37.5532069" lon="127.0160447"></trkpt>
   <trkpt lat="37.5531887" lon="127.0160075"></trkpt>
   <trkpt lat="37.5531833" lon="127.0160018"></trkpt>
   <trkpt lat="37.5530819" lon="127.0158916"></trkpt>
   <trkpt lat="37.5530303" lon="127.0158579"></trkpt>
   <trkpt lat="37.5529249" lon="127.0158711"></trkpt>
   <trkpt lat="37.5528842" lon="127.0158272"></trkpt>
   <trkpt lat="37.5528687" lon="127.0157888"></trkpt>
   <trkpt lat="37.5528776" lon="127.0157559"></trkpt>
   <trkpt lat="37.5529554" lon="127.0156139"></trkpt>
   <trkpt lat="37.552949" lon="127.0155777"></trkpt>
   <trkpt lat="37.5529317" lon="127.0155517"></trkpt>
   <trkpt lat="37.5529146" lon="127.0155519"></trkpt>
   <trkpt lat="37.5527912" lon="127.0155753"></trkpt>
   <trkpt lat="37.5526046" lon="127.0155652"></trkpt>
   <trkpt lat="37.5524688" lon="127.0154178"></trkpt>
   <trkpt lat="37.5524459" lon="127.0153364"></trkpt>
   <trkpt lat="37.552386" lon="127.0152315"></trkpt>
   <trkpt lat="37.55234" lon="127.0152205"></trkpt>
   <trkpt lat="37.5522293" lon="127.0152721"></trkpt>
   <trkpt lat="37.5520555" lon="127.0152959"></trkpt>
   <trkpt lat="37.5520555" lon="127.0152959"></trkpt>
   <trkpt lat="37.5522293" lon="127.0152721"></trkpt>
   <trkpt lat="37.55234" lon="127.0152205"></trkpt>
   <trkpt lat="37.552386" lon="127.0152315"></trkpt>
   <trkpt lat="37.5524459" lon="127.0153364"></trkpt>
   <trkpt lat="37.5524688" lon="127.0154178"></trkpt>
   <trkpt lat="37.5526046" lon="127.0155652"></trkpt>
   <trkpt lat="37.5527912" lon="127.0155753"></trkpt>
   <trkpt lat="37.5529146" lon="127.0155519"></trkpt>
   <trkpt lat="37.5529317" lon="127.0155517"></trkpt>
   <trkpt lat="37.552949" lon="127.0155777"></trkpt>
   <trkpt lat="37.5529554" lon="127.0156139"></trkpt>
   <trkpt lat="37.5528776" lon="127.0157559"></trkpt>
   <trkpt lat="37.5528687" lon="127.0157888"></trkpt>
   <trkpt lat="37.5528842" lon="127.0158272"></trkpt>
   <trkpt lat="37.5529249" lon="127.0158711"></trkpt>
   <trkpt lat="37.5530303" lon="127.0158579"></trkpt>
   <trkpt lat="37.5530819" lon="127.0158916"></trkpt>
   <trkpt lat="37.5531833" lon="127.0160018"></trkpt>
   <trkpt lat="37.5531887" lon="127.0160075"></trkpt>
   <trkpt lat="37.5532069" lon="127.0160447"></trkpt>
   <trkpt lat="37.5532069" lon="127.0160447"></trkpt>
   <trkpt lat="37.5532062" lon="127.0161081"></trkpt>
   <trkpt lat="37.5532021" lon="127.016201"></trkpt>
   <trkpt lat="37.5531945" lon="127.0163222"></trkpt>
   <trkpt lat="37.5532028" lon="127.0163595"></trkpt>
   <trkpt lat="37.553241" lon="127.01646"></trkpt>
   <trkpt lat="37.5532847" lon="127.0165661"></trkpt>
   <trkpt lat="37.553293" lon="127.0165966"></trkpt>
   <trkpt lat="37.5532995" lon="127.016643"></trkpt>
   <trkpt lat="37.5533228" lon="127.0168534"></trkpt>
   <trkpt lat="37.5532819" lon="127.0169749"></trkpt>
   <trkpt lat="37.553155" lon="127.0172519"></trkpt>
   <trkpt lat="37.5530305" lon="127.0174395"></trkpt>
   <trkpt lat="37.5528227" lon="127.0177533"></trkpt>
   <trkpt lat="37.5527482" lon="127.0178466"></trkpt>
   <trkpt lat="37.5527482" lon="127.0178466"></trkpt>
   <trkpt lat="37.5528114" lon="127.0178587"></trkpt>
   <trkpt lat="37.5528772" lon="127.0178583"></trkpt>
   <trkpt lat="37.5530688" lon="127.0179872"></trkpt>
   <trkpt lat="37.553085" lon="127.0179826"></trkpt>
   <trkpt lat="37.553093" lon="127.0179565"></trkpt>
   <trkpt lat="37.5531119" lon="127.0179428"></trkpt>
   <trkpt lat="37.5531209" lon="127.0179439"></trkpt>
   <trkpt lat="37.5531318" lon="127.0179619"></trkpt>
   <trkpt lat="37.5531563" lon="127.0179969"></trkpt>
   <trkpt lat="37.5531834" lon="127.0180114"></trkpt>
   <trkpt lat="37.5534826" lon="127.0177989"></trkpt>
   <trkpt lat="37.5534826" lon="127.0177989"></trkpt>
   <trkpt lat="37.5536295" lon="127.0182202"></trkpt>
   <trkpt lat="37.5536304" lon="127.0182225"></trkpt>
   <trkpt lat="37.5536487" lon="127.0182846"></trkpt>
   <trkpt lat="37.5537091" lon="127.0185062"></trkpt>
   <trkpt lat="37.5537238" lon="127.0185932"></trkpt>
   <trkpt lat="37.5537315" lon="127.0187019"></trkpt>
   <trkpt lat="37.5537533" lon="127.0189712"></trkpt>
   <trkpt lat="37.553759" lon="127.0190312"></trkpt>
   <trkpt lat="37.5537591" lon="127.0190617"></trkpt>
   <trkpt lat="37.553758" lon="127.0192248"></trkpt>
   <trkpt lat="37.5537506" lon="127.019398"></trkpt>
   <trkpt lat="37.5537506" lon="127.019398"></trkpt>
   <trkpt lat="37.5538173" lon="127.0194146"></trkpt>
   <trkpt lat="37.5540591" lon="127.0194708"></trkpt>
   <trkpt lat="37.5540961" lon="127.0194852"></trkpt>
   <trkpt lat="37.554097" lon="127.0194864"></trkpt>
   <trkpt lat="37.5545098" lon="127.0196966"></trkpt>
   <trkpt lat="37.5545098" lon="127.0196966"></trkpt>
   <trkpt lat="37.5544876" lon="127.019768"></trkpt>
   <trkpt lat="37.5544742" lon="127.0198066"></trkpt>
   <trkpt lat="37.5544742" lon="127.0198066"></trkpt>
   <trkpt lat="37.5544537" lon="127.0198577"></trkpt>
   <trkpt lat="37.5544075" lon="127.0200391"></trkpt>
   <trkpt lat="37.5544071" lon="127.0201422"></trkpt>
   <trkpt lat="37.5544071" lon="127.0201422"></trkpt>
   <trkpt lat="37.5543946" lon="127.0201807"></trkpt>
   <trkpt lat="37.5543704" lon="127.020225"></trkpt>
   <trkpt lat="37.5543202" lon="127.020291"></trkpt>
   <trkpt lat="37.5538979" lon="127.0208225"></trkpt>
   <trkpt lat="37.5536873" lon="127.021125"></trkpt>
   <trkpt lat="37.5536425" lon="127.0211954"></trkpt>
   <trkpt lat="37.5536425" lon="127.0211954"></trkpt>
   <trkpt lat="37.5536253" lon="127.0211695"></trkpt>
   <trkpt lat="37.553555" lon="127.0211779"></trkpt>
   <trkpt lat="37.5535081" lon="127.0211827"></trkpt>
   <trkpt lat="37.5533865" lon="127.0211835"></trkpt>
   <trkpt lat="37.5533865" lon="127.0211835"></trkpt>
   <trkpt lat="37.5535081" lon="127.0211827"></trkpt>
   <trkpt lat="37.553555" lon="127.0211779"></trkpt>
   <trkpt lat="37.5536253" lon="127.0211695"></trkpt>
   <trkpt lat="37.5536425" lon="127.0211954"></trkpt>
   <trkpt lat="37.5536425" lon="127.0211954"></trkpt>
   <trkpt lat="37.5536873" lon="127.021125"></trkpt>
   <trkpt lat="37.5538979" lon="127.0208225"></trkpt>
   <trkpt lat="37.5543202" lon="127.020291"></trkpt>
   <trkpt lat="37.5543704" lon="127.020225"></trkpt>
   <trkpt lat="37.5543946" lon="127.0201807"></trkpt>
   <trkpt lat="37.5544071" lon="127.0201422"></trkpt>
   <trkpt lat="37.5544071" lon="127.0201422"></trkpt>
   <trkpt lat="37.5544075" lon="127.0200391"></trkpt>
   <trkpt lat="37.5544537" lon="127.0198577"></trkpt>
   <trkpt lat="37.5544742" lon="127.0198066"></trkpt>
   <trkpt lat="37.5544742" lon="127.0198066"></trkpt>
   <trkpt lat="37.5544876" lon="127.019768"></trkpt>
   <trkpt lat="37.5545098" lon="127.0196966"></trkpt>
   <trkpt lat="37.5545098" lon="127.0196966"></trkpt>
   <trkpt lat="37.554097" lon="127.0194864"></trkpt>
   <trkpt lat="37.5540961" lon="127.0194852"></trkpt>
   <trkpt lat="37.5540591" lon="127.0194708"></trkpt>
   <trkpt lat="37.5538173" lon="127.0194146"></trkpt>
   <trkpt lat="37.5537506" lon="127.019398"></trkpt>
   <trkpt lat="37.5537506" lon="127.019398"></trkpt>
   <trkpt lat="37.553758" lon="127.0192248"></trkpt>
   <trkpt lat="37.5537591" lon="127.0190617"></trkpt>
   <trkpt lat="37.553759" lon="127.0190312"></trkpt>
   <trkpt lat="37.5537533" lon="127.0189712"></trkpt>
   <trkpt lat="37.5537315" lon="127.0187019"></trkpt>
   <trkpt lat="37.5537238" lon="127.0185932"></trkpt>
   <trkpt lat="37.5537091" lon="127.0185062"></trkpt>
   <trkpt lat="37.5536487" lon="127.0182846"></trkpt>
   <trkpt lat="37.5536304" lon="127.0182225"></trkpt>
   <trkpt lat="37.5536295" lon="127.0182202"></trkpt>
   <trkpt lat="37.5534826" lon="127.0177989"></trkpt>
   <trkpt lat="37.5534826" lon="127.0177989"></trkpt>
   <trkpt lat="37.5531834" lon="127.0180114"></trkpt>
   <trkpt lat="37.5531563" lon="127.0179969"></trkpt>
   <trkpt lat="37.5531318" lon="127.0179619"></trkpt>
   <trkpt lat="37.5531209" lon="127.0179439"></trkpt>
   <trkpt lat="37.5531119" lon="127.0179428"></trkpt>
   <trkpt lat="37.553093" lon="127.0179565"></trkpt>
   <trkpt lat="37.553085" lon="127.0179826"></trkpt>
   <trkpt lat="37.5530688" lon="127.0179872"></trkpt>
   <trkpt lat="37.5528772" lon="127.0178583"></trkpt>
   <trkpt lat="37.5528114" lon="127.0178587"></trkpt>
   <trkpt lat="37.5527482" lon="127.0178466"></trkpt>
   <trkpt lat="37.5527482" lon="127.0178466"></trkpt>
   <trkpt lat="37.5528227" lon="127.0177533"></trkpt>
   <trkpt lat="37.5530305" lon="127.0174395"></trkpt>
   <trkpt lat="37.553155" lon="127.0172519"></trkpt>
   <trkpt lat="37.5532819" lon="127.0169749"></trkpt>
   <trkpt lat="37.5533228" lon="127.0168534"></trkpt>
   <trkpt lat="37.5533191" lon="127.016815"></trkpt>
  </trkseg>
 </trk>
</gpx>
