<?xml version="1.0" encoding="UTF-8"?>
<gpx creator="daengrun-naver-route" version="1.1" xmlns="http://www.topografix.com/GPX/1/1" xmlns:xsi="http://www.w3.org/2001/XMLSchema-instance" xsi:schemaLocation="http://www.topografix.com/GPX/1/1 http://www.topografix.com/GPX/1/1/gpx.xsd">
 <metadata>
  <name>송파 폭포 루프 1.9km</name>
  <desc>daengrun candidate geometry — measured 1.90km via Naver pedestrian router (o=flat, 계단회피). Elevation NOT available from this source. stairs=0 crosswalk=0 steppingstone=0 underpass=0 overpass=0</desc>
  <link href="naver:18b4r9t"><text>daengrun route id</text></link>
  <copyright author="NAVER Corp."><license>https://map.naver.com/</license></copyright>
 </metadata>
 <trk>
  <name>송파 폭포 루프 1.9km</name>
  <trkseg>
   <trkpt lat="37.4833477" lon="127.1418656"></trkpt>
   <trkpt lat="37.4835094" lon="127.1416715"></trkpt>
   <trkpt lat="37.4835094" lon="127.1416715"></trkpt>
   <trkpt lat="37.4835483" lon="127.1417233"></trkpt>
   <trkpt lat="37.483543" lon="127.1420525"></trkpt>
   <trkpt lat="37.4835638" lon="127.1420863"></trkpt>
   <trkpt lat="37.4835882" lon="127.1421088"></trkpt>
   <trkpt lat="37.4836631" lon="127.142122"></trkpt>
   <trkpt lat="37.4836631" lon="127.142122"></trkpt>
   <trkpt lat="37.4836159" lon="127.14231"></trkpt>
   <trkpt lat="37.4835667" lon="127.1424381"></trkpt>
   <trkpt lat="37.4835461" lon="127.1424766"></trkpt>
   <trkpt lat="37.4833403" lon="127.1426812"></trkpt>
   <trkpt lat="37.4833403" lon="127.1426812"></trkpt>
   <trkpt lat="37.4833972" lon="127.1427205"></trkpt>
   <trkpt lat="37.4835473" lon="127.1428827"></trkpt>
   <trkpt lat="37.4836749" lon="127.1430438"></trkpt>
   <trkpt lat="37.4836896" lon="127.1431275"></trkpt>
   <trkpt lat="37.4836959" lon="127.1431523"></trkpt>
   <trkpt lat="37.4836959" lon="127.1431523"></trkpt>
   <trkpt lat="37.4836896" lon="127.1431275"></trkpt>
   <trkpt lat="37.4836749" lon="127.1430438"></trkpt>
   <trkpt lat="37.4835473" lon="127.1428827"></trkpt>
   <trkpt lat="37.4833972" lon="127.1427205"></trkpt>
   <trkpt lat="37.4833403" lon="127.1426812"></trkpt>
   <trkpt lat="37.4831867" lon="127.1425779"></trkpt>
   <trkpt lat="37.4830574" lon="127.1424337"></trkpt>
   <trkpt lat="37.4829957" lon="127.1423062"></trkpt>
   <trkpt lat="37.4828975" lon="127.1420114"></trkpt>
   <trkpt lat="37.4828512" lon="127.1419189"></trkpt>
   <trkpt lat="37.482805" lon="127.1418286"></trkpt>
   <trkpt lat="37.4827778" lon="127.1417835"></trkpt>
   <trkpt lat="37.4827778" lon="127.1417835"></trkpt>
   <trkpt lat="37.4825921" lon="127.1417901"></trkpt>
   <trkpt lat="37.4825336" lon="127.1418051"></trkpt>
   <trkpt lat="37.4823275" lon="127.1419203"></trkpt>
   <trkpt lat="37.4822185" lon="127.1419389"></trkpt>
   <trkpt lat="37.4819886" lon="127.141923"></trkpt>
   <trkpt lat="37.4819607" lon="127.141922"></trkpt>
   <trkpt lat="37.4815776" lon="127.1419069"></trkpt>
   <trkpt lat="37.4815776" lon="127.1419069"></trkpt>
   <trkpt lat="37.4815746" lon="127.1421309"></trkpt>
   <trkpt lat="37.4815647" lon="127.1424329"></trkpt>
   <trkpt lat="37.4815407" lon="127.1431173"></trkpt>
   <trkpt lat="37.48154" lon="127.1431886"></trkpt>
   <trkpt lat="37.4815358" lon="127.1433096"></trkpt>
   <trkpt lat="37.4815028" lon="127.1443096"></trkpt>
   <trkpt lat="37.4815011" lon="127.1443458"></trkpt>
   <trkpt lat="37.481497" lon="127.1444827"></trkpt>
   <trkpt lat="37.4814702" lon="127.1445586"></trkpt>
   <trkpt lat="37.4813937" lon="127.1446008"></trkpt>
   <trkpt lat="37.481393" lon="127.1446744"></trkpt>
   <trkpt lat="37.481393" lon="127.1446744"></trkpt>
   <trkpt lat="37.4818132" lon="127.1447153"></trkpt>
   <trkpt lat="37.4818312" lon="127.1447254"></trkpt>
   <trkpt lat="37.4818367" lon="127.1447469"></trkpt>
   <trkpt lat="37.4818321" lon="127.1449992"></trkpt>
   <trkpt lat="37.4818321" lon="127.1449992"></trkpt>
   <trkpt lat="37.4818367" lon="127.1447469"></trkpt>
   <trkpt lat="37.4818312" lon="127.1447254"></trkpt>
   <trkpt lat="37.4818132" lon="127.1447153"></trkpt>
   <trkpt lat="37.481393" lon="127.1446744"></trkpt>
   <trkpt lat="37.481393" lon="127.1446744"></trkpt>
   <trkpt lat="37.4813937" lon="127.1446008"></trkpt>
   <trkpt lat="37.4814702" lon="127.1445586"></trkpt>
   <trkpt lat="37.481497" lon="127.1444827"></trkpt>
   <trkpt lat="37.4815011" lon="127.1443458"></trkpt>
   <trkpt lat="37.4815028" lon="127.1443096"></trkpt>
   <trkpt lat="37.4815358" lon="127.1433096"></trkpt>
   <trkpt lat="37.48154" lon="127.1431886"></trkpt>
   <trkpt lat="37.4815407" lon="127.1431173"></trkpt>
   <trkpt lat="37.4815647" lon="127.1424329"></trkpt>
   <trkpt lat="37.4815746" lon="127.1421309"></trkpt>
   <trkpt lat="37.4815776" lon="127.1419069"></trkpt>
   <trkpt lat="37.4815776" lon="127.1419069"></trkpt>
   <trkpt lat="37.4819607" lon="127.141922"></trkpt>
   <trkpt lat="37.4819886" lon="127.141923"></trkpt>
   <trkpt lat="37.4819886" lon="127.141923"></trkpt>
   <trkpt lat="37.4819977" lon="127.1416493"></trkpt>
   <trkpt lat="37.4819972" lon="127.1414932"></trkpt>
   <trkpt lat="37.4819968" lon="127.1413416"></trkpt>
   <trkpt lat="37.4819787" lon="127.1410137"></trkpt>
   <trkpt lat="37.4819682" lon="127.1408215"></trkpt>
   <trkpt lat="37.4819259" lon="127.1402765"></trkpt>
   <trkpt lat="37.4819221" lon="127.1401838"></trkpt>
   <trkpt lat="37.4819156" lon="127.1401431"></trkpt>
   <trkpt lat="37.4819138" lon="127.1401295"></trkpt>
   <trkpt lat="37.4819047" lon="127.1400979"></trkpt>
   <trkpt lat="37.4818902" lon="127.1400753"></trkpt>
   <trkpt lat="37.4818144" lon="127.1400395"></trkpt>
   <trkpt lat="37.4818483" lon="127.13995"></trkpt>
   <trkpt lat="37.4818483" lon="127.13995"></trkpt>
   <trkpt lat="37.4818393" lon="127.1399523"></trkpt>
   <trkpt lat="37.4813439" lon="127.1397466"></trkpt>
   <trkpt lat="37.4812391" lon="127.1396928"></trkpt>
   <trkpt lat="37.4812391" lon="127.1396928"></trkpt>
   <trkpt lat="37.4813439" lon="127.1397466"></trkpt>
   <trkpt lat="37.4818393" lon="127.1399523"></trkpt>
   <trkpt lat="37.4818483" lon="127.13995"></trkpt>
   <trkpt lat="37.4823952" lon="127.1401543"></trkpt>
   <trkpt lat="37.4826722" lon="127.1402582"></trkpt>
   <trkpt lat="37.4828094" lon="127.1403141"></trkpt>
   <trkpt lat="37.4828554" lon="127.1403342"></trkpt>
   <trkpt lat="37.4828554" lon="127.1403342"></trkpt>
   <trkpt lat="37.482817" lon="127.1404362"></trkpt>
   <trkpt lat="37.4826549" lon="127.1407888"></trkpt>
   <trkpt lat="37.4826469" lon="127.1408284"></trkpt>
   <trkpt lat="37.4826469" lon="127.1408284"></trkpt>
   <trkpt lat="37.4826558" lon="127.141084"></trkpt>
   <trkpt lat="37.4826578" lon="127.1414357"></trkpt>
   <trkpt lat="37.4826653" lon="127.1415465"></trkpt>
   <trkpt lat="37.4826662" lon="127.1415488"></trkpt>
   <trkpt lat="37.4826854" lon="127.1416154"></trkpt>
   <trkpt lat="37.4826854" lon="127.1416154"></trkpt>
   <trkpt lat="37.4827963" lon="127.1416511"></trkpt>
   <trkpt lat="37.4827963" lon="127.1416511"></trkpt>
   <trkpt lat="37.4828867" lon="127.141438"></trkpt>
   <trkpt lat="37.4828867" lon="127.141438"></trkpt>
   <trkpt lat="37.4829958" lon="127.1414386"></trkpt>
   <trkpt lat="37.4830796" lon="127.1414405"></trkpt>
   <trkpt lat="37.4831238" lon="127.1414267"></trkpt>
   <trkpt lat="37.483176" lon="127.1414016"></trkpt>
   <trkpt lat="37.4832406" lon="127.1413323"></trkpt>
   <trkpt lat="37.4832406" lon="127.1413323"></trkpt>
   <trkpt lat="37.483332" lon="127.1414348"></trkpt>
   <trkpt lat="37.4834551" lon="127.1415993"></trkpt>
   <trkpt lat="37.4835094" lon="127.1416715"></trkpt>
   <trkpt lat="37.4835094" lon="127.1416715"></trkpt>
   <trkpt lat="37.4833468" lon="127.1418645"></trkpt>
  </trkseg>
 </trk>
</gpx>
