<?xml version="1.0" encoding="UTF-8"?>
<gpx creator="daengrun-naver-route" version="1.1" xmlns="http://www.topografix.com/GPX/1/1" xmlns:xsi="http://www.w3.org/2001/XMLSchema-instance" xsi:schemaLocation="http://www.topografix.com/GPX/1/1 http://www.topografix.com/GPX/1/1/gpx.xsd">
 <metadata>
  <name>송파 장지공원·연화 근린공원 루프 2.1km</name>
  <desc>daengrun candidate geometry — measured 2.10km via Naver pedestrian router (o=flat, 계단회피). Elevation NOT available from this source. stairs=0 crosswalk=7 steppingstone=0 underpass=0 overpass=0</desc>
  <link href="naver:1ii0wq"><text>daengrun route id</text></link>
  <copyright author="NAVER Corp."><license>https://map.naver.com/</license></copyright>
 </metadata>
 <trk>
  <name>송파 장지공원·연화 근린공원 루프 2.1km</name>
  <trkseg>
   <trkpt lat="37.4860674" lon="127.1340049"></trkpt>
   <trkpt lat="37.4860387" lon="127.1340412"></trkpt>
   <trkpt lat="37.4860866" lon="127.1340975"></trkpt>
   <trkpt lat="37.4862169" lon="127.1342598"></trkpt>
   <trkpt lat="37.4862169" lon="127.1342598"></trkpt>
   <trkpt lat="37.4861864" lon="127.1342972"></trkpt>
   <trkpt lat="37.4859333" lon="127.1346435"></trkpt>
   <trkpt lat="37.4858767" lon="127.1347207"></trkpt>
   <trkpt lat="37.4858767" lon="127.1347207"></trkpt>
   <trkpt lat="37.4859328" lon="127.1347917"></trkpt>
   <trkpt lat="37.4861202" lon="127.1350441"></trkpt>
   <trkpt lat="37.486141" lon="127.1350825"></trkpt>
   <trkpt lat="37.4862478" lon="127.1352245"></trkpt>
   <trkpt lat="37.486267" lon="127.1353047"></trkpt>
   <trkpt lat="37.486297" lon="127.1353837"></trkpt>
   <trkpt lat="37.4863713" lon="127.1355191"></trkpt>
   <trkpt lat="37.486431" lon="127.1355923"></trkpt>
   <trkpt lat="37.4865077" lon="127.1356236"></trkpt>
   <trkpt lat="37.4867278" lon="127.1356633"></trkpt>
   <trkpt lat="37.4868145" lon="127.1357059"></trkpt>
   <trkpt lat="37.4868145" lon="127.1357059"></trkpt>
   <trkpt lat="37.4867278" lon="127.1356633"></trkpt>
   <trkpt lat="37.4865077" lon="127.1356236"></trkpt>
   <trkpt lat="37.486431" lon="127.1355923"></trkpt>
   <trkpt lat="37.4863713" lon="127.1355191"></trkpt>
   <trkpt lat="37.486297" lon="127.1353837"></trkpt>
   <trkpt lat="37.486267" lon="127.1353047"></trkpt>
   <trkpt lat="37.4862478" lon="127.1352245"></trkpt>
   <trkpt lat="37.486141" lon="127.1350825"></trkpt>
   <trkpt lat="37.4861202" lon="127.1350441"></trkpt>
   <trkpt lat="37.4859328" lon="127.1347917"></trkpt>
   <trkpt lat="37.4858767" lon="127.1347207"></trkpt>
   <trkpt lat="37.4858767" lon="127.1347207"></trkpt>
   <trkpt lat="37.4859333" lon="127.1346435"></trkpt>
   <trkpt lat="37.4861864" lon="127.1342972"></trkpt>
   <trkpt lat="37.4862169" lon="127.1342598"></trkpt>
   <trkpt lat="37.4862923" lon="127.1341644"></trkpt>
   <trkpt lat="37.4863883" lon="127.1340248"></trkpt>
   <trkpt lat="37.4865364" lon="127.1338148"></trkpt>
   <trkpt lat="37.4867984" lon="127.1334312"></trkpt>
   <trkpt lat="37.4868262" lon="127.1333915"></trkpt>
   <trkpt lat="37.4868998" lon="127.1332837"></trkpt>
   <trkpt lat="37.4872973" lon="127.1326845"></trkpt>
   <trkpt lat="37.4872973" lon="127.1326845"></trkpt>
   <trkpt lat="37.4871562" lon="127.1325313"></trkpt>
   <trkpt lat="37.4871562" lon="127.1325313"></trkpt>
   <trkpt lat="37.4872746" lon="127.1323565"></trkpt>
   <trkpt lat="37.4879017" lon="127.1313931"></trkpt>
   <trkpt lat="37.4879474" lon="127.1313239"></trkpt>
   <trkpt lat="37.4879474" lon="127.1313239"></trkpt>
   <trkpt lat="37.4879707" lon="127.1312876"></trkpt>
   <trkpt lat="37.4879896" lon="127.1312603"></trkpt>
   <trkpt lat="37.4879896" lon="127.1312603"></trkpt>
   <trkpt lat="37.488082" lon="127.1311151"></trkpt>
   <trkpt lat="37.4881376" lon="127.1310289"></trkpt>
   <trkpt lat="37.4881447" lon="127.1310119"></trkpt>
   <trkpt lat="37.4881474" lon="127.1309892"></trkpt>
   <trkpt lat="37.4881474" lon="127.1309892"></trkpt>
   <trkpt lat="37.4881383" lon="127.1309644"></trkpt>
   <trkpt lat="37.4881175" lon="127.1309373"></trkpt>
   <trkpt lat="37.4880858" lon="127.1309002"></trkpt>
   <trkpt lat="37.4876244" lon="127.1303549"></trkpt>
   <trkpt lat="37.4872607" lon="127.1299292"></trkpt>
   <trkpt lat="37.4872489" lon="127.1299134"></trkpt>
   <trkpt lat="37.4872019" lon="127.129848"></trkpt>
   <trkpt lat="37.4871421" lon="127.1297601"></trkpt>
   <trkpt lat="37.4870289" lon="127.1296011"></trkpt>
   <trkpt lat="37.4868341" lon="127.1292763"></trkpt>
   <trkpt lat="37.4866173" lon="127.1288193"></trkpt>
   <trkpt lat="37.4865936" lon="127.1287583"></trkpt>
   <trkpt lat="37.4865936" lon="127.1287583"></trkpt>
   <trkpt lat="37.486502" lon="127.1288402"></trkpt>
   <trkpt lat="37.4863249" lon="127.1289995"></trkpt>
   <trkpt lat="37.486011" lon="127.1292125"></trkpt>
   <trkpt lat="37.4857655" lon="127.129397"></trkpt>
   <trkpt lat="37.4857655" lon="127.129397"></trkpt>
   <trkpt lat="37.485758" lon="127.1293246"></trkpt>
   <trkpt lat="37.485685" lon="127.1293069"></trkpt>
   <trkpt lat="37.4855369" lon="127.1292205"></trkpt>
   <trkpt lat="37.4851396" lon="127.1289895"></trkpt>
   <trkpt lat="37.4851277" lon="127.1289488"></trkpt>
   <trkpt lat="37.4851347" lon="127.1288764"></trkpt>
   <trkpt lat="37.4851347" lon="127.1288753"></trkpt>
   <trkpt lat="37.4851347" lon="127.1288753"></trkpt>
   <trkpt lat="37.4851347" lon="127.1288764"></trkpt>
   <trkpt lat="37.4851277" lon="127.1289488"></trkpt>
   <trkpt lat="37.4851396" lon="127.1289895"></trkpt>
   <trkpt lat="37.4855369" lon="127.1292205"></trkpt>
   <trkpt lat="37.485685" lon="127.1293069"></trkpt>
   <trkpt lat="37.485758" lon="127.1293246"></trkpt>
   <trkpt lat="37.4857655" lon="127.129397"></trkpt>
   <trkpt lat="37.4857655" lon="127.129397"></trkpt>
   <trkpt lat="37.486011" lon="127.1292125"></trkpt>
   <trkpt lat="37.4863249" lon="127.1289995"></trkpt>
   <trkpt lat="37.486502" lon="127.1288402"></trkpt>
   <trkpt lat="37.4865936" lon="127.1287583"></trkpt>
   <trkpt lat="37.4865936" lon="127.1287583"></trkpt>
   <trkpt lat="37.4866173" lon="127.1288193"></trkpt>
   <trkpt lat="37.4868341" lon="127.1292763"></trkpt>
   <trkpt lat="37.4870289" lon="127.1296011"></trkpt>
   <trkpt lat="37.4871421" lon="127.1297601"></trkpt>
   <trkpt lat="37.4872019" lon="127.129848"></trkpt>
   <trkpt lat="37.4872489" lon="127.1299134"></trkpt>
   <trkpt lat="37.4872607" lon="127.1299292"></trkpt>
   <trkpt lat="37.4876244" lon="127.1303549"></trkpt>
   <trkpt lat="37.4880858" lon="127.1309002"></trkpt>
   <trkpt lat="37.4881175" lon="127.1309373"></trkpt>
   <trkpt lat="37.4881383" lon="127.1309644"></trkpt>
   <trkpt lat="37.4881474" lon="127.1309892"></trkpt>
   <trkpt lat="37.4881474" lon="127.1309892"></trkpt>
   <trkpt lat="37.4881447" lon="127.1310119"></trkpt>
   <trkpt lat="37.4881376" lon="127.1310289"></trkpt>
   <trkpt lat="37.488082" lon="127.1311151"></trkpt>
   <trkpt lat="37.4879896" lon="127.1312603"></trkpt>
   <trkpt lat="37.4879896" lon="127.1312603"></trkpt>
   <trkpt lat="37.4879707" lon="127.1312876"></trkpt>
   <trkpt lat="37.4879474" lon="127.1313239"></trkpt>
   <trkpt lat="37.4879474" lon="127.1313239"></trkpt>
   <trkpt lat="37.4879017" lon="127.1313931"></trkpt>
   <trkpt lat="37.4872746" lon="127.1323565"></trkpt>
   <trkpt lat="37.4871562" lon="127.1325313"></trkpt>
   <trkpt lat="37.4868394" lon="127.1329808"></trkpt>
   <trkpt lat="37.4868061" lon="127.1330138"></trkpt>
   <trkpt lat="37.4867736" lon="127.1330015"></trkpt>
   <trkpt lat="37.4867565" lon="127.1329835"></trkpt>
   <trkpt lat="37.4867565" lon="127.1329835"></trkpt>
   <trkpt lat="37.4866596" lon="127.1331276"></trkpt>
   <trkpt lat="37.4866596" lon="127.1331276"></trkpt>
   <trkpt lat="37.4866777" lon="127.1331479"></trkpt>
   <trkpt lat="37.4866877" lon="127.1331852"></trkpt>
   <trkpt lat="37.4866824" lon="127.1332135"></trkpt>
   <trkpt lat="37.4866429" lon="127.1332759"></trkpt>
   <trkpt lat="37.4863773" lon="127.1336742"></trkpt>
   <trkpt lat="37.4862571" lon="127.1338592"></trkpt>
   <trkpt lat="37.4862265" lon="127.1338831"></trkpt>
   <trkpt lat="37.4861932" lon="127.1338877"></trkpt>
   <trkpt lat="37.4861761" lon="127.1338833"></trkpt>
   <trkpt lat="37.4861643" lon="127.1338766"></trkpt>
   <trkpt lat="37.4861643" lon="127.1338766"></trkpt>
   <trkpt lat="37.4860674" lon="127.1340049"></trkpt>
  </trkseg>
 </trk>
</gpx>
