<?xml version="1.0" encoding="UTF-8"?>
<gpx creator="daengrun-naver-route" version="1.1" xmlns="http://www.topografix.com/GPX/1/1" xmlns:xsi="http://www.w3.org/2001/XMLSchema-instance" xsi:schemaLocation="http://www.topografix.com/GPX/1/1 http://www.topografix.com/GPX/1/1/gpx.xsd">
 <metadata>
  <name>송파 장지천·능안공원 루프 2.78km</name>
  <desc>daengrun candidate geometry — measured 2.78km via Naver pedestrian router (o=flat, 계단회피). Elevation NOT available from this source. stairs=0 crosswalk=2 steppingstone=0 underpass=0 overpass=0</desc>
  <link href="naver:r6a75f"><text>daengrun route id</text></link>
  <copyright author="NAVER Corp."><license>https://map.naver.com/</license></copyright>
 </metadata>
 <trk>
  <name>송파 장지천·능안공원 루프 2.78km</name>
  <trkseg>
   <trkpt lat="37.4833477" lon="127.1418656"></trkpt>
   <trkpt lat="37.4835094" lon="127.1416715"></trkpt>
   <trkpt lat="37.4835094" lon="127.1416715"></trkpt>
   <trkpt lat="37.4834551" lon="127.1415993"></trkpt>
   <trkpt lat="37.483332" lon="127.1414348"></trkpt>
   <trkpt lat="37.4832406" lon="127.1413323"></trkpt>
   <trkpt lat="37.4832406" lon="127.1413323"></trkpt>
   <trkpt lat="37.483176" lon="127.1414016"></trkpt>
   <trkpt lat="37.4831238" lon="127.1414267"></trkpt>
   <trkpt lat="37.4830796" lon="127.1414405"></trkpt>
   <trkpt lat="37.4829958" lon="127.1414386"></trkpt>
   <trkpt lat="37.4828867" lon="127.141438"></trkpt>
   <trkpt lat="37.4828867" lon="127.141438"></trkpt>
   <trkpt lat="37.4827963" lon="127.1416511"></trkpt>
   <trkpt lat="37.4827963" lon="127.1416511"></trkpt>
   <trkpt lat="37.4826854" lon="127.1416154"></trkpt>
   <trkpt lat="37.4826854" lon="127.1416154"></trkpt>
   <trkpt lat="37.4826917" lon="127.141638"></trkpt>
   <trkpt lat="37.4827778" lon="127.1417835"></trkpt>
   <trkpt lat="37.4827778" lon="127.1417835"></trkpt>
   <trkpt lat="37.4825921" lon="127.1417901"></trkpt>
   <trkpt lat="37.4825336" lon="127.1418051"></trkpt>
   <trkpt lat="37.4823275" lon="127.1419203"></trkpt>
   <trkpt lat="37.4823275" lon="127.1419203"></trkpt>
   <trkpt lat="37.4823439" lon="127.1419519"></trkpt>
   <trkpt lat="37.4823486" lon="127.1420152"></trkpt>
   <trkpt lat="37.4823389" lon="127.1420831"></trkpt>
   <trkpt lat="37.4823083" lon="127.1421206"></trkpt>
   <trkpt lat="37.4821996" lon="127.142224"></trkpt>
   <trkpt lat="37.4820968" lon="127.1425107"></trkpt>
   <trkpt lat="37.4820613" lon="127.1427156"></trkpt>
   <trkpt lat="37.4820521" lon="127.1429226"></trkpt>
   <trkpt lat="37.4820268" lon="127.1432089"></trkpt>
   <trkpt lat="37.4819212" lon="127.1434707"></trkpt>
   <trkpt lat="37.4818409" lon="127.1437301"></trkpt>
   <trkpt lat="37.4818011" lon="127.1439791"></trkpt>
   <trkpt lat="37.4818352" lon="127.1442266"></trkpt>
   <trkpt lat="37.4819477" lon="127.1444749"></trkpt>
   <trkpt lat="37.4820699" lon="127.1446598"></trkpt>
   <trkpt lat="37.4822092" lon="127.1448209"></trkpt>
   <trkpt lat="37.4822092" lon="127.1448209"></trkpt>
   <trkpt lat="37.4820699" lon="127.1446598"></trkpt>
   <trkpt lat="37.4819477" lon="127.1444749"></trkpt>
   <trkpt lat="37.4818352" lon="127.1442266"></trkpt>
   <trkpt lat="37.4818011" lon="127.1439791"></trkpt>
   <trkpt lat="37.4818409" lon="127.1437301"></trkpt>
   <trkpt lat="37.4819212" lon="127.1434707"></trkpt>
   <trkpt lat="37.4820268" lon="127.1432089"></trkpt>
   <trkpt lat="37.4820268" lon="127.1432089"></trkpt>
   <trkpt lat="37.481933" lon="127.1432059"></trkpt>
   <trkpt lat="37.481933" lon="127.1432059"></trkpt>
   <trkpt lat="37.4819479" lon="127.1430566"></trkpt>
   <trkpt lat="37.4819886" lon="127.141923"></trkpt>
   <trkpt lat="37.4819977" lon="127.1416493"></trkpt>
   <trkpt lat="37.4819972" lon="127.1414932"></trkpt>
   <trkpt lat="37.4819968" lon="127.1413416"></trkpt>
   <trkpt lat="37.4819787" lon="127.1410137"></trkpt>
   <trkpt lat="37.4819682" lon="127.1408215"></trkpt>
   <trkpt lat="37.4819259" lon="127.1402765"></trkpt>
   <trkpt lat="37.4819221" lon="127.1401838"></trkpt>
   <trkpt lat="37.4819156" lon="127.1401431"></trkpt>
   <trkpt lat="37.4819138" lon="127.1401295"></trkpt>
   <trkpt lat="37.4819047" lon="127.1400979"></trkpt>
   <trkpt lat="37.4818902" lon="127.1400753"></trkpt>
   <trkpt lat="37.4818144" lon="127.1400395"></trkpt>
   <trkpt lat="37.4818144" lon="127.1400395"></trkpt>
   <trkpt lat="37.4818483" lon="127.13995"></trkpt>
   <trkpt lat="37.4823952" lon="127.1401543"></trkpt>
   <trkpt lat="37.4826722" lon="127.1402582"></trkpt>
   <trkpt lat="37.4828094" lon="127.1403141"></trkpt>
   <trkpt lat="37.4828554" lon="127.1403342"></trkpt>
   <trkpt lat="37.4832688" lon="127.1405121"></trkpt>
   <trkpt lat="37.4850486" lon="127.1412773"></trkpt>
   <trkpt lat="37.4850486" lon="127.1412773"></trkpt>
   <trkpt lat="37.4852895" lon="127.1413428"></trkpt>
   <trkpt lat="37.4853936" lon="127.1415109"></trkpt>
   <trkpt lat="37.4853936" lon="127.1415109"></trkpt>
   <trkpt lat="37.4854359" lon="127.1414756"></trkpt>
   <trkpt lat="37.4854818" lon="127.1414607"></trkpt>
   <trkpt lat="37.4855521" lon="127.1414649"></trkpt>
   <trkpt lat="37.4856396" lon="127.1414826"></trkpt>
   <trkpt lat="37.4860106" lon="127.1416346"></trkpt>
   <trkpt lat="37.4862064" lon="127.1417163"></trkpt>
   <trkpt lat="37.486358" lon="127.1417778"></trkpt>
   <trkpt lat="37.4867055" lon="127.1419345"></trkpt>
   <trkpt lat="37.4868337" lon="127.1419859"></trkpt>
   <trkpt lat="37.4868634" lon="127.1419982"></trkpt>
   <trkpt lat="37.4882397" lon="127.1425527"></trkpt>
   <trkpt lat="37.488561" lon="127.1426846"></trkpt>
   <trkpt lat="37.4889229" lon="127.1428254"></trkpt>
   <trkpt lat="37.4889989" lon="127.1429314"></trkpt>
   <trkpt lat="37.4890054" lon="127.1429958"></trkpt>
   <trkpt lat="37.4889992" lon="127.1430445"></trkpt>
   <trkpt lat="37.4889741" lon="127.143091"></trkpt>
   <trkpt lat="37.4889094" lon="127.1431501"></trkpt>
   <trkpt lat="37.488816" lon="127.1432614"></trkpt>
   <trkpt lat="37.4887883" lon="127.1433294"></trkpt>
   <trkpt lat="37.4887883" lon="127.1433294"></trkpt>
   <trkpt lat="37.4886937" lon="127.1433412"></trkpt>
   <trkpt lat="37.4886397" lon="127.1433901"></trkpt>
   <trkpt lat="37.488533" lon="127.1435716"></trkpt>
   <trkpt lat="37.4883642" lon="127.1437749"></trkpt>
   <trkpt lat="37.4882815" lon="127.1438522"></trkpt>
   <trkpt lat="37.4882815" lon="127.1438522"></trkpt>
   <trkpt lat="37.4883642" lon="127.1437749"></trkpt>
   <trkpt lat="37.488533" lon="127.1435716"></trkpt>
   <trkpt lat="37.4886397" lon="127.1433901"></trkpt>
   <trkpt lat="37.4886937" lon="127.1433412"></trkpt>
   <trkpt lat="37.4887883" lon="127.1433294"></trkpt>
   <trkpt lat="37.4887883" lon="127.1433294"></trkpt>
   <trkpt lat="37.488816" lon="127.1432614"></trkpt>
   <trkpt lat="37.4889094" lon="127.1431501"></trkpt>
   <trkpt lat="37.4889741" lon="127.143091"></trkpt>
   <trkpt lat="37.4889992" lon="127.1430445"></trkpt>
   <trkpt lat="37.4890054" lon="127.1429958"></trkpt>
   <trkpt lat="37.4889989" lon="127.1429314"></trkpt>
   <trkpt lat="37.4889229" lon="127.1428254"></trkpt>
   <trkpt lat="37.488561" lon="127.1426846"></trkpt>
   <trkpt lat="37.4882397" lon="127.1425527"></trkpt>
   <trkpt lat="37.4868634" lon="127.1419982"></trkpt>
   <trkpt lat="37.4868337" lon="127.1419859"></trkpt>
   <trkpt lat="37.4867055" lon="127.1419345"></trkpt>
   <trkpt lat="37.486358" lon="127.1417778"></trkpt>
   <trkpt lat="37.4862064" lon="127.1417163"></trkpt>
   <trkpt lat="37.4860106" lon="127.1416346"></trkpt>
   <trkpt lat="37.4856396" lon="127.1414826"></trkpt>
   <trkpt lat="37.4855521" lon="127.1414649"></trkpt>
   <trkpt lat="37.4854818" lon="127.1414607"></trkpt>
   <trkpt lat="37.4854359" lon="127.1414756"></trkpt>
   <trkpt lat="37.4853936" lon="127.1415109"></trkpt>
   <trkpt lat="37.4853936" lon="127.1415109"></trkpt>
   <trkpt lat="37.4852895" lon="127.1413428"></trkpt>
   <trkpt lat="37.4850486" lon="127.1412773"></trkpt>
   <trkpt lat="37.4850486" lon="127.1412773"></trkpt>
   <trkpt lat="37.4850377" lon="127.1415363"></trkpt>
   <trkpt lat="37.4850377" lon="127.1415363"></trkpt>
   <trkpt lat="37.4849519" lon="127.1414972"></trkpt>
   <trkpt lat="37.4847506" lon="127.1413952"></trkpt>
   <trkpt lat="37.4846577" lon="127.1413787"></trkpt>
   <trkpt lat="37.4845124" lon="127.1413194"></trkpt>
   <trkpt lat="37.4844258" lon="127.1412859"></trkpt>
   <trkpt lat="37.4843843" lon="127.1412737"></trkpt>
   <trkpt lat="37.4840865" lon="127.141145"></trkpt>
   <trkpt lat="37.4840865" lon="127.141145"></trkpt>
   <trkpt lat="37.4840722" lon="127.1412107"></trkpt>
   <trkpt lat="37.4840411" lon="127.1413443"></trkpt>
   <trkpt lat="37.4839041" lon="127.141639"></trkpt>
   <trkpt lat="37.4839041" lon="127.141639"></trkpt>
   <trkpt lat="37.4838625" lon="127.1416008"></trkpt>
   <trkpt lat="37.4838228" lon="127.141593"></trkpt>
   <trkpt lat="37.4835483" lon="127.1417233"></trkpt>
   <trkpt lat="37.4835094" lon="127.1416715"></trkpt>
   <trkpt lat="37.4833468" lon="127.1418645"></trkpt>
  </trkseg>
 </trk>
</gpx>
