<?xml version="1.0" encoding="UTF-8"?>
<gpx creator="daengrun-naver-route" version="1.1" xmlns="http://www.topografix.com/GPX/1/1" xmlns:xsi="http://www.w3.org/2001/XMLSchema-instance" xsi:schemaLocation="http://www.topografix.com/GPX/1/1 http://www.topografix.com/GPX/1/1/gpx.xsd">
 <metadata>
  <name>송파 정원으로 교감하는 ·송이공원 루프 2.35km</name>
  <desc>daengrun candidate geometry — measured 2.35km via Naver pedestrian router (o=flat, 계단회피). Elevation NOT available from this source. stairs=0 crosswalk=2 steppingstone=0 underpass=2 overpass=0</desc>
  <link href="naver:e7gd74"><text>daengrun route id</text></link>
  <copyright author="NAVER Corp."><license>https://map.naver.com/</license></copyright>
 </metadata>
 <trk>
  <name>송파 정원으로 교감하는 ·송이공원 루프 2.35km</name>
  <trkseg>
   <trkpt lat="37.4994432" lon="127.1143279"></trkpt>
   <trkpt lat="37.4995127" lon="127.1140662"></trkpt>
   <trkpt lat="37.4995127" lon="127.1140662"></trkpt>
   <trkpt lat="37.4991449" lon="127.1135058"></trkpt>
   <trkpt lat="37.4991449" lon="127.1135058"></trkpt>
   <trkpt lat="37.4991957" lon="127.1133472"></trkpt>
   <trkpt lat="37.4992629" lon="127.1132066"></trkpt>
   <trkpt lat="37.4993445" lon="127.1130919"></trkpt>
   <trkpt lat="37.499393" lon="127.1130396"></trkpt>
   <trkpt lat="37.499393" lon="127.1130396"></trkpt>
   <trkpt lat="37.4993622" lon="127.1129741"></trkpt>
   <trkpt lat="37.4993159" lon="127.1128793"></trkpt>
   <trkpt lat="37.4993159" lon="127.1128793"></trkpt>
   <trkpt lat="37.4993707" lon="127.1128293"></trkpt>
   <trkpt lat="37.499439" lon="127.1127633"></trkpt>
   <trkpt lat="37.4994722" lon="127.112736"></trkpt>
   <trkpt lat="37.4994983" lon="127.1127121"></trkpt>
   <trkpt lat="37.4994983" lon="127.1127121"></trkpt>
   <trkpt lat="37.4995273" lon="127.1127617"></trkpt>
   <trkpt lat="37.4995606" lon="127.1127299"></trkpt>
   <trkpt lat="37.4994264" lon="127.112502"></trkpt>
   <trkpt lat="37.4992723" lon="127.1122415"></trkpt>
   <trkpt lat="37.4993245" lon="127.112196"></trkpt>
   <trkpt lat="37.4992918" lon="127.1121384"></trkpt>
   <trkpt lat="37.4993188" lon="127.1121123"></trkpt>
   <trkpt lat="37.4993424" lon="127.1121563"></trkpt>
   <trkpt lat="37.4993424" lon="127.1121563"></trkpt>
   <trkpt lat="37.4993091" lon="127.1121768"></trkpt>
   <trkpt lat="37.4992506" lon="127.1122122"></trkpt>
   <trkpt lat="37.4992038" lon="127.1122271"></trkpt>
   <trkpt lat="37.4992038" lon="127.1122271"></trkpt>
   <trkpt lat="37.4991442" lon="127.1121935"></trkpt>
   <trkpt lat="37.49908" lon="127.1121441"></trkpt>
   <trkpt lat="37.4989307" lon="127.1119627"></trkpt>
   <trkpt lat="37.498897" lon="127.1118531"></trkpt>
   <trkpt lat="37.4986936" lon="127.1116675"></trkpt>
   <trkpt lat="37.4986644" lon="127.1115738"></trkpt>
   <trkpt lat="37.4986644" lon="127.1115738"></trkpt>
   <trkpt lat="37.4984314" lon="127.1116983"></trkpt>
   <trkpt lat="37.4983251" lon="127.1117294"></trkpt>
   <trkpt lat="37.4983251" lon="127.1117294"></trkpt>
   <trkpt lat="37.4982431" lon="127.1114719"></trkpt>
   <trkpt lat="37.4982431" lon="127.1114719"></trkpt>
   <trkpt lat="37.4983251" lon="127.1117294"></trkpt>
   <trkpt lat="37.4983251" lon="127.1117294"></trkpt>
   <trkpt lat="37.4984314" lon="127.1116983"></trkpt>
   <trkpt lat="37.4986644" lon="127.1115738"></trkpt>
   <trkpt lat="37.4986644" lon="127.1115738"></trkpt>
   <trkpt lat="37.4986936" lon="127.1116675"></trkpt>
   <trkpt lat="37.498897" lon="127.1118531"></trkpt>
   <trkpt lat="37.4989307" lon="127.1119627"></trkpt>
   <trkpt lat="37.49908" lon="127.1121441"></trkpt>
   <trkpt lat="37.4991442" lon="127.1121935"></trkpt>
   <trkpt lat="37.4992038" lon="127.1122271"></trkpt>
   <trkpt lat="37.4992038" lon="127.1122271"></trkpt>
   <trkpt lat="37.4992506" lon="127.1122122"></trkpt>
   <trkpt lat="37.4993091" lon="127.1121768"></trkpt>
   <trkpt lat="37.4993424" lon="127.1121563"></trkpt>
   <trkpt lat="37.4993424" lon="127.1121563"></trkpt>
   <trkpt lat="37.4993188" lon="127.1121123"></trkpt>
   <trkpt lat="37.4992918" lon="127.1121384"></trkpt>
   <trkpt lat="37.4993245" lon="127.112196"></trkpt>
   <trkpt lat="37.4992723" lon="127.1122415"></trkpt>
   <trkpt lat="37.4994264" lon="127.112502"></trkpt>
   <trkpt lat="37.4995606" lon="127.1127299"></trkpt>
   <trkpt lat="37.4995273" lon="127.1127617"></trkpt>
   <trkpt lat="37.4994983" lon="127.1127121"></trkpt>
   <trkpt lat="37.4994983" lon="127.1127121"></trkpt>
   <trkpt lat="37.4994722" lon="127.112736"></trkpt>
   <trkpt lat="37.499439" lon="127.1127633"></trkpt>
   <trkpt lat="37.4993707" lon="127.1128293"></trkpt>
   <trkpt lat="37.4993159" lon="127.1128793"></trkpt>
   <trkpt lat="37.4986061" lon="127.1135708"></trkpt>
   <trkpt lat="37.4985424" lon="127.1136594"></trkpt>
   <trkpt lat="37.4984537" lon="127.1138352"></trkpt>
   <trkpt lat="37.4984028" lon="127.1139724"></trkpt>
   <trkpt lat="37.4983478" lon="127.1142521"></trkpt>
   <trkpt lat="37.4983478" lon="127.1142521"></trkpt>
   <trkpt lat="37.4983498" lon="127.1143087"></trkpt>
   <trkpt lat="37.4983759" lon="127.1145789"></trkpt>
   <trkpt lat="37.4984107" lon="127.1147315"></trkpt>
   <trkpt lat="37.4984534" lon="127.1148568"></trkpt>
   <trkpt lat="37.4985079" lon="127.1149742"></trkpt>
   <trkpt lat="37.4986757" lon="127.1152833"></trkpt>
   <trkpt lat="37.4987419" lon="127.1154119"></trkpt>
   <trkpt lat="37.498897" lon="127.1157121"></trkpt>
   <trkpt lat="37.4992" lon="127.1163011"></trkpt>
   <trkpt lat="37.4996915" lon="127.1172387"></trkpt>
   <trkpt lat="37.4997595" lon="127.1173639"></trkpt>
   <trkpt lat="37.4998484" lon="127.1175253"></trkpt>
   <trkpt lat="37.4999997" lon="127.1177756"></trkpt>
   <trkpt lat="37.5003398" lon="127.1184222"></trkpt>
   <trkpt lat="37.500376" lon="127.1184706"></trkpt>
   <trkpt lat="37.5003986" lon="127.118483"></trkpt>
   <trkpt lat="37.5004194" lon="127.1184863"></trkpt>
   <trkpt lat="37.5004698" lon="127.1184747"></trkpt>
   <trkpt lat="37.5004932" lon="127.1184599"></trkpt>
   <trkpt lat="37.5004932" lon="127.1184599"></trkpt>
   <trkpt lat="37.5005395" lon="127.1185603"></trkpt>
   <trkpt lat="37.5005821" lon="127.1186416"></trkpt>
   <trkpt lat="37.5005821" lon="127.1186416"></trkpt>
   <trkpt lat="37.5005588" lon="127.1186847"></trkpt>
   <trkpt lat="37.5005508" lon="127.118722"></trkpt>
   <trkpt lat="37.5005509" lon="127.1187515"></trkpt>
   <trkpt lat="37.5005527" lon="127.1187582"></trkpt>
   <trkpt lat="37.5005619" lon="127.1187978"></trkpt>
   <trkpt lat="37.5009223" lon="127.1193243"></trkpt>
   <trkpt lat="37.5011469" lon="127.1196535"></trkpt>
   <trkpt lat="37.5011469" lon="127.1196535"></trkpt>
   <trkpt lat="37.5012493" lon="127.1195534"></trkpt>
   <trkpt lat="37.5015352" lon="127.1192974"></trkpt>
   <trkpt lat="37.5014971" lon="127.1192218"></trkpt>
   <trkpt lat="37.5015419" lon="127.1191582"></trkpt>
   <trkpt lat="37.501566" lon="127.1190642"></trkpt>
   <trkpt lat="37.501566" lon="127.1190642"></trkpt>
   <trkpt lat="37.5013115" lon="127.1189829"></trkpt>
   <trkpt lat="37.5013115" lon="127.1189829"></trkpt>
   <trkpt lat="37.501566" lon="127.1190642"></trkpt>
   <trkpt lat="37.501566" lon="127.1190642"></trkpt>
   <trkpt lat="37.5015419" lon="127.1191582"></trkpt>
   <trkpt lat="37.5014971" lon="127.1192218"></trkpt>
   <trkpt lat="37.5015352" lon="127.1192974"></trkpt>
   <trkpt lat="37.5012493" lon="127.1195534"></trkpt>
   <trkpt lat="37.5011469" lon="127.1196535"></trkpt>
   <trkpt lat="37.5011469" lon="127.1196535"></trkpt>
   <trkpt lat="37.5009223" lon="127.1193243"></trkpt>
   <trkpt lat="37.5005619" lon="127.1187978"></trkpt>
   <trkpt lat="37.5005527" lon="127.1187582"></trkpt>
   <trkpt lat="37.5005509" lon="127.1187515"></trkpt>
   <trkpt lat="37.5005508" lon="127.118722"></trkpt>
   <trkpt lat="37.5005588" lon="127.1186847"></trkpt>
   <trkpt lat="37.5005821" lon="127.1186416"></trkpt>
   <trkpt lat="37.5005821" lon="127.1186416"></trkpt>
   <trkpt lat="37.5005395" lon="127.1185603"></trkpt>
   <trkpt lat="37.5004932" lon="127.1184599"></trkpt>
   <trkpt lat="37.5004932" lon="127.1184599"></trkpt>
   <trkpt lat="37.5004698" lon="127.1184747"></trkpt>
   <trkpt lat="37.5004194" lon="127.1184863"></trkpt>
   <trkpt lat="37.5003986" lon="127.118483"></trkpt>
   <trkpt lat="37.500376" lon="127.1184706"></trkpt>
   <trkpt lat="37.5003398" lon="127.1184222"></trkpt>
   <trkpt lat="37.4999997" lon="127.1177756"></trkpt>
   <trkpt lat="37.4998484" lon="127.1175253"></trkpt>
   <trkpt lat="37.4997595" lon="127.1173639"></trkpt>
   <trkpt lat="37.4996915" lon="127.1172387"></trkpt>
   <trkpt lat="37.4992" lon="127.1163011"></trkpt>
   <trkpt lat="37.498897" lon="127.1157121"></trkpt>
   <trkpt lat="37.4987419" lon="127.1154119"></trkpt>
   <trkpt lat="37.4987419" lon="127.1154119"></trkpt>
   <trkpt lat="37.4988029" lon="127.1153222"></trkpt>
   <trkpt lat="37.4988243" lon="127.1152577"></trkpt>
   <trkpt lat="37.4988356" lon="127.1151332"></trkpt>
   <trkpt lat="37.4988371" lon="127.1150426"></trkpt>
   <trkpt lat="37.4988213" lon="127.1149024"></trkpt>
   <trkpt lat="37.4988406" lon="127.1147168"></trkpt>
   <trkpt lat="37.4988406" lon="127.1147168"></trkpt>
   <trkpt lat="37.4990245" lon="127.1147419"></trkpt>
   <trkpt lat="37.4990245" lon="127.1147419"></trkpt>
   <trkpt lat="37.4990219" lon="127.1147826"></trkpt>
   <trkpt lat="37.4992438" lon="127.1150869"></trkpt>
   <trkpt lat="37.4992438" lon="127.1150869"></trkpt>
   <trkpt lat="37.4994432" lon="127.1143279"></trkpt>
  </trkseg>
 </trk>
</gpx>
