<?xml version="1.0" encoding="UTF-8"?>
<gpx creator="daengrun-naver-route" version="1.1" xmlns="http://www.topografix.com/GPX/1/1" xmlns:xsi="http://www.w3.org/2001/XMLSchema-instance" xsi:schemaLocation="http://www.topografix.com/GPX/1/1 http://www.topografix.com/GPX/1/1/gpx.xsd">
 <metadata>
  <name>송파 위례별근린공원·장지천 루프 3.33km</name>
  <desc>daengrun candidate geometry — measured 3.33km via Naver pedestrian router (o=flat, 계단회피). Elevation NOT available from this source. stairs=0 crosswalk=4 steppingstone=0 underpass=0 overpass=0</desc>
  <link href="naver:zn5jln"><text>daengrun route id</text></link>
  <copyright author="NAVER Corp."><license>https://map.naver.com/</license></copyright>
 </metadata>
 <trk>
  <name>송파 위례별근린공원·장지천 루프 3.33km</name>
  <trkseg>
   <trkpt lat="37.4753319" lon="127.1398026"></trkpt>
   <trkpt lat="37.4753347" lon="127.139815"></trkpt>
   <trkpt lat="37.4753657" lon="127.1399279"></trkpt>
   <trkpt lat="37.4753657" lon="127.1399279"></trkpt>
   <trkpt lat="37.4753298" lon="127.1399847"></trkpt>
   <trkpt lat="37.4753235" lon="127.1402833"></trkpt>
   <trkpt lat="37.4754144" lon="127.1405475"></trkpt>
   <trkpt lat="37.4754145" lon="127.1405927"></trkpt>
   <trkpt lat="37.4754104" lon="127.1407058"></trkpt>
   <trkpt lat="37.4754104" lon="127.1407058"></trkpt>
   <trkpt lat="37.4755565" lon="127.1407311"></trkpt>
   <trkpt lat="37.4756873" lon="127.1407599"></trkpt>
   <trkpt lat="37.4759273" lon="127.1408617"></trkpt>
   <trkpt lat="37.4759806" lon="127.1408976"></trkpt>
   <trkpt lat="37.4765686" lon="127.1412986"></trkpt>
   <trkpt lat="37.4766716" lon="127.1413682"></trkpt>
   <trkpt lat="37.4767393" lon="127.1414109"></trkpt>
   <trkpt lat="37.4769081" lon="127.1414824"></trkpt>
   <trkpt lat="37.4771705" lon="127.1415038"></trkpt>
   <trkpt lat="37.4774572" lon="127.1415262"></trkpt>
   <trkpt lat="37.4774968" lon="127.1415305"></trkpt>
   <trkpt lat="37.4781225" lon="127.1415807"></trkpt>
   <trkpt lat="37.4781225" lon="127.1415807"></trkpt>
   <trkpt lat="37.4781125" lon="127.1418454"></trkpt>
   <trkpt lat="37.4781125" lon="127.1418454"></trkpt>
   <trkpt lat="37.4781369" lon="127.1418566"></trkpt>
   <trkpt lat="37.4781595" lon="127.1418768"></trkpt>
   <trkpt lat="37.4781695" lon="127.1419017"></trkpt>
   <trkpt lat="37.4781705" lon="127.1419277"></trkpt>
   <trkpt lat="37.4781392" lon="127.1428982"></trkpt>
   <trkpt lat="37.4781375" lon="127.1429367"></trkpt>
   <trkpt lat="37.4781316" lon="127.1430917"></trkpt>
   <trkpt lat="37.47813" lon="127.1431392"></trkpt>
   <trkpt lat="37.4780968" lon="127.1440951"></trkpt>
   <trkpt lat="37.4780861" lon="127.1441313"></trkpt>
   <trkpt lat="37.4780681" lon="127.1441574"></trkpt>
   <trkpt lat="37.4780475" lon="127.1441778"></trkpt>
   <trkpt lat="37.4780169" lon="127.1441916"></trkpt>
   <trkpt lat="37.4780169" lon="127.1441916"></trkpt>
   <trkpt lat="37.478013" lon="127.1444099"></trkpt>
   <trkpt lat="37.478013" lon="127.1444099"></trkpt>
   <trkpt lat="37.4780455" lon="127.1444131"></trkpt>
   <trkpt lat="37.478068" lon="127.1444254"></trkpt>
   <trkpt lat="37.478078" lon="127.1444469"></trkpt>
   <trkpt lat="37.4780863" lon="127.1445079"></trkpt>
   <trkpt lat="37.4780423" lon="127.1457511"></trkpt>
   <trkpt lat="37.4780329" lon="127.1459253"></trkpt>
   <trkpt lat="37.4780252" lon="127.1460769"></trkpt>
   <trkpt lat="37.4780252" lon="127.1460769"></trkpt>
   <trkpt lat="37.477964" lon="127.1460953"></trkpt>
   <trkpt lat="37.4779559" lon="127.1460987"></trkpt>
   <trkpt lat="37.4778948" lon="127.1461499"></trkpt>
   <trkpt lat="37.4778292" lon="127.1462407"></trkpt>
   <trkpt lat="37.4778292" lon="127.1462407"></trkpt>
   <trkpt lat="37.4777901" lon="127.1461187"></trkpt>
   <trkpt lat="37.4777557" lon="127.1460533"></trkpt>
   <trkpt lat="37.4777059" lon="127.1459834"></trkpt>
   <trkpt lat="37.4776444" lon="127.1459204"></trkpt>
   <trkpt lat="37.4775812" lon="127.1458901"></trkpt>
   <trkpt lat="37.4775199" lon="127.1458814"></trkpt>
   <trkpt lat="37.4775199" lon="127.1458814"></trkpt>
   <trkpt lat="37.4775619" lon="127.1460599"></trkpt>
   <trkpt lat="37.4775619" lon="127.1460599"></trkpt>
   <trkpt lat="37.4775199" lon="127.1458814"></trkpt>
   <trkpt lat="37.4775199" lon="127.1458814"></trkpt>
   <trkpt lat="37.4775812" lon="127.1458901"></trkpt>
   <trkpt lat="37.4776444" lon="127.1459204"></trkpt>
   <trkpt lat="37.4777059" lon="127.1459834"></trkpt>
   <trkpt lat="37.4777557" lon="127.1460533"></trkpt>
   <trkpt lat="37.4777901" lon="127.1461187"></trkpt>
   <trkpt lat="37.4778292" lon="127.1462407"></trkpt>
   <trkpt lat="37.4778292" lon="127.1462407"></trkpt>
   <trkpt lat="37.4778948" lon="127.1461499"></trkpt>
   <trkpt lat="37.4779559" lon="127.1460987"></trkpt>
   <trkpt lat="37.477964" lon="127.1460953"></trkpt>
   <trkpt lat="37.4780252" lon="127.1460769"></trkpt>
   <trkpt lat="37.4780252" lon="127.1460769"></trkpt>
   <trkpt lat="37.4779439" lon="127.1472128"></trkpt>
   <trkpt lat="37.4779439" lon="127.1472128"></trkpt>
   <trkpt lat="37.4781386" lon="127.1472119"></trkpt>
   <trkpt lat="37.4781386" lon="127.1472119"></trkpt>
   <trkpt lat="37.4781432" lon="127.1472594"></trkpt>
   <trkpt lat="37.4781542" lon="127.1473091"></trkpt>
   <trkpt lat="37.4781786" lon="127.1473361"></trkpt>
   <trkpt lat="37.4782147" lon="127.1473496"></trkpt>
   <trkpt lat="37.4784996" lon="127.1473742"></trkpt>
   <trkpt lat="37.4785438" lon="127.1473785"></trkpt>
   <trkpt lat="37.479283" lon="127.1473966"></trkpt>
   <trkpt lat="37.4807417" lon="127.1475119"></trkpt>
   <trkpt lat="37.4808175" lon="127.1475172"></trkpt>
   <trkpt lat="37.480886" lon="127.1475214"></trkpt>
   <trkpt lat="37.4809689" lon="127.1475244"></trkpt>
   <trkpt lat="37.481069" lon="127.1475341"></trkpt>
   <trkpt lat="37.4811087" lon="127.1475373"></trkpt>
   <trkpt lat="37.4818335" lon="127.1475916"></trkpt>
   <trkpt lat="37.4818489" lon="127.1475949"></trkpt>
   <trkpt lat="37.4822628" lon="127.1476823"></trkpt>
   <trkpt lat="37.4826275" lon="127.1478514"></trkpt>
   <trkpt lat="37.4833464" lon="127.148314"></trkpt>
   <trkpt lat="37.4833464" lon="127.148314"></trkpt>
   <trkpt lat="37.4833261" lon="127.1481727"></trkpt>
   <trkpt lat="37.483218" lon="127.1478927"></trkpt>
   <trkpt lat="37.4831443" lon="127.1476646"></trkpt>
   <trkpt lat="37.4831168" lon="127.1475018"></trkpt>
   <trkpt lat="37.48311" lon="127.1473356"></trkpt>
   <trkpt lat="37.483107" lon="127.1472474"></trkpt>
   <trkpt lat="37.4831361" lon="127.1470199"></trkpt>
   <trkpt lat="37.4831361" lon="127.1470199"></trkpt>
   <trkpt lat="37.4830657" lon="127.1469784"></trkpt>
   <trkpt lat="37.4830492" lon="127.1469162"></trkpt>
   <trkpt lat="37.4830164" lon="127.1467784"></trkpt>
   <trkpt lat="37.4829989" lon="127.1466676"></trkpt>
   <trkpt lat="37.4830024" lon="127.1466179"></trkpt>
   <trkpt lat="37.483013" lon="127.1465341"></trkpt>
   <trkpt lat="37.4830164" lon="127.1464696"></trkpt>
   <trkpt lat="37.4829918" lon="127.1463883"></trkpt>
   <trkpt lat="37.4830114" lon="127.1463136"></trkpt>
   <trkpt lat="37.4830201" lon="127.1462083"></trkpt>
   <trkpt lat="37.4830182" lon="127.1461801"></trkpt>
   <trkpt lat="37.4830079" lon="127.1460602"></trkpt>
   <trkpt lat="37.4829351" lon="127.1458072"></trkpt>
   <trkpt lat="37.4828911" lon="127.1455687"></trkpt>
   <trkpt lat="37.4828721" lon="127.1452533"></trkpt>
   <trkpt lat="37.4828786" lon="127.145018"></trkpt>
   <trkpt lat="37.482916" lon="127.1448696"></trkpt>
   <trkpt lat="37.4829412" lon="127.1448344"></trkpt>
   <trkpt lat="37.4829412" lon="127.1448344"></trkpt>
   <trkpt lat="37.4829977" lon="127.144755"></trkpt>
   <trkpt lat="37.4831012" lon="127.1446957"></trkpt>
   <trkpt lat="37.4832281" lon="127.1446374"></trkpt>
   <trkpt lat="37.4832846" lon="127.1445602"></trkpt>
   <trkpt lat="37.4833151" lon="127.1445092"></trkpt>
   <trkpt lat="37.4833192" lon="127.14437"></trkpt>
   <trkpt lat="37.4833078" lon="127.1441823"></trkpt>
   <trkpt lat="37.4833319" lon="127.1440883"></trkpt>
   <trkpt lat="37.4833822" lon="127.1440315"></trkpt>
   <trkpt lat="37.4835108" lon="127.143937"></trkpt>
   <trkpt lat="37.4835692" lon="127.1438621"></trkpt>
   <trkpt lat="37.4835987" lon="127.1437737"></trkpt>
   <trkpt lat="37.4835984" lon="127.1436776"></trkpt>
   <trkpt lat="37.4835708" lon="127.14349"></trkpt>
   <trkpt lat="37.48352" lon="127.1433884"></trkpt>
   <trkpt lat="37.4834567" lon="127.1433401"></trkpt>
   <trkpt lat="37.4833908" lon="127.1432974"></trkpt>
   <trkpt lat="37.483296" lon="127.1432492"></trkpt>
   <trkpt lat="37.4831525" lon="127.1431798"></trkpt>
   <trkpt lat="37.4830684" lon="127.1430863"></trkpt>
   <trkpt lat="37.4829597" lon="127.1429104"></trkpt>
   <trkpt lat="37.4828906" lon="127.1427003"></trkpt>
   <trkpt lat="37.4828702" lon="127.1425262"></trkpt>
   <trkpt lat="37.4828719" lon="127.1421869"></trkpt>
   <trkpt lat="37.4828645" lon="127.1421202"></trkpt>
   <trkpt lat="37.4828444" lon="127.1420558"></trkpt>
   <trkpt lat="37.4828353" lon="127.1420117"></trkpt>
   <trkpt lat="37.4828316" lon="127.1419812"></trkpt>
   <trkpt lat="37.4828351" lon="127.1419552"></trkpt>
   <trkpt lat="37.4828512" lon="127.1419189"></trkpt>
   <trkpt lat="37.4828512" lon="127.1419189"></trkpt>
   <trkpt lat="37.482805" lon="127.1418286"></trkpt>
   <trkpt lat="37.4827778" lon="127.1417835"></trkpt>
   <trkpt lat="37.4827778" lon="127.1417835"></trkpt>
   <trkpt lat="37.4825921" lon="127.1417901"></trkpt>
   <trkpt lat="37.4825336" lon="127.1418051"></trkpt>
   <trkpt lat="37.4823275" lon="127.1419203"></trkpt>
   <trkpt lat="37.4822185" lon="127.1419389"></trkpt>
   <trkpt lat="37.4819886" lon="127.141923"></trkpt>
   <trkpt lat="37.4819607" lon="127.141922"></trkpt>
   <trkpt lat="37.4815776" lon="127.1419069"></trkpt>
   <trkpt lat="37.4815531" lon="127.1418505"></trkpt>
   <trkpt lat="37.4815259" lon="127.1418167"></trkpt>
   <trkpt lat="37.481479" lon="127.1417999"></trkpt>
   <trkpt lat="37.4813825" lon="127.1417992"></trkpt>
   <trkpt lat="37.4808569" lon="127.1417656"></trkpt>
   <trkpt lat="37.4806279" lon="127.1417486"></trkpt>
   <trkpt lat="37.4803232" lon="127.1417297"></trkpt>
   <trkpt lat="37.4800374" lon="127.1417118"></trkpt>
   <trkpt lat="37.4799464" lon="127.1417066"></trkpt>
   <trkpt lat="37.4791251" lon="127.1416562"></trkpt>
   <trkpt lat="37.4790187" lon="127.1416477"></trkpt>
   <trkpt lat="37.4784309" lon="127.1416064"></trkpt>
   <trkpt lat="37.4784056" lon="127.1415884"></trkpt>
   <trkpt lat="37.4783902" lon="127.141567"></trkpt>
   <trkpt lat="37.4783829" lon="127.1415319"></trkpt>
   <trkpt lat="37.4783846" lon="127.1414969"></trkpt>
   <trkpt lat="37.4783846" lon="127.1414969"></trkpt>
   <trkpt lat="37.4781809" lon="127.1414933"></trkpt>
   <trkpt lat="37.4781809" lon="127.1414933"></trkpt>
   <trkpt lat="37.4781783" lon="127.1415273"></trkpt>
   <trkpt lat="37.4781666" lon="127.1415545"></trkpt>
   <trkpt lat="37.4781468" lon="127.1415681"></trkpt>
   <trkpt lat="37.4781225" lon="127.1415807"></trkpt>
   <trkpt lat="37.4774968" lon="127.1415305"></trkpt>
   <trkpt lat="37.4774572" lon="127.1415262"></trkpt>
   <trkpt lat="37.4771705" lon="127.1415038"></trkpt>
   <trkpt lat="37.4769081" lon="127.1414824"></trkpt>
   <trkpt lat="37.4767393" lon="127.1414109"></trkpt>
   <trkpt lat="37.4766716" lon="127.1413682"></trkpt>
   <trkpt lat="37.4765686" lon="127.1412986"></trkpt>
   <trkpt lat="37.4759806" lon="127.1408976"></trkpt>
   <trkpt lat="37.4759273" lon="127.1408617"></trkpt>
   <trkpt lat="37.4756873" lon="127.1407599"></trkpt>
   <trkpt lat="37.4755565" lon="127.1407311"></trkpt>
   <trkpt lat="37.4754104" lon="127.1407058"></trkpt>
   <trkpt lat="37.4754104" lon="127.1407058"></trkpt>
   <trkpt lat="37.4754145" lon="127.1405927"></trkpt>
   <trkpt lat="37.4754144" lon="127.1405475"></trkpt>
   <trkpt lat="37.4753235" lon="127.1402833"></trkpt>
   <trkpt lat="37.4753298" lon="127.1399847"></trkpt>
   <trkpt lat="37.4753657" lon="127.1399279"></trkpt>
   <trkpt lat="37.4753657" lon="127.1399279"></trkpt>
   <trkpt lat="37.4753347" lon="127.139815"></trkpt>
   <trkpt lat="37.4753319" lon="127.1398026"></trkpt>
  </trkseg>
 </trk>
</gpx>
