<?xml version="1.0" encoding="UTF-8"?>
<gpx creator="daengrun-naver-route" version="1.1" xmlns="http://www.topografix.com/GPX/1/1" xmlns:xsi="http://www.w3.org/2001/XMLSchema-instance" xsi:schemaLocation="http://www.topografix.com/GPX/1/1 http://www.topografix.com/GPX/1/1/gpx.xsd">
 <metadata>
  <name>송파 개롱근린공원·목련공원 루프 3.17km</name>
  <desc>daengrun candidate geometry — measured 3.17km via Naver pedestrian router (o=flat, 계단회피). Elevation NOT available from this source. stairs=0 crosswalk=10 steppingstone=0 underpass=0 overpass=0</desc>
  <link href="naver:oaqf1n"><text>daengrun route id</text></link>
  <copyright author="NAVER Corp."><license>https://map.naver.com/</license></copyright>
 </metadata>
 <trk>
  <name>송파 개롱근린공원·목련공원 루프 3.17km</name>
  <trkseg>
   <trkpt lat="37.4955712" lon="127.1328012"></trkpt>
   <trkpt lat="37.4954581" lon="127.1326615"></trkpt>
   <trkpt lat="37.4954581" lon="127.1326615"></trkpt>
   <trkpt lat="37.4956368" lon="127.1324389"></trkpt>
   <trkpt lat="37.4956368" lon="127.1324389"></trkpt>
   <trkpt lat="37.4952026" lon="127.1319285"></trkpt>
   <trkpt lat="37.4951863" lon="127.1319094"></trkpt>
   <trkpt lat="37.4951537" lon="127.1318699"></trkpt>
   <trkpt lat="37.4951255" lon="127.1318011"></trkpt>
   <trkpt lat="37.4951255" lon="127.1318011"></trkpt>
   <trkpt lat="37.4950438" lon="127.1319022"></trkpt>
   <trkpt lat="37.4950438" lon="127.1319022"></trkpt>
   <trkpt lat="37.4950104" lon="127.1318582"></trkpt>
   <trkpt lat="37.4949733" lon="127.1318154"></trkpt>
   <trkpt lat="37.4949733" lon="127.1318154"></trkpt>
   <trkpt lat="37.4950765" lon="127.1316848"></trkpt>
   <trkpt lat="37.495556" lon="127.1310953"></trkpt>
   <trkpt lat="37.4955649" lon="127.1310726"></trkpt>
   <trkpt lat="37.4955685" lon="127.1310534"></trkpt>
   <trkpt lat="37.4955685" lon="127.1310534"></trkpt>
   <trkpt lat="37.4955675" lon="127.1310353"></trkpt>
   <trkpt lat="37.4955639" lon="127.1310217"></trkpt>
   <trkpt lat="37.4955485" lon="127.1310105"></trkpt>
   <trkpt lat="37.4950122" lon="127.1307054"></trkpt>
   <trkpt lat="37.4948821" lon="127.1306325"></trkpt>
   <trkpt lat="37.4947259" lon="127.1305439"></trkpt>
   <trkpt lat="37.4946492" lon="127.1305059"></trkpt>
   <trkpt lat="37.494567" lon="127.1304689"></trkpt>
   <trkpt lat="37.4944578" lon="127.1304197"></trkpt>
   <trkpt lat="37.4933998" lon="127.1299"></trkpt>
   <trkpt lat="37.4933998" lon="127.1299"></trkpt>
   <trkpt lat="37.4933855" lon="127.1299351"></trkpt>
   <trkpt lat="37.4933292" lon="127.1300893"></trkpt>
   <trkpt lat="37.4933268" lon="127.1302013"></trkpt>
   <trkpt lat="37.4933269" lon="127.1302363"></trkpt>
   <trkpt lat="37.4933272" lon="127.1303133"></trkpt>
   <trkpt lat="37.4932102" lon="127.1306679"></trkpt>
   <trkpt lat="37.4932093" lon="127.1306725"></trkpt>
   <trkpt lat="37.4932093" lon="127.1306725"></trkpt>
   <trkpt lat="37.4935557" lon="127.1307409"></trkpt>
   <trkpt lat="37.4936233" lon="127.1307541"></trkpt>
   <trkpt lat="37.4936611" lon="127.1307415"></trkpt>
   <trkpt lat="37.4936611" lon="127.1307415"></trkpt>
   <trkpt lat="37.4937045" lon="127.1307775"></trkpt>
   <trkpt lat="37.4937045" lon="127.1307775"></trkpt>
   <trkpt lat="37.4936611" lon="127.1307415"></trkpt>
   <trkpt lat="37.4936611" lon="127.1307415"></trkpt>
   <trkpt lat="37.4936233" lon="127.1307541"></trkpt>
   <trkpt lat="37.4935557" lon="127.1307409"></trkpt>
   <trkpt lat="37.4932093" lon="127.1306725"></trkpt>
   <trkpt lat="37.4932093" lon="127.1306725"></trkpt>
   <trkpt lat="37.4932102" lon="127.1306679"></trkpt>
   <trkpt lat="37.4933272" lon="127.1303133"></trkpt>
   <trkpt lat="37.4933269" lon="127.1302363"></trkpt>
   <trkpt lat="37.4933268" lon="127.1302013"></trkpt>
   <trkpt lat="37.4933292" lon="127.1300893"></trkpt>
   <trkpt lat="37.4933855" lon="127.1299351"></trkpt>
   <trkpt lat="37.4933998" lon="127.1299"></trkpt>
   <trkpt lat="37.4933998" lon="127.1299"></trkpt>
   <trkpt lat="37.4944578" lon="127.1304197"></trkpt>
   <trkpt lat="37.494567" lon="127.1304689"></trkpt>
   <trkpt lat="37.4946492" lon="127.1305059"></trkpt>
   <trkpt lat="37.4947259" lon="127.1305439"></trkpt>
   <trkpt lat="37.4948821" lon="127.1306325"></trkpt>
   <trkpt lat="37.4950122" lon="127.1307054"></trkpt>
   <trkpt lat="37.4955485" lon="127.1310105"></trkpt>
   <trkpt lat="37.4955639" lon="127.1310217"></trkpt>
   <trkpt lat="37.4955675" lon="127.1310353"></trkpt>
   <trkpt lat="37.4955685" lon="127.1310534"></trkpt>
   <trkpt lat="37.4955649" lon="127.1310726"></trkpt>
   <trkpt lat="37.495556" lon="127.1310953"></trkpt>
   <trkpt lat="37.495556" lon="127.1310953"></trkpt>
   <trkpt lat="37.4955976" lon="127.1311358"></trkpt>
   <trkpt lat="37.4956464" lon="127.1311831"></trkpt>
   <trkpt lat="37.4956464" lon="127.1311831"></trkpt>
   <trkpt lat="37.4956626" lon="127.1311683"></trkpt>
   <trkpt lat="37.4956851" lon="127.1311569"></trkpt>
   <trkpt lat="37.4957112" lon="127.1311534"></trkpt>
   <trkpt lat="37.4957419" lon="127.1311555"></trkpt>
   <trkpt lat="37.4958558" lon="127.1312624"></trkpt>
   <trkpt lat="37.495892" lon="127.1313018"></trkpt>
   <trkpt lat="37.4959778" lon="127.1313874"></trkpt>
   <trkpt lat="37.4960167" lon="127.131429"></trkpt>
   <trkpt lat="37.4960384" lon="127.1314516"></trkpt>
   <trkpt lat="37.4966636" lon="127.132194"></trkpt>
   <trkpt lat="37.4969415" lon="127.1325603"></trkpt>
   <trkpt lat="37.4969913" lon="127.1326325"></trkpt>
   <trkpt lat="37.4969913" lon="127.1326325"></trkpt>
   <trkpt lat="37.49706" lon="127.1327136"></trkpt>
   <trkpt lat="37.49706" lon="127.1327136"></trkpt>
   <trkpt lat="37.4971757" lon="127.132825"></trkpt>
   <trkpt lat="37.4979647" lon="127.1337952"></trkpt>
   <trkpt lat="37.4981874" lon="127.1340939"></trkpt>
   <trkpt lat="37.4982073" lon="127.1341198"></trkpt>
   <trkpt lat="37.4982246" lon="127.1341876"></trkpt>
   <trkpt lat="37.4982266" lon="127.1342363"></trkpt>
   <trkpt lat="37.498224" lon="127.1342895"></trkpt>
   <trkpt lat="37.498224" lon="127.1342895"></trkpt>
   <trkpt lat="37.4983379" lon="127.1343896"></trkpt>
   <trkpt lat="37.4984735" lon="127.1345213"></trkpt>
   <trkpt lat="37.4984735" lon="127.1345213"></trkpt>
   <trkpt lat="37.4984843" lon="127.1345122"></trkpt>
   <trkpt lat="37.4984906" lon="127.134511"></trkpt>
   <trkpt lat="37.4984978" lon="127.1345121"></trkpt>
   <trkpt lat="37.4985421" lon="127.1345311"></trkpt>
   <trkpt lat="37.498599" lon="127.134575"></trkpt>
   <trkpt lat="37.4992648" lon="127.1353625"></trkpt>
   <trkpt lat="37.4994331" lon="127.1355688"></trkpt>
   <trkpt lat="37.4994331" lon="127.1355688"></trkpt>
   <trkpt lat="37.4994974" lon="127.1356465"></trkpt>
   <trkpt lat="37.4994974" lon="127.1356465"></trkpt>
   <trkpt lat="37.499539" lon="127.1356938"></trkpt>
   <trkpt lat="37.4996891" lon="127.1358685"></trkpt>
   <trkpt lat="37.499814" lon="127.1360161"></trkpt>
   <trkpt lat="37.4999995" lon="127.1362426"></trkpt>
   <trkpt lat="37.5000257" lon="127.1362696"></trkpt>
   <trkpt lat="37.500042" lon="127.1362876"></trkpt>
   <trkpt lat="37.5000537" lon="127.1363124"></trkpt>
   <trkpt lat="37.5000557" lon="127.1363611"></trkpt>
   <trkpt lat="37.5000557" lon="127.1363611"></trkpt>
   <trkpt lat="37.5000531" lon="127.1364007"></trkpt>
   <trkpt lat="37.5000442" lon="127.1364369"></trkpt>
   <trkpt lat="37.4999994" lon="127.1365028"></trkpt>
   <trkpt lat="37.4998003" lon="127.1368409"></trkpt>
   <trkpt lat="37.4994389" lon="127.1374388"></trkpt>
   <trkpt lat="37.4990729" lon="127.1380345"></trkpt>
   <trkpt lat="37.4989617" lon="127.138207"></trkpt>
   <trkpt lat="37.4989617" lon="127.138207"></trkpt>
   <trkpt lat="37.498997" lon="127.1382487"></trkpt>
   <trkpt lat="37.4990305" lon="127.138287"></trkpt>
   <trkpt lat="37.4990305" lon="127.138287"></trkpt>
   <trkpt lat="37.4989748" lon="127.1383778"></trkpt>
   <trkpt lat="37.4992914" lon="127.1387247"></trkpt>
   <trkpt lat="37.4992914" lon="127.1387247"></trkpt>
   <trkpt lat="37.4992035" lon="127.1388654"></trkpt>
   <trkpt lat="37.4990142" lon="127.1391752"></trkpt>
   <trkpt lat="37.4990142" lon="127.1391752"></trkpt>
   <trkpt lat="37.4992035" lon="127.1388654"></trkpt>
   <trkpt lat="37.4992914" lon="127.1387247"></trkpt>
   <trkpt lat="37.4992914" lon="127.1387247"></trkpt>
   <trkpt lat="37.4989748" lon="127.1383778"></trkpt>
   <trkpt lat="37.4990305" lon="127.138287"></trkpt>
   <trkpt lat="37.4990305" lon="127.138287"></trkpt>
   <trkpt lat="37.498997" lon="127.1382487"></trkpt>
   <trkpt lat="37.4989617" lon="127.138207"></trkpt>
   <trkpt lat="37.4989617" lon="127.138207"></trkpt>
   <trkpt lat="37.4990729" lon="127.1380345"></trkpt>
   <trkpt lat="37.4994389" lon="127.1374388"></trkpt>
   <trkpt lat="37.4998003" lon="127.1368409"></trkpt>
   <trkpt lat="37.4999994" lon="127.1365028"></trkpt>
   <trkpt lat="37.5000442" lon="127.1364369"></trkpt>
   <trkpt lat="37.5000531" lon="127.1364007"></trkpt>
   <trkpt lat="37.5000557" lon="127.1363611"></trkpt>
   <trkpt lat="37.5000557" lon="127.1363611"></trkpt>
   <trkpt lat="37.5000537" lon="127.1363124"></trkpt>
   <trkpt lat="37.500042" lon="127.1362876"></trkpt>
   <trkpt lat="37.5000257" lon="127.1362696"></trkpt>
   <trkpt lat="37.4999995" lon="127.1362426"></trkpt>
   <trkpt lat="37.499814" lon="127.1360161"></trkpt>
   <trkpt lat="37.4996891" lon="127.1358685"></trkpt>
   <trkpt lat="37.499539" lon="127.1356938"></trkpt>
   <trkpt lat="37.4994974" lon="127.1356465"></trkpt>
   <trkpt lat="37.4994974" lon="127.1356465"></trkpt>
   <trkpt lat="37.4994331" lon="127.1355688"></trkpt>
   <trkpt lat="37.4994331" lon="127.1355688"></trkpt>
   <trkpt lat="37.4992648" lon="127.1353625"></trkpt>
   <trkpt lat="37.498599" lon="127.134575"></trkpt>
   <trkpt lat="37.4985421" lon="127.1345311"></trkpt>
   <trkpt lat="37.4984978" lon="127.1345121"></trkpt>
   <trkpt lat="37.4984906" lon="127.134511"></trkpt>
   <trkpt lat="37.4984843" lon="127.1345122"></trkpt>
   <trkpt lat="37.4984735" lon="127.1345213"></trkpt>
   <trkpt lat="37.4984735" lon="127.1345213"></trkpt>
   <trkpt lat="37.4983379" lon="127.1343896"></trkpt>
   <trkpt lat="37.498224" lon="127.1342895"></trkpt>
   <trkpt lat="37.498224" lon="127.1342895"></trkpt>
   <trkpt lat="37.4982266" lon="127.1342363"></trkpt>
   <trkpt lat="37.4982246" lon="127.1341876"></trkpt>
   <trkpt lat="37.4982073" lon="127.1341198"></trkpt>
   <trkpt lat="37.4981874" lon="127.1340939"></trkpt>
   <trkpt lat="37.4979647" lon="127.1337952"></trkpt>
   <trkpt lat="37.4971757" lon="127.132825"></trkpt>
   <trkpt lat="37.49706" lon="127.1327136"></trkpt>
   <trkpt lat="37.49706" lon="127.1327136"></trkpt>
   <trkpt lat="37.4969913" lon="127.1326325"></trkpt>
   <trkpt lat="37.4969913" lon="127.1326325"></trkpt>
   <trkpt lat="37.4969415" lon="127.1325603"></trkpt>
   <trkpt lat="37.4966636" lon="127.132194"></trkpt>
   <trkpt lat="37.4960384" lon="127.1314516"></trkpt>
   <trkpt lat="37.4960384" lon="127.1314516"></trkpt>
   <trkpt lat="37.4960241" lon="127.1314867"></trkpt>
   <trkpt lat="37.495992" lon="127.1315943"></trkpt>
   <trkpt lat="37.4959714" lon="127.1316193"></trkpt>
   <trkpt lat="37.4959714" lon="127.1316193"></trkpt>
   <trkpt lat="37.4961252" lon="127.1318211"></trkpt>
   <trkpt lat="37.4961252" lon="127.1318211"></trkpt>
   <trkpt lat="37.4961162" lon="127.1318301"></trkpt>
   <trkpt lat="37.4960157" lon="127.1319653"></trkpt>
   <trkpt lat="37.4959304" lon="127.1320709"></trkpt>
   <trkpt lat="37.4958002" lon="127.1322356"></trkpt>
   <trkpt lat="37.4957104" lon="127.1323491"></trkpt>
   <trkpt lat="37.4956368" lon="127.1324389"></trkpt>
   <trkpt lat="37.4954581" lon="127.1326615"></trkpt>
   <trkpt lat="37.4954581" lon="127.1326615"></trkpt>
   <trkpt lat="37.4955712" lon="127.1328012"></trkpt>
  </trkseg>
 </trk>
</gpx>
