<?xml version="1.0" encoding="UTF-8"?>
<gpx creator="daengrun-naver-route" version="1.1" xmlns="http://www.topografix.com/GPX/1/1" xmlns:xsi="http://www.w3.org/2001/XMLSchema-instance" xsi:schemaLocation="http://www.topografix.com/GPX/1/1 http://www.topografix.com/GPX/1/1/gpx.xsd">
 <metadata>
  <name>양천 백석공원·염창소공원 루프 2.36km</name>
  <desc>daengrun candidate geometry — measured 2.36km via Naver pedestrian router (o=flat, 계단회피). Elevation NOT available from this source. stairs=0 crosswalk=9 steppingstone=0 underpass=0 overpass=0</desc>
  <link href="naver:1pvt0hm"><text>daengrun route id</text></link>
  <copyright author="NAVER Corp."><license>https://map.naver.com/</license></copyright>
 </metadata>
 <trk>
  <name>양천 백석공원·염창소공원 루프 2.36km</name>
  <trkseg>
   <trkpt lat="37.5469019" lon="126.8673429"></trkpt>
   <trkpt lat="37.5469664" lon="126.8671115"></trkpt>
   <trkpt lat="37.5469664" lon="126.8671115"></trkpt>
   <trkpt lat="37.547241" lon="126.8672246"></trkpt>
   <trkpt lat="37.547466" lon="126.8673246"></trkpt>
   <trkpt lat="37.5475115" lon="126.8674068"></trkpt>
   <trkpt lat="37.5475404" lon="126.8674179"></trkpt>
   <trkpt lat="37.5478891" lon="126.8675599"></trkpt>
   <trkpt lat="37.5478891" lon="126.8675599"></trkpt>
   <trkpt lat="37.5479049" lon="126.8674895"></trkpt>
   <trkpt lat="37.5479357" lon="126.8673489"></trkpt>
   <trkpt lat="37.5480185" lon="126.8669735"></trkpt>
   <trkpt lat="37.5480573" lon="126.8668136"></trkpt>
   <trkpt lat="37.5480573" lon="126.8668136"></trkpt>
   <trkpt lat="37.5478892" lon="126.8665671"></trkpt>
   <trkpt lat="37.5476739" lon="126.8662474"></trkpt>
   <trkpt lat="37.5476584" lon="126.8662283"></trkpt>
   <trkpt lat="37.5473065" lon="126.8661441"></trkpt>
   <trkpt lat="37.5472168" lon="126.8660622"></trkpt>
   <trkpt lat="37.5471888" lon="126.8660534"></trkpt>
   <trkpt lat="37.5471861" lon="126.8660523"></trkpt>
   <trkpt lat="37.5463175" lon="126.865771"></trkpt>
   <trkpt lat="37.5463175" lon="126.865771"></trkpt>
   <trkpt lat="37.5462429" lon="126.8651388"></trkpt>
   <trkpt lat="37.5462328" lon="126.8651004"></trkpt>
   <trkpt lat="37.5462173" lon="126.8650722"></trkpt>
   <trkpt lat="37.5461947" lon="126.8650554"></trkpt>
   <trkpt lat="37.5461324" lon="126.8650526"></trkpt>
   <trkpt lat="37.5461324" lon="126.8650526"></trkpt>
   <trkpt lat="37.5461349" lon="126.865168"></trkpt>
   <trkpt lat="37.5461349" lon="126.865168"></trkpt>
   <trkpt lat="37.5458016" lon="126.8652025"></trkpt>
   <trkpt lat="37.5455764" lon="126.865235"></trkpt>
   <trkpt lat="37.5454819" lon="126.8652539"></trkpt>
   <trkpt lat="37.5454143" lon="126.8652613"></trkpt>
   <trkpt lat="37.5454181" lon="126.8653043"></trkpt>
   <trkpt lat="37.5452695" lon="126.8653304"></trkpt>
   <trkpt lat="37.5452695" lon="126.8653304"></trkpt>
   <trkpt lat="37.5452646" lon="126.8654108"></trkpt>
   <trkpt lat="37.5452646" lon="126.8654108"></trkpt>
   <trkpt lat="37.5452695" lon="126.8653304"></trkpt>
   <trkpt lat="37.5452695" lon="126.8653304"></trkpt>
   <trkpt lat="37.5454181" lon="126.8653043"></trkpt>
   <trkpt lat="37.5454143" lon="126.8652613"></trkpt>
   <trkpt lat="37.5454819" lon="126.8652539"></trkpt>
   <trkpt lat="37.5455764" lon="126.865235"></trkpt>
   <trkpt lat="37.5458016" lon="126.8652025"></trkpt>
   <trkpt lat="37.5461349" lon="126.865168"></trkpt>
   <trkpt lat="37.5461349" lon="126.865168"></trkpt>
   <trkpt lat="37.5461324" lon="126.8650526"></trkpt>
   <trkpt lat="37.5461324" lon="126.8650526"></trkpt>
   <trkpt lat="37.5461947" lon="126.8650554"></trkpt>
   <trkpt lat="37.5462173" lon="126.8650722"></trkpt>
   <trkpt lat="37.5462328" lon="126.8651004"></trkpt>
   <trkpt lat="37.5462429" lon="126.8651388"></trkpt>
   <trkpt lat="37.5463175" lon="126.865771"></trkpt>
   <trkpt lat="37.5463175" lon="126.865771"></trkpt>
   <trkpt lat="37.5471861" lon="126.8660523"></trkpt>
   <trkpt lat="37.5471888" lon="126.8660534"></trkpt>
   <trkpt lat="37.5472168" lon="126.8660622"></trkpt>
   <trkpt lat="37.547323" lon="126.8660307"></trkpt>
   <trkpt lat="37.5476524" lon="126.8661072"></trkpt>
   <trkpt lat="37.5477128" lon="126.8661214"></trkpt>
   <trkpt lat="37.5477128" lon="126.8661214"></trkpt>
   <trkpt lat="37.5477446" lon="126.8661664"></trkpt>
   <trkpt lat="37.5479555" lon="126.8664963"></trkpt>
   <trkpt lat="37.5480909" lon="126.8666944"></trkpt>
   <trkpt lat="37.5481381" lon="126.8667619"></trkpt>
   <trkpt lat="37.5481581" lon="126.8667969"></trkpt>
   <trkpt lat="37.5481636" lon="126.8668149"></trkpt>
   <trkpt lat="37.5481577" lon="126.8668806"></trkpt>
   <trkpt lat="37.5481577" lon="126.8668806"></trkpt>
   <trkpt lat="37.5483892" lon="126.8672002"></trkpt>
   <trkpt lat="37.5484843" lon="126.8672877"></trkpt>
   <trkpt lat="37.5485666" lon="126.8673311"></trkpt>
   <trkpt lat="37.5486642" lon="126.8673824"></trkpt>
   <trkpt lat="37.5488438" lon="126.8674273"></trkpt>
   <trkpt lat="37.5492307" lon="126.8678032"></trkpt>
   <trkpt lat="37.5492307" lon="126.8678032"></trkpt>
   <trkpt lat="37.5491378" lon="126.8679637"></trkpt>
   <trkpt lat="37.5491378" lon="126.8679637"></trkpt>
   <trkpt lat="37.549184" lon="126.8680052"></trkpt>
   <trkpt lat="37.5493009" lon="126.8681185"></trkpt>
   <trkpt lat="37.5493272" lon="126.8681421"></trkpt>
   <trkpt lat="37.5494078" lon="126.8682195"></trkpt>
   <trkpt lat="37.5494078" lon="126.8682195"></trkpt>
   <trkpt lat="37.5492541" lon="126.8684676"></trkpt>
   <trkpt lat="37.5485562" lon="126.8696021"></trkpt>
   <trkpt lat="37.5485562" lon="126.8696021"></trkpt>
   <trkpt lat="37.5484813" lon="126.8697477"></trkpt>
   <trkpt lat="37.5484813" lon="126.8697477"></trkpt>
   <trkpt lat="37.5488281" lon="126.8700459"></trkpt>
   <trkpt lat="37.5490871" lon="126.8702871"></trkpt>
   <trkpt lat="37.5491197" lon="126.8702993"></trkpt>
   <trkpt lat="37.5491521" lon="126.8703047"></trkpt>
   <trkpt lat="37.5497121" lon="126.870343"></trkpt>
   <trkpt lat="37.5497428" lon="126.8703495"></trkpt>
   <trkpt lat="37.549787" lon="126.870365"></trkpt>
   <trkpt lat="37.549787" lon="126.870365"></trkpt>
   <trkpt lat="37.5497901" lon="126.8704476"></trkpt>
   <trkpt lat="37.5498228" lon="126.8706466"></trkpt>
   <trkpt lat="37.5498228" lon="126.8706477"></trkpt>
   <trkpt lat="37.5498228" lon="126.8706477"></trkpt>
   <trkpt lat="37.5498228" lon="126.8706466"></trkpt>
   <trkpt lat="37.5497901" lon="126.8704476"></trkpt>
   <trkpt lat="37.549787" lon="126.870365"></trkpt>
   <trkpt lat="37.549787" lon="126.870365"></trkpt>
   <trkpt lat="37.5497428" lon="126.8703495"></trkpt>
   <trkpt lat="37.5497121" lon="126.870343"></trkpt>
   <trkpt lat="37.5491521" lon="126.8703047"></trkpt>
   <trkpt lat="37.5491197" lon="126.8702993"></trkpt>
   <trkpt lat="37.5490871" lon="126.8702871"></trkpt>
   <trkpt lat="37.5488281" lon="126.8700459"></trkpt>
   <trkpt lat="37.5484813" lon="126.8697477"></trkpt>
   <trkpt lat="37.5484813" lon="126.8697477"></trkpt>
   <trkpt lat="37.5485562" lon="126.8696021"></trkpt>
   <trkpt lat="37.5485562" lon="126.8696021"></trkpt>
   <trkpt lat="37.5492541" lon="126.8684676"></trkpt>
   <trkpt lat="37.5494078" lon="126.8682195"></trkpt>
   <trkpt lat="37.5494078" lon="126.8682195"></trkpt>
   <trkpt lat="37.5493272" lon="126.8681421"></trkpt>
   <trkpt lat="37.5493009" lon="126.8681185"></trkpt>
   <trkpt lat="37.549184" lon="126.8680052"></trkpt>
   <trkpt lat="37.5491378" lon="126.8679637"></trkpt>
   <trkpt lat="37.5491378" lon="126.8679637"></trkpt>
   <trkpt lat="37.5489421" lon="126.86828"></trkpt>
   <trkpt lat="37.548716" lon="126.8686431"></trkpt>
   <trkpt lat="37.548716" lon="126.8686431"></trkpt>
   <trkpt lat="37.5479387" lon="126.8679047"></trkpt>
   <trkpt lat="37.5479642" lon="126.8677811"></trkpt>
   <trkpt lat="37.5479642" lon="126.8677811"></trkpt>
   <trkpt lat="37.5479416" lon="126.8677722"></trkpt>
   <trkpt lat="37.5478495" lon="126.8677334"></trkpt>
   <trkpt lat="37.5478495" lon="126.8677334"></trkpt>
   <trkpt lat="37.5478891" lon="126.8675599"></trkpt>
   <trkpt lat="37.5478891" lon="126.8675599"></trkpt>
   <trkpt lat="37.5475404" lon="126.8674179"></trkpt>
   <trkpt lat="37.5475115" lon="126.8674068"></trkpt>
   <trkpt lat="37.547466" lon="126.8673246"></trkpt>
   <trkpt lat="37.547241" lon="126.8672246"></trkpt>
   <trkpt lat="37.5469664" lon="126.8671115"></trkpt>
   <trkpt lat="37.5469664" lon="126.8671115"></trkpt>
   <trkpt lat="37.5469019" lon="126.8673429"></trkpt>
  </trkseg>
 </trk>
</gpx>
