<?xml version="1.0" encoding="UTF-8"?>
<gpx creator="daengrun-naver-route" version="1.1" xmlns="http://www.topografix.com/GPX/1/1" xmlns:xsi="http://www.w3.org/2001/XMLSchema-instance" xsi:schemaLocation="http://www.topografix.com/GPX/1/1 http://www.topografix.com/GPX/1/1/gpx.xsd">
 <metadata>
  <name>양천 용왕산·목동 파리공원 루프 3.53km</name>
  <desc>daengrun candidate geometry — measured 3.53km via Naver pedestrian router (o=flat, 계단회피). Elevation NOT available from this source. stairs=0 crosswalk=6 steppingstone=0 underpass=0 overpass=0</desc>
  <link href="naver:qyme6"><text>daengrun route id</text></link>
  <copyright author="NAVER Corp."><license>https://map.naver.com/</license></copyright>
 </metadata>
 <trk>
  <name>양천 용왕산·목동 파리공원 루프 3.53km</name>
  <trkseg>
   <trkpt lat="37.5403362" lon="126.8752575"></trkpt>
   <trkpt lat="37.5407146" lon="126.8755679"></trkpt>
   <trkpt lat="37.5409622" lon="126.8758522"></trkpt>
   <trkpt lat="37.541024" lon="126.8759513"></trkpt>
   <trkpt lat="37.5410622" lon="126.8760064"></trkpt>
   <trkpt lat="37.541342" lon="126.8765905"></trkpt>
   <trkpt lat="37.541342" lon="126.8765905"></trkpt>
   <trkpt lat="37.5414261" lon="126.8764777"></trkpt>
   <trkpt lat="37.5415909" lon="126.8761152"></trkpt>
   <trkpt lat="37.5416841" lon="126.8759979"></trkpt>
   <trkpt lat="37.5417748" lon="126.8759405"></trkpt>
   <trkpt lat="37.5420412" lon="126.8758624"></trkpt>
   <trkpt lat="37.5421999" lon="126.8758747"></trkpt>
   <trkpt lat="37.5425604" lon="126.8760336"></trkpt>
   <trkpt lat="37.542683" lon="126.8760484"></trkpt>
   <trkpt lat="37.542891" lon="126.8760116"></trkpt>
   <trkpt lat="37.5430184" lon="126.876058"></trkpt>
   <trkpt lat="37.5430891" lon="126.8761457"></trkpt>
   <trkpt lat="37.5431247" lon="126.8762304"></trkpt>
   <trkpt lat="37.5431325" lon="126.8763367"></trkpt>
   <trkpt lat="37.5431287" lon="126.876468"></trkpt>
   <trkpt lat="37.5430748" lon="126.8766745"></trkpt>
   <trkpt lat="37.5431082" lon="126.8768621"></trkpt>
   <trkpt lat="37.5432043" lon="126.8771251"></trkpt>
   <trkpt lat="37.5432798" lon="126.877266"></trkpt>
   <trkpt lat="37.5438723" lon="126.8781666"></trkpt>
   <trkpt lat="37.5439513" lon="126.8782803"></trkpt>
   <trkpt lat="37.5440176" lon="126.878376"></trkpt>
   <trkpt lat="37.5442593" lon="126.87858"></trkpt>
   <trkpt lat="37.5442593" lon="126.87858"></trkpt>
   <trkpt lat="37.5440176" lon="126.878376"></trkpt>
   <trkpt lat="37.5439513" lon="126.8782803"></trkpt>
   <trkpt lat="37.5438723" lon="126.8781666"></trkpt>
   <trkpt lat="37.5432798" lon="126.877266"></trkpt>
   <trkpt lat="37.5432043" lon="126.8771251"></trkpt>
   <trkpt lat="37.5431082" lon="126.8768621"></trkpt>
   <trkpt lat="37.5430748" lon="126.8766745"></trkpt>
   <trkpt lat="37.5431287" lon="126.876468"></trkpt>
   <trkpt lat="37.5431325" lon="126.8763367"></trkpt>
   <trkpt lat="37.5431247" lon="126.8762304"></trkpt>
   <trkpt lat="37.5430891" lon="126.8761457"></trkpt>
   <trkpt lat="37.5430184" lon="126.876058"></trkpt>
   <trkpt lat="37.542891" lon="126.8760116"></trkpt>
   <trkpt lat="37.542683" lon="126.8760484"></trkpt>
   <trkpt lat="37.5425604" lon="126.8760336"></trkpt>
   <trkpt lat="37.5421999" lon="126.8758747"></trkpt>
   <trkpt lat="37.5420412" lon="126.8758624"></trkpt>
   <trkpt lat="37.5417748" lon="126.8759405"></trkpt>
   <trkpt lat="37.5416841" lon="126.8759979"></trkpt>
   <trkpt lat="37.5415909" lon="126.8761152"></trkpt>
   <trkpt lat="37.5414261" lon="126.8764777"></trkpt>
   <trkpt lat="37.541342" lon="126.8765905"></trkpt>
   <trkpt lat="37.541342" lon="126.8765905"></trkpt>
   <trkpt lat="37.5410622" lon="126.8760064"></trkpt>
   <trkpt lat="37.541024" lon="126.8759513"></trkpt>
   <trkpt lat="37.5409622" lon="126.8758522"></trkpt>
   <trkpt lat="37.5407146" lon="126.8755679"></trkpt>
   <trkpt lat="37.5400782" lon="126.8750446"></trkpt>
   <trkpt lat="37.5400167" lon="126.8749998"></trkpt>
   <trkpt lat="37.5399044" lon="126.8749068"></trkpt>
   <trkpt lat="37.5398121" lon="126.8748283"></trkpt>
   <trkpt lat="37.5398121" lon="126.8748283"></trkpt>
   <trkpt lat="37.5397809" lon="126.8748886"></trkpt>
   <trkpt lat="37.5397274" lon="126.8749999"></trkpt>
   <trkpt lat="37.5397131" lon="126.8750284"></trkpt>
   <trkpt lat="37.5397131" lon="126.8750284"></trkpt>
   <trkpt lat="37.5397321" lon="126.8750474"></trkpt>
   <trkpt lat="37.5397449" lon="126.8750734"></trkpt>
   <trkpt lat="37.5397505" lon="126.8751129"></trkpt>
   <trkpt lat="37.539395" lon="126.8757283"></trkpt>
   <trkpt lat="37.5391833" lon="126.8760855"></trkpt>
   <trkpt lat="37.5391663" lon="126.876115"></trkpt>
   <trkpt lat="37.5391458" lon="126.8761537"></trkpt>
   <trkpt lat="37.5390522" lon="126.8763435"></trkpt>
   <trkpt lat="37.539014" lon="126.8764502"></trkpt>
   <trkpt lat="37.5388938" lon="126.8767444"></trkpt>
   <trkpt lat="37.5387191" lon="126.8772869"></trkpt>
   <trkpt lat="37.5386899" lon="126.8773788"></trkpt>
   <trkpt lat="37.5386659" lon="126.8774526"></trkpt>
   <trkpt lat="37.5385896" lon="126.8776751"></trkpt>
   <trkpt lat="37.5384458" lon="126.878094"></trkpt>
   <trkpt lat="37.5384032" lon="126.87822"></trkpt>
   <trkpt lat="37.5383722" lon="126.8783266"></trkpt>
   <trkpt lat="37.5383154" lon="126.8785003"></trkpt>
   <trkpt lat="37.5381788" lon="126.8789259"></trkpt>
   <trkpt lat="37.5381424" lon="126.8790258"></trkpt>
   <trkpt lat="37.5380782" lon="126.8791565"></trkpt>
   <trkpt lat="37.5380202" lon="126.8792656"></trkpt>
   <trkpt lat="37.5379459" lon="126.8793715"></trkpt>
   <trkpt lat="37.5378949" lon="126.8794444"></trkpt>
   <trkpt lat="37.5378367" lon="126.8795094"></trkpt>
   <trkpt lat="37.5376583" lon="126.8796908"></trkpt>
   <trkpt lat="37.5374094" lon="126.8798366"></trkpt>
   <trkpt lat="37.5372988" lon="126.8798987"></trkpt>
   <trkpt lat="37.5372492" lon="126.8798799"></trkpt>
   <trkpt lat="37.5372302" lon="126.8798687"></trkpt>
   <trkpt lat="37.5372302" lon="126.8798687"></trkpt>
   <trkpt lat="37.5372175" lon="126.8798507"></trkpt>
   <trkpt lat="37.5371865" lon="126.879791"></trkpt>
   <trkpt lat="37.5370147" lon="126.8793453"></trkpt>
   <trkpt lat="37.5367913" lon="126.8786906"></trkpt>
   <trkpt lat="37.5365269" lon="126.8779447"></trkpt>
   <trkpt lat="37.5364766" lon="126.8778025"></trkpt>
   <trkpt lat="37.5363752" lon="126.8775441"></trkpt>
   <trkpt lat="37.5362511" lon="126.8772588"></trkpt>
   <trkpt lat="37.5361092" lon="126.8770098"></trkpt>
   <trkpt lat="37.5360519" lon="126.8769152"></trkpt>
   <trkpt lat="37.5357382" lon="126.8765613"></trkpt>
   <trkpt lat="37.5357382" lon="126.8765613"></trkpt>
   <trkpt lat="37.535663" lon="126.8766592"></trkpt>
   <trkpt lat="37.53562" lon="126.8767151"></trkpt>
   <trkpt lat="37.53562" lon="126.8767151"></trkpt>
   <trkpt lat="37.5354722" lon="126.8765533"></trkpt>
   <trkpt lat="37.5354722" lon="126.8765533"></trkpt>
   <trkpt lat="37.535276" lon="126.8767824"></trkpt>
   <trkpt lat="37.5352431" lon="126.8768563"></trkpt>
   <trkpt lat="37.5352295" lon="126.8770126"></trkpt>
   <trkpt lat="37.5352088" lon="126.8770331"></trkpt>
   <trkpt lat="37.5351656" lon="126.8770392"></trkpt>
   <trkpt lat="37.5349744" lon="126.8770147"></trkpt>
   <trkpt lat="37.5347967" lon="126.8769936"></trkpt>
   <trkpt lat="37.5347967" lon="126.8769936"></trkpt>
   <trkpt lat="37.5349744" lon="126.8770147"></trkpt>
   <trkpt lat="37.5351656" lon="126.8770392"></trkpt>
   <trkpt lat="37.5352088" lon="126.8770331"></trkpt>
   <trkpt lat="37.5352295" lon="126.8770126"></trkpt>
   <trkpt lat="37.5352431" lon="126.8768563"></trkpt>
   <trkpt lat="37.535276" lon="126.8767824"></trkpt>
   <trkpt lat="37.5354722" lon="126.8765533"></trkpt>
   <trkpt lat="37.5354722" lon="126.8765533"></trkpt>
   <trkpt lat="37.53562" lon="126.8767151"></trkpt>
   <trkpt lat="37.53562" lon="126.8767151"></trkpt>
   <trkpt lat="37.535663" lon="126.8766592"></trkpt>
   <trkpt lat="37.5357382" lon="126.8765613"></trkpt>
   <trkpt lat="37.5357382" lon="126.8765613"></trkpt>
   <trkpt lat="37.5360519" lon="126.8769152"></trkpt>
   <trkpt lat="37.5361092" lon="126.8770098"></trkpt>
   <trkpt lat="37.5362511" lon="126.8772588"></trkpt>
   <trkpt lat="37.5363752" lon="126.8775441"></trkpt>
   <trkpt lat="37.5364766" lon="126.8778025"></trkpt>
   <trkpt lat="37.5365269" lon="126.8779447"></trkpt>
   <trkpt lat="37.5367913" lon="126.8786906"></trkpt>
   <trkpt lat="37.5370147" lon="126.8793453"></trkpt>
   <trkpt lat="37.5371865" lon="126.879791"></trkpt>
   <trkpt lat="37.5372175" lon="126.8798507"></trkpt>
   <trkpt lat="37.5372302" lon="126.8798687"></trkpt>
   <trkpt lat="37.5372302" lon="126.8798687"></trkpt>
   <trkpt lat="37.5372492" lon="126.8798799"></trkpt>
   <trkpt lat="37.5372988" lon="126.8798987"></trkpt>
   <trkpt lat="37.5374094" lon="126.8798366"></trkpt>
   <trkpt lat="37.5376583" lon="126.8796908"></trkpt>
   <trkpt lat="37.5378367" lon="126.8795094"></trkpt>
   <trkpt lat="37.5378949" lon="126.8794444"></trkpt>
   <trkpt lat="37.5379459" lon="126.8793715"></trkpt>
   <trkpt lat="37.5380202" lon="126.8792656"></trkpt>
   <trkpt lat="37.5380782" lon="126.8791565"></trkpt>
   <trkpt lat="37.5381424" lon="126.8790258"></trkpt>
   <trkpt lat="37.5381788" lon="126.8789259"></trkpt>
   <trkpt lat="37.5383154" lon="126.8785003"></trkpt>
   <trkpt lat="37.5383722" lon="126.8783266"></trkpt>
   <trkpt lat="37.5384032" lon="126.87822"></trkpt>
   <trkpt lat="37.5384458" lon="126.878094"></trkpt>
   <trkpt lat="37.5385896" lon="126.8776751"></trkpt>
   <trkpt lat="37.5386659" lon="126.8774526"></trkpt>
   <trkpt lat="37.5386899" lon="126.8773788"></trkpt>
   <trkpt lat="37.5387191" lon="126.8772869"></trkpt>
   <trkpt lat="37.5388938" lon="126.8767444"></trkpt>
   <trkpt lat="37.539014" lon="126.8764502"></trkpt>
   <trkpt lat="37.5390522" lon="126.8763435"></trkpt>
   <trkpt lat="37.5391458" lon="126.8761537"></trkpt>
   <trkpt lat="37.5391663" lon="126.876115"></trkpt>
   <trkpt lat="37.5391833" lon="126.8760855"></trkpt>
   <trkpt lat="37.539395" lon="126.8757283"></trkpt>
   <trkpt lat="37.5397505" lon="126.8751129"></trkpt>
   <trkpt lat="37.5397449" lon="126.8750734"></trkpt>
   <trkpt lat="37.5397321" lon="126.8750474"></trkpt>
   <trkpt lat="37.5397131" lon="126.8750284"></trkpt>
   <trkpt lat="37.5397131" lon="126.8750284"></trkpt>
   <trkpt lat="37.5397274" lon="126.8749999"></trkpt>
   <trkpt lat="37.5397809" lon="126.8748886"></trkpt>
   <trkpt lat="37.5398121" lon="126.8748283"></trkpt>
   <trkpt lat="37.5398121" lon="126.8748283"></trkpt>
   <trkpt lat="37.5399044" lon="126.8749068"></trkpt>
   <trkpt lat="37.5400167" lon="126.8749998"></trkpt>
   <trkpt lat="37.5400782" lon="126.8750446"></trkpt>
   <trkpt lat="37.5403362" lon="126.8752575"></trkpt>
  </trkseg>
 </trk>
</gpx>
