<?xml version="1.0" encoding="UTF-8"?>
<gpx creator="daengrun-naver-route" version="1.1" xmlns="http://www.topografix.com/GPX/1/1" xmlns:xsi="http://www.w3.org/2001/XMLSchema-instance" xsi:schemaLocation="http://www.topografix.com/GPX/1/1 http://www.topografix.com/GPX/1/1/gpx.xsd">
 <metadata>
  <name>양천 신트리공원 루프 2.38km</name>
  <desc>daengrun candidate geometry — measured 2.38km via Naver pedestrian router (o=flat, 계단회피). Elevation NOT available from this source. stairs=0 crosswalk=7 steppingstone=0 underpass=0 overpass=0</desc>
  <link href="naver:1buv00l"><text>daengrun route id</text></link>
  <copyright author="NAVER Corp."><license>https://map.naver.com/</license></copyright>
 </metadata>
 <trk>
  <name>양천 신트리공원 루프 2.38km</name>
  <trkseg>
   <trkpt lat="37.5138325" lon="126.8545439"></trkpt>
   <trkpt lat="37.5137052" lon="126.8541738"></trkpt>
   <trkpt lat="37.5136154" lon="126.8539143"></trkpt>
   <trkpt lat="37.5135458" lon="126.8537158"></trkpt>
   <trkpt lat="37.5135266" lon="126.8536594"></trkpt>
   <trkpt lat="37.5134716" lon="126.8535014"></trkpt>
   <trkpt lat="37.5134084" lon="126.8533175"></trkpt>
   <trkpt lat="37.5134084" lon="126.8533175"></trkpt>
   <trkpt lat="37.5130194" lon="126.8535404"></trkpt>
   <trkpt lat="37.5130142" lon="126.8535755"></trkpt>
   <trkpt lat="37.5130134" lon="126.8535982"></trkpt>
   <trkpt lat="37.5130199" lon="126.8536275"></trkpt>
   <trkpt lat="37.5130199" lon="126.8536275"></trkpt>
   <trkpt lat="37.5130409" lon="126.8536896"></trkpt>
   <trkpt lat="37.5133807" lon="126.8546813"></trkpt>
   <trkpt lat="37.5134614" lon="126.854925"></trkpt>
   <trkpt lat="37.5136665" lon="126.8555173"></trkpt>
   <trkpt lat="37.513692" lon="126.8555578"></trkpt>
   <trkpt lat="37.5137074" lon="126.8555746"></trkpt>
   <trkpt lat="37.51373" lon="126.8555869"></trkpt>
   <trkpt lat="37.5137652" lon="126.8555979"></trkpt>
   <trkpt lat="37.5137905" lon="126.8555966"></trkpt>
   <trkpt lat="37.5138363" lon="126.8555747"></trkpt>
   <trkpt lat="37.5138363" lon="126.8555747"></trkpt>
   <trkpt lat="37.5138877" lon="126.8557417"></trkpt>
   <trkpt lat="37.5139362" lon="126.8558827"></trkpt>
   <trkpt lat="37.5139362" lon="126.8558827"></trkpt>
   <trkpt lat="37.5143929" lon="126.8556525"></trkpt>
   <trkpt lat="37.5143929" lon="126.8556525"></trkpt>
   <trkpt lat="37.5144391" lon="126.8558626"></trkpt>
   <trkpt lat="37.5144391" lon="126.8558626"></trkpt>
   <trkpt lat="37.5144652" lon="126.8558521"></trkpt>
   <trkpt lat="37.5145282" lon="126.8558505"></trkpt>
   <trkpt lat="37.5146546" lon="126.8558777"></trkpt>
   <trkpt lat="37.5146609" lon="126.8558821"></trkpt>
   <trkpt lat="37.5146609" lon="126.8558821"></trkpt>
   <trkpt lat="37.5145147" lon="126.8563496"></trkpt>
   <trkpt lat="37.5145103" lon="126.8563643"></trkpt>
   <trkpt lat="37.5145207" lon="126.8564446"></trkpt>
   <trkpt lat="37.5145446" lon="126.856536"></trkpt>
   <trkpt lat="37.5145446" lon="126.856536"></trkpt>
   <trkpt lat="37.5145207" lon="126.8564446"></trkpt>
   <trkpt lat="37.5145103" lon="126.8563643"></trkpt>
   <trkpt lat="37.5145147" lon="126.8563496"></trkpt>
   <trkpt lat="37.5145147" lon="126.8563496"></trkpt>
   <trkpt lat="37.5143827" lon="126.8562727"></trkpt>
   <trkpt lat="37.5141853" lon="126.8560978"></trkpt>
   <trkpt lat="37.5141853" lon="126.8560978"></trkpt>
   <trkpt lat="37.5141453" lon="126.8562"></trkpt>
   <trkpt lat="37.5141343" lon="126.8563416"></trkpt>
   <trkpt lat="37.514162" lon="126.8564613"></trkpt>
   <trkpt lat="37.514162" lon="126.8564613"></trkpt>
   <trkpt lat="37.5140452" lon="126.8565211"></trkpt>
   <trkpt lat="37.5140452" lon="126.8565211"></trkpt>
   <trkpt lat="37.5142763" lon="126.8572478"></trkpt>
   <trkpt lat="37.5142763" lon="126.8572478"></trkpt>
   <trkpt lat="37.5141442" lon="126.8573203"></trkpt>
   <trkpt lat="37.5140516" lon="126.8573776"></trkpt>
   <trkpt lat="37.5140516" lon="126.8573776"></trkpt>
   <trkpt lat="37.5140599" lon="126.8574126"></trkpt>
   <trkpt lat="37.514081" lon="126.8574769"></trkpt>
   <trkpt lat="37.5137038" lon="126.8578909"></trkpt>
   <trkpt lat="37.5133713" lon="126.8582389"></trkpt>
   <trkpt lat="37.5133363" lon="126.8582754"></trkpt>
   <trkpt lat="37.5133229" lon="126.8582891"></trkpt>
   <trkpt lat="37.5131043" lon="126.8585286"></trkpt>
   <trkpt lat="37.5130129" lon="126.8586301"></trkpt>
   <trkpt lat="37.5130129" lon="126.8586301"></trkpt>
   <trkpt lat="37.5131043" lon="126.8585286"></trkpt>
   <trkpt lat="37.5133229" lon="126.8582891"></trkpt>
   <trkpt lat="37.5133363" lon="126.8582754"></trkpt>
   <trkpt lat="37.5133713" lon="126.8582389"></trkpt>
   <trkpt lat="37.5137038" lon="126.8578909"></trkpt>
   <trkpt lat="37.514081" lon="126.8574769"></trkpt>
   <trkpt lat="37.514081" lon="126.8574769"></trkpt>
   <trkpt lat="37.5140599" lon="126.8574126"></trkpt>
   <trkpt lat="37.5140516" lon="126.8573776"></trkpt>
   <trkpt lat="37.5137917" lon="126.8566545"></trkpt>
   <trkpt lat="37.5136234" lon="126.8562056"></trkpt>
   <trkpt lat="37.5136016" lon="126.8561651"></trkpt>
   <trkpt lat="37.5135789" lon="126.8561449"></trkpt>
   <trkpt lat="37.5135582" lon="126.8561406"></trkpt>
   <trkpt lat="37.5135446" lon="126.8561407"></trkpt>
   <trkpt lat="37.5135068" lon="126.8561444"></trkpt>
   <trkpt lat="37.5135068" lon="126.8561444"></trkpt>
   <trkpt lat="37.5134446" lon="126.8559752"></trkpt>
   <trkpt lat="37.5134071" lon="126.8558714"></trkpt>
   <trkpt lat="37.5134071" lon="126.8558714"></trkpt>
   <trkpt lat="37.5134421" lon="126.8558496"></trkpt>
   <trkpt lat="37.5134609" lon="126.8558234"></trkpt>
   <trkpt lat="37.5134752" lon="126.8557939"></trkpt>
   <trkpt lat="37.5134731" lon="126.855752"></trkpt>
   <trkpt lat="37.5134666" lon="126.8557193"></trkpt>
   <trkpt lat="37.5134419" lon="126.8556437"></trkpt>
   <trkpt lat="37.5132376" lon="126.8550435"></trkpt>
   <trkpt lat="37.5131772" lon="126.8548709"></trkpt>
   <trkpt lat="37.5131772" lon="126.8548709"></trkpt>
   <trkpt lat="37.5131543" lon="126.8548066"></trkpt>
   <trkpt lat="37.5131341" lon="126.8547468"></trkpt>
   <trkpt lat="37.5131341" lon="126.8547468"></trkpt>
   <trkpt lat="37.512809" lon="126.8538025"></trkpt>
   <trkpt lat="37.5127843" lon="126.8537371"></trkpt>
   <trkpt lat="37.5127707" lon="126.8537236"></trkpt>
   <trkpt lat="37.5127526" lon="126.8537147"></trkpt>
   <trkpt lat="37.5127247" lon="126.8537127"></trkpt>
   <trkpt lat="37.5127247" lon="126.8537127"></trkpt>
   <trkpt lat="37.5126927" lon="126.8536304"></trkpt>
   <trkpt lat="37.5126753" lon="126.8535819"></trkpt>
   <trkpt lat="37.5126753" lon="126.8535819"></trkpt>
   <trkpt lat="37.5126941" lon="126.8535659"></trkpt>
   <trkpt lat="37.5127111" lon="126.8535385"></trkpt>
   <trkpt lat="37.5127136" lon="126.8535046"></trkpt>
   <trkpt lat="37.5127044" lon="126.8534685"></trkpt>
   <trkpt lat="37.5126879" lon="126.8534188"></trkpt>
   <trkpt lat="37.5121794" lon="126.851907"></trkpt>
   <trkpt lat="37.5121565" lon="126.8518427"></trkpt>
   <trkpt lat="37.5121565" lon="126.8518427"></trkpt>
   <trkpt lat="37.5121375" lon="126.8518247"></trkpt>
   <trkpt lat="37.512105" lon="126.8518205"></trkpt>
   <trkpt lat="37.5120816" lon="126.851832"></trkpt>
   <trkpt lat="37.5116277" lon="126.8520554"></trkpt>
   <trkpt lat="37.5116277" lon="126.8520554"></trkpt>
   <trkpt lat="37.5116669" lon="126.8521366"></trkpt>
   <trkpt lat="37.5116805" lon="126.8521625"></trkpt>
   <trkpt lat="37.5116805" lon="126.8521625"></trkpt>
   <trkpt lat="37.5118251" lon="126.852056"></trkpt>
   <trkpt lat="37.5119615" lon="126.8519462"></trkpt>
   <trkpt lat="37.5120091" lon="126.8519209"></trkpt>
   <trkpt lat="37.5120515" lon="126.851925"></trkpt>
   <trkpt lat="37.5120795" lon="126.8519327"></trkpt>
   <trkpt lat="37.5120958" lon="126.8519473"></trkpt>
   <trkpt lat="37.512113" lon="126.8519709"></trkpt>
   <trkpt lat="37.512134" lon="126.8520216"></trkpt>
   <trkpt lat="37.5122018" lon="126.8522145"></trkpt>
   <trkpt lat="37.5122002" lon="126.852253"></trkpt>
   <trkpt lat="37.5121878" lon="126.8522961"></trkpt>
   <trkpt lat="37.5120288" lon="126.8523858"></trkpt>
   <trkpt lat="37.5120288" lon="126.8523858"></trkpt>
   <trkpt lat="37.5120279" lon="126.8523858"></trkpt>
   <trkpt lat="37.5121878" lon="126.8522961"></trkpt>
   <trkpt lat="37.5122002" lon="126.852253"></trkpt>
   <trkpt lat="37.5122018" lon="126.8522145"></trkpt>
   <trkpt lat="37.512134" lon="126.8520216"></trkpt>
   <trkpt lat="37.512113" lon="126.8519709"></trkpt>
   <trkpt lat="37.5120958" lon="126.8519473"></trkpt>
   <trkpt lat="37.5120795" lon="126.8519327"></trkpt>
   <trkpt lat="37.5120515" lon="126.851925"></trkpt>
   <trkpt lat="37.5120091" lon="126.8519209"></trkpt>
   <trkpt lat="37.5119615" lon="126.8519462"></trkpt>
   <trkpt lat="37.5118251" lon="126.852056"></trkpt>
   <trkpt lat="37.5116805" lon="126.8521625"></trkpt>
   <trkpt lat="37.5116805" lon="126.8521625"></trkpt>
   <trkpt lat="37.5116669" lon="126.8521366"></trkpt>
   <trkpt lat="37.5116277" lon="126.8520554"></trkpt>
   <trkpt lat="37.5116277" lon="126.8520554"></trkpt>
   <trkpt lat="37.5120816" lon="126.851832"></trkpt>
   <trkpt lat="37.512105" lon="126.8518205"></trkpt>
   <trkpt lat="37.5121375" lon="126.8518247"></trkpt>
   <trkpt lat="37.5121565" lon="126.8518427"></trkpt>
   <trkpt lat="37.5121794" lon="126.851907"></trkpt>
   <trkpt lat="37.5121794" lon="126.851907"></trkpt>
   <trkpt lat="37.5122531" lon="126.8518667"></trkpt>
   <trkpt lat="37.5123645" lon="126.8518047"></trkpt>
   <trkpt lat="37.5123645" lon="126.8518047"></trkpt>
   <trkpt lat="37.5129004" lon="126.8533683"></trkpt>
   <trkpt lat="37.5129204" lon="126.8533998"></trkpt>
   <trkpt lat="37.5129366" lon="126.8534065"></trkpt>
   <trkpt lat="37.512951" lon="126.8534075"></trkpt>
   <trkpt lat="37.5129726" lon="126.8533982"></trkpt>
   <trkpt lat="37.5129726" lon="126.8533982"></trkpt>
   <trkpt lat="37.5129919" lon="126.8534569"></trkpt>
   <trkpt lat="37.5130194" lon="126.8535404"></trkpt>
   <trkpt lat="37.5130194" lon="126.8535404"></trkpt>
   <trkpt lat="37.5134084" lon="126.8533175"></trkpt>
   <trkpt lat="37.5134084" lon="126.8533175"></trkpt>
   <trkpt lat="37.5134716" lon="126.8535014"></trkpt>
   <trkpt lat="37.5135266" lon="126.8536594"></trkpt>
   <trkpt lat="37.5135458" lon="126.8537158"></trkpt>
   <trkpt lat="37.5136154" lon="126.8539143"></trkpt>
   <trkpt lat="37.5137052" lon="126.8541738"></trkpt>
   <trkpt lat="37.5138325" lon="126.8545439"></trkpt>
  </trkseg>
 </trk>
</gpx>
