<?xml version="1.0" encoding="UTF-8"?>
<gpx creator="daengrun-naver-route" version="1.1" xmlns="http://www.topografix.com/GPX/1/1" xmlns:xsi="http://www.w3.org/2001/XMLSchema-instance" xsi:schemaLocation="http://www.topografix.com/GPX/1/1 http://www.topografix.com/GPX/1/1/gpx.xsd">
 <metadata>
  <name>영등포 앙카라공원·평화공원 루프 2.59km</name>
  <desc>daengrun candidate geometry — measured 2.59km via Naver pedestrian router (o=flat, 계단회피). Elevation NOT available from this source. stairs=0 crosswalk=2 steppingstone=0 underpass=0 overpass=0</desc>
  <link href="naver:12o7vh1"><text>daengrun route id</text></link>
  <copyright author="NAVER Corp."><license>https://map.naver.com/</license></copyright>
 </metadata>
 <trk>
  <name>영등포 앙카라공원·평화공원 루프 2.59km</name>
  <trkseg>
   <trkpt lat="37.5186459" lon="126.9325317"></trkpt>
   <trkpt lat="37.5191583" lon="126.9320423"></trkpt>
   <trkpt lat="37.5191583" lon="126.9320423"></trkpt>
   <trkpt lat="37.5189011" lon="126.9316064"></trkpt>
   <trkpt lat="37.5186858" lon="126.9312538"></trkpt>
   <trkpt lat="37.5185894" lon="126.9310927"></trkpt>
   <trkpt lat="37.5184686" lon="126.9308865"></trkpt>
   <trkpt lat="37.5184622" lon="126.9308798"></trkpt>
   <trkpt lat="37.5184586" lon="126.9308753"></trkpt>
   <trkpt lat="37.5184586" lon="126.9308753"></trkpt>
   <trkpt lat="37.5184433" lon="126.9308743"></trkpt>
   <trkpt lat="37.518391" lon="126.9308837"></trkpt>
   <trkpt lat="37.518407" lon="126.9308361"></trkpt>
   <trkpt lat="37.5184132" lon="126.9308066"></trkpt>
   <trkpt lat="37.5184132" lon="126.9308066"></trkpt>
   <trkpt lat="37.5184077" lon="126.9307908"></trkpt>
   <trkpt lat="37.5173789" lon="126.9292223"></trkpt>
   <trkpt lat="37.5172462" lon="126.9289857"></trkpt>
   <trkpt lat="37.5172171" lon="126.928935"></trkpt>
   <trkpt lat="37.5171881" lon="126.9289114"></trkpt>
   <trkpt lat="37.5171521" lon="126.9289083"></trkpt>
   <trkpt lat="37.5171133" lon="126.9289165"></trkpt>
   <trkpt lat="37.5171133" lon="126.9289165"></trkpt>
   <trkpt lat="37.5170837" lon="126.9289383"></trkpt>
   <trkpt lat="37.5170569" lon="126.9289803"></trkpt>
   <trkpt lat="37.5170417" lon="126.9290212"></trkpt>
   <trkpt lat="37.5170338" lon="126.929062"></trkpt>
   <trkpt lat="37.5170349" lon="126.9291061"></trkpt>
   <trkpt lat="37.5170934" lon="126.9300132"></trkpt>
   <trkpt lat="37.5171327" lon="126.9304972"></trkpt>
   <trkpt lat="37.5171327" lon="126.9304972"></trkpt>
   <trkpt lat="37.5170934" lon="126.9300132"></trkpt>
   <trkpt lat="37.5170349" lon="126.9291061"></trkpt>
   <trkpt lat="37.5170338" lon="126.929062"></trkpt>
   <trkpt lat="37.5170417" lon="126.9290212"></trkpt>
   <trkpt lat="37.5170569" lon="126.9289803"></trkpt>
   <trkpt lat="37.5170837" lon="126.9289383"></trkpt>
   <trkpt lat="37.5171133" lon="126.9289165"></trkpt>
   <trkpt lat="37.5171133" lon="126.9289165"></trkpt>
   <trkpt lat="37.5171521" lon="126.9289083"></trkpt>
   <trkpt lat="37.5171881" lon="126.9289114"></trkpt>
   <trkpt lat="37.5172171" lon="126.928935"></trkpt>
   <trkpt lat="37.5172462" lon="126.9289857"></trkpt>
   <trkpt lat="37.5173789" lon="126.9292223"></trkpt>
   <trkpt lat="37.5184077" lon="126.9307908"></trkpt>
   <trkpt lat="37.5184132" lon="126.9308066"></trkpt>
   <trkpt lat="37.5184132" lon="126.9308066"></trkpt>
   <trkpt lat="37.518407" lon="126.9308361"></trkpt>
   <trkpt lat="37.518391" lon="126.9308837"></trkpt>
   <trkpt lat="37.5184433" lon="126.9308743"></trkpt>
   <trkpt lat="37.5184586" lon="126.9308753"></trkpt>
   <trkpt lat="37.5184586" lon="126.9308753"></trkpt>
   <trkpt lat="37.5184622" lon="126.9308798"></trkpt>
   <trkpt lat="37.5184686" lon="126.9308865"></trkpt>
   <trkpt lat="37.5185894" lon="126.9310927"></trkpt>
   <trkpt lat="37.5186858" lon="126.9312538"></trkpt>
   <trkpt lat="37.5189011" lon="126.9316064"></trkpt>
   <trkpt lat="37.5191583" lon="126.9320423"></trkpt>
   <trkpt lat="37.5193962" lon="126.9324095"></trkpt>
   <trkpt lat="37.5195341" lon="126.932611"></trkpt>
   <trkpt lat="37.5195968" lon="126.9327089"></trkpt>
   <trkpt lat="37.5196114" lon="126.9327394"></trkpt>
   <trkpt lat="37.5196206" lon="126.9327733"></trkpt>
   <trkpt lat="37.5196262" lon="126.932823"></trkpt>
   <trkpt lat="37.5196273" lon="126.9328705"></trkpt>
   <trkpt lat="37.5196273" lon="126.9328705"></trkpt>
   <trkpt lat="37.519713" lon="126.9328744"></trkpt>
   <trkpt lat="37.5198466" lon="126.9330997"></trkpt>
   <trkpt lat="37.5198246" lon="126.9332278"></trkpt>
   <trkpt lat="37.5198246" lon="126.9332278"></trkpt>
   <trkpt lat="37.5198626" lon="126.9332399"></trkpt>
   <trkpt lat="37.5199466" lon="126.9332891"></trkpt>
   <trkpt lat="37.5199955" lon="126.9333261"></trkpt>
   <trkpt lat="37.5200227" lon="126.9333655"></trkpt>
   <trkpt lat="37.520109" lon="126.9335142"></trkpt>
   <trkpt lat="37.5203079" lon="126.9338273"></trkpt>
   <trkpt lat="37.5203643" lon="126.9339174"></trkpt>
   <trkpt lat="37.5205768" lon="126.934253"></trkpt>
   <trkpt lat="37.5206541" lon="126.9343939"></trkpt>
   <trkpt lat="37.5209384" lon="126.9348659"></trkpt>
   <trkpt lat="37.5210157" lon="126.9349932"></trkpt>
   <trkpt lat="37.5212946" lon="126.9354539"></trkpt>
   <trkpt lat="37.521369" lon="126.9355677"></trkpt>
   <trkpt lat="37.5215471" lon="126.935856"></trkpt>
   <trkpt lat="37.5216089" lon="126.9359563"></trkpt>
   <trkpt lat="37.5217961" lon="126.9362865"></trkpt>
   <trkpt lat="37.5218333" lon="126.9363439"></trkpt>
   <trkpt lat="37.5221113" lon="126.9367945"></trkpt>
   <trkpt lat="37.5221113" lon="126.9367945"></trkpt>
   <trkpt lat="37.5220091" lon="126.9369073"></trkpt>
   <trkpt lat="37.5219628" lon="126.9370231"></trkpt>
   <trkpt lat="37.5212838" lon="126.9377162"></trkpt>
   <trkpt lat="37.5211577" lon="126.9377386"></trkpt>
   <trkpt lat="37.5210107" lon="126.937914"></trkpt>
   <trkpt lat="37.5209586" lon="126.9379642"></trkpt>
   <trkpt lat="37.5209586" lon="126.9379642"></trkpt>
   <trkpt lat="37.5210107" lon="126.937914"></trkpt>
   <trkpt lat="37.5211577" lon="126.9377386"></trkpt>
   <trkpt lat="37.5212838" lon="126.9377162"></trkpt>
   <trkpt lat="37.5219628" lon="126.9370231"></trkpt>
   <trkpt lat="37.5220091" lon="126.9369073"></trkpt>
   <trkpt lat="37.5221113" lon="126.9367945"></trkpt>
   <trkpt lat="37.5221113" lon="126.9367945"></trkpt>
   <trkpt lat="37.5218333" lon="126.9363439"></trkpt>
   <trkpt lat="37.5217961" lon="126.9362865"></trkpt>
   <trkpt lat="37.5216089" lon="126.9359563"></trkpt>
   <trkpt lat="37.5215471" lon="126.935856"></trkpt>
   <trkpt lat="37.521369" lon="126.9355677"></trkpt>
   <trkpt lat="37.5212946" lon="126.9354539"></trkpt>
   <trkpt lat="37.5210157" lon="126.9349932"></trkpt>
   <trkpt lat="37.5209384" lon="126.9348659"></trkpt>
   <trkpt lat="37.5206541" lon="126.9343939"></trkpt>
   <trkpt lat="37.5205768" lon="126.934253"></trkpt>
   <trkpt lat="37.5203643" lon="126.9339174"></trkpt>
   <trkpt lat="37.5203079" lon="126.9338273"></trkpt>
   <trkpt lat="37.520109" lon="126.9335142"></trkpt>
   <trkpt lat="37.5200227" lon="126.9333655"></trkpt>
   <trkpt lat="37.5199955" lon="126.9333261"></trkpt>
   <trkpt lat="37.5199466" lon="126.9332891"></trkpt>
   <trkpt lat="37.5198626" lon="126.9332399"></trkpt>
   <trkpt lat="37.5198246" lon="126.9332278"></trkpt>
   <trkpt lat="37.5198246" lon="126.9332278"></trkpt>
   <trkpt lat="37.5198466" lon="126.9330997"></trkpt>
   <trkpt lat="37.519713" lon="126.9328744"></trkpt>
   <trkpt lat="37.5196273" lon="126.9328705"></trkpt>
   <trkpt lat="37.5196273" lon="126.9328705"></trkpt>
   <trkpt lat="37.5196262" lon="126.932823"></trkpt>
   <trkpt lat="37.5196206" lon="126.9327733"></trkpt>
   <trkpt lat="37.5196114" lon="126.9327394"></trkpt>
   <trkpt lat="37.5195968" lon="126.9327089"></trkpt>
   <trkpt lat="37.5195341" lon="126.932611"></trkpt>
   <trkpt lat="37.5193962" lon="126.9324095"></trkpt>
   <trkpt lat="37.5191583" lon="126.9320423"></trkpt>
   <trkpt lat="37.5191583" lon="126.9320423"></trkpt>
   <trkpt lat="37.5186459" lon="126.9325317"></trkpt>
  </trkseg>
 </trk>
</gpx>
