<?xml version="1.0" encoding="UTF-8"?>
<gpx creator="StravaGPX" version="1.1" xmlns="http://www.topografix.com/GPX/1/1" xmlns:xsi="http://www.w3.org/2001/XMLSchema-instance" xsi:schemaLocation="http://www.topografix.com/GPX/1/1 http://www.topografix.com/GPX/1/1/gpx.xsd">
 <metadata>
  <name>영등포 안양천 문래 루프 5.69km</name>
  <desc>daengrun candidate geometry — measured 5.69km, gain 32</desc>
  <author>
   <name>S Kim</name>
   <link href="https://www.strava.com/athletes/558867461"/>
  </author>
  <copyright author="OpenStreetMap contributors">
   <year>2020</year>
   <license>https://www.openstreetmap.org/copyright</license>
  </copyright>
  <link href="https://www.strava.com/routes/3524978352962523544"/>
 </metadata>
 <trk>
  <name>영등포 안양천 문래 루프 5.69km</name>
  <desc>daengrun candidate geometry — measured 5.69km, gain 32</desc>
  <link href="https://www.strava.com/routes/3524978352962523544"/>
  <type>running</type>
  <trkseg>
   <trkpt lat="37.520810000000004" lon="126.88299">
    <ele>13.83</ele>
   </trkpt>
   <trkpt lat="37.520720000000004" lon="126.88360000000002">
    <ele>13.9</ele>
   </trkpt>
   <trkpt lat="37.520770000000006" lon="126.88362000000001">
    <ele>13.9</ele>
   </trkpt>
   <trkpt lat="37.520680001427316" lon="126.88420500080527">
    <ele>13.950000000000001</ele>
   </trkpt>
   <trkpt lat="37.520590000000006" lon="126.88479000000001">
    <ele>14.020000000000001</ele>
   </trkpt>
   <trkpt lat="37.52066000000001" lon="126.88480000000001">
    <ele>13.950000000000001</ele>
   </trkpt>
   <trkpt lat="37.520700000000005" lon="126.88492000000001">
    <ele>14.05</ele>
   </trkpt>
   <trkpt lat="37.520790000000005" lon="126.88498000000001">
    <ele>14.07</ele>
   </trkpt>
   <trkpt lat="37.521330000000006" lon="126.88512000000001">
    <ele>13.98</ele>
   </trkpt>
   <trkpt lat="37.52138" lon="126.88508000000002">
    <ele>13.98</ele>
   </trkpt>
   <trkpt lat="37.521825000008945" lon="126.88521499917424">
    <ele>14.110000000000001</ele>
   </trkpt>
   <trkpt lat="37.522270000000006" lon="126.88535000000002">
    <ele>13.930000000000001</ele>
   </trkpt>
   <trkpt lat="37.52275" lon="126.88546000000001">
    <ele>14.14</ele>
   </trkpt>
   <trkpt lat="37.52286" lon="126.88539000000002">
    <ele>14.180000000000001</ele>
   </trkpt>
   <trkpt lat="37.52310000000001" lon="126.88545">
    <ele>14.39</ele>
   </trkpt>
   <trkpt lat="37.52313" lon="126.88552000000001">
    <ele>14.39</ele>
   </trkpt>
   <trkpt lat="37.52310000000001" lon="126.88574000000001">
    <ele>14.38</ele>
   </trkpt>
   <trkpt lat="37.523050000000005" lon="126.88581">
    <ele>14.38</ele>
   </trkpt>
   <trkpt lat="37.522940000000006" lon="126.88661">
    <ele>14.640000000000002</ele>
   </trkpt>
   <trkpt lat="37.522870000000005" lon="126.88679">
    <ele>14.770000000000001</ele>
   </trkpt>
   <trkpt lat="37.52275" lon="126.88780000000001">
    <ele>14.89</ele>
   </trkpt>
   <trkpt lat="37.522580000000005" lon="126.88891000000001">
    <ele>15.06</ele>
   </trkpt>
   <trkpt lat="37.5232050000072" lon="126.88905999872237">
    <ele>16.75</ele>
   </trkpt>
   <trkpt lat="37.523830000000004" lon="126.88921">
    <ele>17.34</ele>
   </trkpt>
   <trkpt lat="37.52320500018249" lon="126.88905999876442">
    <ele>16.75</ele>
   </trkpt>
   <trkpt lat="37.522580000000005" lon="126.88891000000001">
    <ele>15.06</ele>
   </trkpt>
   <trkpt lat="37.522510000000004" lon="126.88951000000002">
    <ele>15.1</ele>
   </trkpt>
   <trkpt lat="37.522540000000006" lon="126.88968000000001">
    <ele>15.1</ele>
   </trkpt>
   <trkpt lat="37.522600000000004" lon="126.88979">
    <ele>15.13</ele>
   </trkpt>
   <trkpt lat="37.52244" lon="126.88990000000001">
    <ele>15.31</ele>
   </trkpt>
   <trkpt lat="37.522380000000005" lon="126.89023000000002">
    <ele>15.27</ele>
   </trkpt>
   <trkpt lat="37.52208" lon="126.89015">
    <ele>15.600000000000001</ele>
   </trkpt>
   <trkpt lat="37.52188" lon="126.89032000000002">
    <ele>15.27</ele>
   </trkpt>
   <trkpt lat="37.52181" lon="126.89016000000001">
    <ele>15.340000000000002</ele>
   </trkpt>
   <trkpt lat="37.521710000000006" lon="126.89004000000001">
    <ele>15.520000000000001</ele>
   </trkpt>
   <trkpt lat="37.52114" lon="126.88992">
    <ele>16.03</ele>
   </trkpt>
   <trkpt lat="37.520569999998266" lon="126.88977999890979">
    <ele>16.110000000000003</ele>
   </trkpt>
   <trkpt lat="37.52" lon="126.88964000000001">
    <ele>16.560000000000002</ele>
   </trkpt>
   <trkpt lat="37.51993" lon="126.88968000000001">
    <ele>16.26</ele>
   </trkpt>
   <trkpt lat="37.519760000000005" lon="126.88964000000001">
    <ele>16.23</ele>
   </trkpt>
   <trkpt lat="37.519690000000004" lon="126.89007000000001">
    <ele>16.12</ele>
   </trkpt>
   <trkpt lat="37.519760000000005" lon="126.88964000000001">
    <ele>16.23</ele>
   </trkpt>
   <trkpt lat="37.519690000000004" lon="126.88954000000001">
    <ele>16.37</ele>
   </trkpt>
   <trkpt lat="37.51925" lon="126.88941000000001">
    <ele>16.61</ele>
   </trkpt>
   <trkpt lat="37.51862000021719" lon="126.88926999884791">
    <ele>16.26</ele>
   </trkpt>
   <trkpt lat="37.517990000000005" lon="126.88913000000001">
    <ele>15.850000000000003</ele>
   </trkpt>
   <trkpt lat="37.51744" lon="126.88897000000001">
    <ele>15.620000000000001</ele>
   </trkpt>
   <trkpt lat="37.517480000000006" lon="126.88871000000002">
    <ele>15.72</ele>
   </trkpt>
   <trkpt lat="37.51733" lon="126.88857000000002">
    <ele>15.73</ele>
   </trkpt>
   <trkpt lat="37.51726" lon="126.88856000000001">
    <ele>15.73</ele>
   </trkpt>
   <trkpt lat="37.51742251394766" lon="126.88751000682433">
    <ele>15.080000000000002</ele>
   </trkpt>
   <trkpt lat="37.517585018600585" lon="126.88646000907539">
    <ele>14.75</ele>
   </trkpt>
   <trkpt lat="37.51774751395869" lon="126.88541000675338">
    <ele>14.58</ele>
   </trkpt>
   <trkpt lat="37.51791" lon="126.88436000000002">
    <ele>14.100000000000001</ele>
   </trkpt>
   <trkpt lat="37.517240000301335" lon="126.88419666375235">
    <ele>13.860000000000001</ele>
   </trkpt>
   <trkpt lat="37.516570000377776" lon="126.88403333043769">
    <ele>13.83</ele>
   </trkpt>
   <trkpt lat="37.5159" lon="126.88387000000002">
    <ele>13.97</ele>
   </trkpt>
   <trkpt lat="37.51578000000001" lon="126.88375">
    <ele>14.200000000000001</ele>
   </trkpt>
   <trkpt lat="37.51615" lon="126.88278000000001">
    <ele>16.39</ele>
   </trkpt>
   <trkpt lat="37.51625000000001" lon="126.88280000000002">
    <ele>16.51</ele>
   </trkpt>
   <trkpt lat="37.51623" lon="126.88261000000001">
    <ele>21.43</ele>
   </trkpt>
   <trkpt lat="37.51625000000001" lon="126.88256000000001">
    <ele>21.490000000000002</ele>
   </trkpt>
   <trkpt lat="37.51615" lon="126.88256000000001">
    <ele>18.340000000000003</ele>
   </trkpt>
   <trkpt lat="37.515980000000006" lon="126.88265000000001">
    <ele>14.910000000000002</ele>
   </trkpt>
   <trkpt lat="37.5159" lon="126.88294">
    <ele>14.520000000000001</ele>
   </trkpt>
   <trkpt lat="37.515980000000006" lon="126.88265000000001">
    <ele>14.910000000000002</ele>
   </trkpt>
   <trkpt lat="37.51615" lon="126.88256000000001">
    <ele>19.3</ele>
   </trkpt>
   <trkpt lat="37.51625000000001" lon="126.88256000000001">
    <ele>21.490000000000002</ele>
   </trkpt>
   <trkpt lat="37.51623" lon="126.88261000000001">
    <ele>21.43</ele>
   </trkpt>
   <trkpt lat="37.51625000000001" lon="126.88280000000002">
    <ele>16.330000000000002</ele>
   </trkpt>
   <trkpt lat="37.51615" lon="126.88278000000001">
    <ele>16.39</ele>
   </trkpt>
   <trkpt lat="37.51585" lon="126.88268000000001">
    <ele>17.59</ele>
   </trkpt>
   <trkpt lat="37.51576" lon="126.88277000000001">
    <ele>17.1</ele>
   </trkpt>
   <trkpt lat="37.51565" lon="126.88283000000001">
    <ele>16.23</ele>
   </trkpt>
   <trkpt lat="37.515510000000006" lon="126.88299">
    <ele>13.540000000000001</ele>
   </trkpt>
   <trkpt lat="37.5154" lon="126.88304000000001">
    <ele>12.33</ele>
   </trkpt>
   <trkpt lat="37.51567000201357" lon="126.88235000247933">
    <ele>11.340000000000002</ele>
   </trkpt>
   <trkpt lat="37.51594" lon="126.88166000000001">
    <ele>11.53</ele>
   </trkpt>
   <trkpt lat="37.51599" lon="126.88158000000001">
    <ele>11.61</ele>
   </trkpt>
   <trkpt lat="37.516220000000004" lon="126.88146">
    <ele>12.31</ele>
   </trkpt>
   <trkpt lat="37.51653" lon="126.88123000000002">
    <ele>12.270000000000001</ele>
   </trkpt>
   <trkpt lat="37.516780000000004" lon="126.8803">
    <ele>11.860000000000001</ele>
   </trkpt>
   <trkpt lat="37.51684" lon="126.88024000000001">
    <ele>11.860000000000001</ele>
   </trkpt>
   <trkpt lat="37.51768000007115" lon="126.88026499972062">
    <ele>11.64</ele>
   </trkpt>
   <trkpt lat="37.51852" lon="126.88029000000002">
    <ele>11.55</ele>
   </trkpt>
   <trkpt lat="37.51856" lon="126.87928000000001">
    <ele>11.49</ele>
   </trkpt>
   <trkpt lat="37.51915999991313" lon="126.87929499987719">
    <ele>11.410000000000002</ele>
   </trkpt>
   <trkpt lat="37.519760000000005" lon="126.87931">
    <ele>11.32</ele>
   </trkpt>
   <trkpt lat="37.51975" lon="126.87931">
    <ele>11.32</ele>
   </trkpt>
   <trkpt lat="37.5191550001186" lon="126.87929499988337">
    <ele>11.410000000000002</ele>
   </trkpt>
   <trkpt lat="37.51856" lon="126.87928000000001">
    <ele>11.49</ele>
   </trkpt>
   <trkpt lat="37.51852" lon="126.88029000000002">
    <ele>11.55</ele>
   </trkpt>
   <trkpt lat="37.519410000077144" lon="126.88030999976317">
    <ele>11.430000000000001</ele>
   </trkpt>
   <trkpt lat="37.520300000000006" lon="126.88033000000001">
    <ele>11.39</ele>
   </trkpt>
   <trkpt lat="37.520720000000004" lon="126.88037000000001">
    <ele>11.430000000000001</ele>
   </trkpt>
   <trkpt lat="37.52109" lon="126.88035">
    <ele>11.31</ele>
   </trkpt>
   <trkpt lat="37.5215899998024" lon="126.88035999992903">
    <ele>11.28</ele>
   </trkpt>
   <trkpt lat="37.522090000000006" lon="126.88037000000001">
    <ele>11.32</ele>
   </trkpt>
   <trkpt lat="37.522830000000006" lon="126.88035">
    <ele>11.38</ele>
   </trkpt>
   <trkpt lat="37.52356" lon="126.88082000000001">
    <ele>11.670000000000002</ele>
   </trkpt>
   <trkpt lat="37.523610000000005" lon="126.88085000000001">
    <ele>11.66</ele>
   </trkpt>
   <trkpt lat="37.52402" lon="126.88083000000002">
    <ele>11.74</ele>
   </trkpt>
   <trkpt lat="37.524330000000006" lon="126.88090000000001">
    <ele>11.82</ele>
   </trkpt>
   <trkpt lat="37.524660000000004" lon="126.88102">
    <ele>11.850000000000001</ele>
   </trkpt>
   <trkpt lat="37.52515000013596" lon="126.88127999821319">
    <ele>11.73</ele>
   </trkpt>
   <trkpt lat="37.52564" lon="126.88154000000002">
    <ele>11.860000000000001</ele>
   </trkpt>
   <trkpt lat="37.52631" lon="126.88225000000001">
    <ele>11.83</ele>
   </trkpt>
   <trkpt lat="37.526630000000004" lon="126.88272">
    <ele>11.770000000000001</ele>
   </trkpt>
   <trkpt lat="37.526410000000006" lon="126.88293000000002">
    <ele>18.500000000000004</ele>
   </trkpt>
   <trkpt lat="37.5264" lon="126.88288000000001">
    <ele>19.06</ele>
   </trkpt>
   <trkpt lat="37.52631" lon="126.88282000000001">
    <ele>19.14</ele>
   </trkpt>
   <trkpt lat="37.5261" lon="126.88252000000001">
    <ele>19.14</ele>
   </trkpt>
   <trkpt lat="37.52579" lon="126.88216000000001">
    <ele>18.98</ele>
   </trkpt>
   <trkpt lat="37.525560000000006" lon="126.88195">
    <ele>18.89</ele>
   </trkpt>
   <trkpt lat="37.525270000000006" lon="126.88173">
    <ele>18.79</ele>
   </trkpt>
   <trkpt lat="37.525040000000004" lon="126.88158000000001">
    <ele>18.680000000000003</ele>
   </trkpt>
   <trkpt lat="37.5245" lon="126.88132000000002">
    <ele>18.39</ele>
   </trkpt>
   <trkpt lat="37.524150000000006" lon="126.88125000000001">
    <ele>17.890000000000004</ele>
   </trkpt>
   <trkpt lat="37.52402" lon="126.88109000000001">
    <ele>14.010000000000002</ele>
   </trkpt>
   <trkpt lat="37.523880000000005" lon="126.88112000000001">
    <ele>13.97</ele>
   </trkpt>
   <trkpt lat="37.523520000000005" lon="126.88115">
    <ele>13.83</ele>
   </trkpt>
   <trkpt lat="37.52349" lon="126.88115">
    <ele>13.83</ele>
   </trkpt>
   <trkpt lat="37.52337" lon="126.88106">
    <ele>13.81</ele>
   </trkpt>
   <trkpt lat="37.523300000000006" lon="126.88106">
    <ele>13.81</ele>
   </trkpt>
   <trkpt lat="37.52331" lon="126.88121000000001">
    <ele>19.03</ele>
   </trkpt>
   <trkpt lat="37.523410000000005" lon="126.88127000000001">
    <ele>19.03</ele>
   </trkpt>
   <trkpt lat="37.52347" lon="126.88133">
    <ele>19.53</ele>
   </trkpt>
   <trkpt lat="37.523500000000006" lon="126.88133">
    <ele>19.53</ele>
   </trkpt>
   <trkpt lat="37.52346" lon="126.88167000000001">
    <ele>19.110000000000003</ele>
   </trkpt>
   <trkpt lat="37.52335" lon="126.88189000000001">
    <ele>18.6</ele>
   </trkpt>
   <trkpt lat="37.52328" lon="126.88183000000001">
    <ele>14.650000000000002</ele>
   </trkpt>
   <trkpt lat="37.52322" lon="126.88183000000001">
    <ele>14.650000000000002</ele>
   </trkpt>
   <trkpt lat="37.523210000000006" lon="126.88186000000002">
    <ele>14.57</ele>
   </trkpt>
   <trkpt lat="37.522800000000004" lon="126.88190000000002">
    <ele>14.270000000000001</ele>
   </trkpt>
   <trkpt lat="37.522710000000004" lon="126.88188000000001">
    <ele>14.31</ele>
   </trkpt>
   <trkpt lat="37.522510000000004" lon="126.88187">
    <ele>14.290000000000001</ele>
   </trkpt>
   <trkpt lat="37.52183" lon="126.88194000000001">
    <ele>13.860000000000001</ele>
   </trkpt>
   <trkpt lat="37.52103" lon="126.88198000000001">
    <ele>13.8</ele>
   </trkpt>
   <trkpt lat="37.52085" lon="126.88201000000001">
    <ele>13.88</ele>
   </trkpt>
   <trkpt lat="37.52094" lon="126.88211000000001">
    <ele>13.91</ele>
   </trkpt>
   <trkpt lat="37.520810000000004" lon="126.88299">
    <ele>13.83</ele>
   </trkpt>
  </trkseg>
 </trk>
</gpx>
