<?xml version="1.0" encoding="UTF-8"?>
<gpx creator="daengrun-naver-route" version="1.1" xmlns="http://www.topografix.com/GPX/1/1" xmlns:xsi="http://www.w3.org/2001/XMLSchema-instance" xsi:schemaLocation="http://www.topografix.com/GPX/1/1 http://www.topografix.com/GPX/1/1/gpx.xsd">
 <metadata>
  <name>영등포 대방천·메낙골 근린공원 루프 4.42km</name>
  <desc>daengrun candidate geometry — measured 4.42km via Naver pedestrian router (o=flat, 계단회피). Elevation NOT available from this source. stairs=0 crosswalk=11 steppingstone=0 underpass=0 overpass=0</desc>
  <link href="naver:3vr0pg"><text>daengrun route id</text></link>
  <copyright author="NAVER Corp."><license>https://map.naver.com/</license></copyright>
 </metadata>
 <trk>
  <name>영등포 대방천·메낙골 근린공원 루프 4.42km</name>
  <trkseg>
   <trkpt lat="37.5051914" lon="126.9162564"></trkpt>
   <trkpt lat="37.505112" lon="126.9162253"></trkpt>
   <trkpt lat="37.5050596" lon="126.9162076"></trkpt>
   <trkpt lat="37.5050596" lon="126.9162076"></trkpt>
   <trkpt lat="37.5050637" lon="126.9161216"></trkpt>
   <trkpt lat="37.5050652" lon="126.9160605"></trkpt>
   <trkpt lat="37.5050652" lon="126.9160605"></trkpt>
   <trkpt lat="37.5049658" lon="126.916016"></trkpt>
   <trkpt lat="37.5048609" lon="126.9159501"></trkpt>
   <trkpt lat="37.5047741" lon="126.9158851"></trkpt>
   <trkpt lat="37.5046491" lon="126.9157673"></trkpt>
   <trkpt lat="37.5046355" lon="126.9157402"></trkpt>
   <trkpt lat="37.504629" lon="126.9157177"></trkpt>
   <trkpt lat="37.504629" lon="126.9157177"></trkpt>
   <trkpt lat="37.5046325" lon="126.9156939"></trkpt>
   <trkpt lat="37.5046634" lon="126.9155624"></trkpt>
   <trkpt lat="37.5049674" lon="126.9143313"></trkpt>
   <trkpt lat="37.5049997" lon="126.9141138"></trkpt>
   <trkpt lat="37.5050199" lon="126.914013"></trkpt>
   <trkpt lat="37.5051218" lon="126.9136547"></trkpt>
   <trkpt lat="37.5051625" lon="126.9135106"></trkpt>
   <trkpt lat="37.5052505" lon="126.9132486"></trkpt>
   <trkpt lat="37.5053437" lon="126.9129605"></trkpt>
   <trkpt lat="37.5053783" lon="126.9128516"></trkpt>
   <trkpt lat="37.5055168" lon="126.9124228"></trkpt>
   <trkpt lat="37.5056775" lon="126.911943"></trkpt>
   <trkpt lat="37.5057156" lon="126.9118171"></trkpt>
   <trkpt lat="37.5059001" lon="126.911207"></trkpt>
   <trkpt lat="37.5059243" lon="126.911183"></trkpt>
   <trkpt lat="37.5059432" lon="126.9111738"></trkpt>
   <trkpt lat="37.505963" lon="126.911168"></trkpt>
   <trkpt lat="37.50599" lon="126.9111655"></trkpt>
   <trkpt lat="37.50599" lon="126.9111655"></trkpt>
   <trkpt lat="37.506011" lon="126.9110386"></trkpt>
   <trkpt lat="37.5060303" lon="126.910922"></trkpt>
   <trkpt lat="37.5060303" lon="126.910922"></trkpt>
   <trkpt lat="37.5060131" lon="126.9109062"></trkpt>
   <trkpt lat="37.5060058" lon="126.9108893"></trkpt>
   <trkpt lat="37.5059975" lon="126.9108656"></trkpt>
   <trkpt lat="37.5059956" lon="126.9108306"></trkpt>
   <trkpt lat="37.5060001" lon="126.9102886"></trkpt>
   <trkpt lat="37.5059997" lon="126.9102094"></trkpt>
   <trkpt lat="37.5059977" lon="126.9098236"></trkpt>
   <trkpt lat="37.5059961" lon="126.9093145"></trkpt>
   <trkpt lat="37.5060001" lon="126.9092149"></trkpt>
   <trkpt lat="37.5060104" lon="126.9089353"></trkpt>
   <trkpt lat="37.5060111" lon="126.9087034"></trkpt>
   <trkpt lat="37.50601" lon="126.9084862"></trkpt>
   <trkpt lat="37.506004" lon="126.9081988"></trkpt>
   <trkpt lat="37.5060048" lon="126.9079872"></trkpt>
   <trkpt lat="37.5059926" lon="126.9075291"></trkpt>
   <trkpt lat="37.5059875" lon="126.9074228"></trkpt>
   <trkpt lat="37.5059833" lon="126.9073086"></trkpt>
   <trkpt lat="37.5059833" lon="126.9073086"></trkpt>
   <trkpt lat="37.5059767" lon="126.9072351"></trkpt>
   <trkpt lat="37.5059555" lon="126.9071538"></trkpt>
   <trkpt lat="37.5059555" lon="126.9071538"></trkpt>
   <trkpt lat="37.5059343" lon="126.9070634"></trkpt>
   <trkpt lat="37.5058793" lon="126.9068715"></trkpt>
   <trkpt lat="37.5058599" lon="126.9067823"></trkpt>
   <trkpt lat="37.5058269" lon="126.9066637"></trkpt>
   <trkpt lat="37.5057401" lon="126.906437"></trkpt>
   <trkpt lat="37.5056862" lon="126.9062983"></trkpt>
   <trkpt lat="37.5056288" lon="126.906163"></trkpt>
   <trkpt lat="37.5055887" lon="126.9060796"></trkpt>
   <trkpt lat="37.5054391" lon="126.90573"></trkpt>
   <trkpt lat="37.5053388" lon="126.9054977"></trkpt>
   <trkpt lat="37.5052814" lon="126.905385"></trkpt>
   <trkpt lat="37.5051949" lon="126.905207"></trkpt>
   <trkpt lat="37.5051621" lon="126.9051258"></trkpt>
   <trkpt lat="37.5049804" lon="126.9046667"></trkpt>
   <trkpt lat="37.5049165" lon="126.9045179"></trkpt>
   <trkpt lat="37.5048554" lon="126.9043656"></trkpt>
   <trkpt lat="37.504754" lon="126.9041017"></trkpt>
   <trkpt lat="37.5046364" lon="126.9038413"></trkpt>
   <trkpt lat="37.5045287" lon="126.9035853"></trkpt>
   <trkpt lat="37.5044859" lon="126.9034815"></trkpt>
   <trkpt lat="37.5043947" lon="126.9032888"></trkpt>
   <trkpt lat="37.5043947" lon="126.9032888"></trkpt>
   <trkpt lat="37.5043058" lon="126.9033438"></trkpt>
   <trkpt lat="37.5041835" lon="126.9034082"></trkpt>
   <trkpt lat="37.5041563" lon="126.903362"></trkpt>
   <trkpt lat="37.5041228" lon="126.9033306"></trkpt>
   <trkpt lat="37.5040858" lon="126.9033309"></trkpt>
   <trkpt lat="37.5040462" lon="126.9033368"></trkpt>
   <trkpt lat="37.5039466" lon="126.9030695"></trkpt>
   <trkpt lat="37.5039466" lon="126.9030695"></trkpt>
   <trkpt lat="37.5038209" lon="126.9031678"></trkpt>
   <trkpt lat="37.503528" lon="126.9033613"></trkpt>
   <trkpt lat="37.503263" lon="126.9035388"></trkpt>
   <trkpt lat="37.5029773" lon="126.903721"></trkpt>
   <trkpt lat="37.5027114" lon="126.903903"></trkpt>
   <trkpt lat="37.5024339" lon="126.9040952"></trkpt>
   <trkpt lat="37.5022659" lon="126.9042052"></trkpt>
   <trkpt lat="37.5021742" lon="126.9042647"></trkpt>
   <trkpt lat="37.5014942" lon="126.9047136"></trkpt>
   <trkpt lat="37.5012641" lon="126.904849"></trkpt>
   <trkpt lat="37.5010755" lon="126.9049772"></trkpt>
   <trkpt lat="37.5008464" lon="126.9051351"></trkpt>
   <trkpt lat="37.5005886" lon="126.9053148"></trkpt>
   <trkpt lat="37.5003928" lon="126.9054532"></trkpt>
   <trkpt lat="37.5003353" lon="126.9054888"></trkpt>
   <trkpt lat="37.500197" lon="126.9055747"></trkpt>
   <trkpt lat="37.500197" lon="126.9055747"></trkpt>
   <trkpt lat="37.5001294" lon="126.9055854"></trkpt>
   <trkpt lat="37.5000933" lon="126.9055744"></trkpt>
   <trkpt lat="37.5000526" lon="126.9055521"></trkpt>
   <trkpt lat="37.4999993" lon="126.9055197"></trkpt>
   <trkpt lat="37.4998337" lon="126.9053988"></trkpt>
   <trkpt lat="37.4998138" lon="126.9053809"></trkpt>
   <trkpt lat="37.4997975" lon="126.9053629"></trkpt>
   <trkpt lat="37.499783" lon="126.9053404"></trkpt>
   <trkpt lat="37.4997801" lon="126.9053178"></trkpt>
   <trkpt lat="37.4997791" lon="126.9052884"></trkpt>
   <trkpt lat="37.4998265" lon="126.9050391"></trkpt>
   <trkpt lat="37.4998855" lon="126.9047649"></trkpt>
   <trkpt lat="37.4998855" lon="126.9047649"></trkpt>
   <trkpt lat="37.4998265" lon="126.9050391"></trkpt>
   <trkpt lat="37.4997791" lon="126.9052884"></trkpt>
   <trkpt lat="37.4997801" lon="126.9053178"></trkpt>
   <trkpt lat="37.499783" lon="126.9053404"></trkpt>
   <trkpt lat="37.4997975" lon="126.9053629"></trkpt>
   <trkpt lat="37.4998138" lon="126.9053809"></trkpt>
   <trkpt lat="37.4998337" lon="126.9053988"></trkpt>
   <trkpt lat="37.4999993" lon="126.9055197"></trkpt>
   <trkpt lat="37.5000526" lon="126.9055521"></trkpt>
   <trkpt lat="37.5000933" lon="126.9055744"></trkpt>
   <trkpt lat="37.5001294" lon="126.9055854"></trkpt>
   <trkpt lat="37.500197" lon="126.9055747"></trkpt>
   <trkpt lat="37.500197" lon="126.9055747"></trkpt>
   <trkpt lat="37.5003353" lon="126.9054888"></trkpt>
   <trkpt lat="37.5003928" lon="126.9054532"></trkpt>
   <trkpt lat="37.5005886" lon="126.9053148"></trkpt>
   <trkpt lat="37.5008464" lon="126.9051351"></trkpt>
   <trkpt lat="37.5010755" lon="126.9049772"></trkpt>
   <trkpt lat="37.5012641" lon="126.904849"></trkpt>
   <trkpt lat="37.5014942" lon="126.9047136"></trkpt>
   <trkpt lat="37.5021742" lon="126.9042647"></trkpt>
   <trkpt lat="37.5022659" lon="126.9042052"></trkpt>
   <trkpt lat="37.5024339" lon="126.9040952"></trkpt>
   <trkpt lat="37.5027114" lon="126.903903"></trkpt>
   <trkpt lat="37.5029773" lon="126.903721"></trkpt>
   <trkpt lat="37.503263" lon="126.9035388"></trkpt>
   <trkpt lat="37.503528" lon="126.9033613"></trkpt>
   <trkpt lat="37.5038209" lon="126.9031678"></trkpt>
   <trkpt lat="37.5039466" lon="126.9030695"></trkpt>
   <trkpt lat="37.5039466" lon="126.9030695"></trkpt>
   <trkpt lat="37.5040462" lon="126.9033368"></trkpt>
   <trkpt lat="37.5040858" lon="126.9033309"></trkpt>
   <trkpt lat="37.5041228" lon="126.9033306"></trkpt>
   <trkpt lat="37.5041563" lon="126.903362"></trkpt>
   <trkpt lat="37.5041835" lon="126.9034082"></trkpt>
   <trkpt lat="37.5043058" lon="126.9033438"></trkpt>
   <trkpt lat="37.5043947" lon="126.9032888"></trkpt>
   <trkpt lat="37.5043947" lon="126.9032888"></trkpt>
   <trkpt lat="37.5044859" lon="126.9034815"></trkpt>
   <trkpt lat="37.5045287" lon="126.9035853"></trkpt>
   <trkpt lat="37.5046364" lon="126.9038413"></trkpt>
   <trkpt lat="37.504754" lon="126.9041017"></trkpt>
   <trkpt lat="37.5048554" lon="126.9043656"></trkpt>
   <trkpt lat="37.5049165" lon="126.9045179"></trkpt>
   <trkpt lat="37.5049804" lon="126.9046667"></trkpt>
   <trkpt lat="37.5051621" lon="126.9051258"></trkpt>
   <trkpt lat="37.5051949" lon="126.905207"></trkpt>
   <trkpt lat="37.5052814" lon="126.905385"></trkpt>
   <trkpt lat="37.5053388" lon="126.9054977"></trkpt>
   <trkpt lat="37.5054391" lon="126.90573"></trkpt>
   <trkpt lat="37.5055887" lon="126.9060796"></trkpt>
   <trkpt lat="37.5056288" lon="126.906163"></trkpt>
   <trkpt lat="37.5056862" lon="126.9062983"></trkpt>
   <trkpt lat="37.5057401" lon="126.906437"></trkpt>
   <trkpt lat="37.5058269" lon="126.9066637"></trkpt>
   <trkpt lat="37.5058599" lon="126.9067823"></trkpt>
   <trkpt lat="37.5058793" lon="126.9068715"></trkpt>
   <trkpt lat="37.5059343" lon="126.9070634"></trkpt>
   <trkpt lat="37.5059555" lon="126.9071538"></trkpt>
   <trkpt lat="37.5059555" lon="126.9071538"></trkpt>
   <trkpt lat="37.5059767" lon="126.9072351"></trkpt>
   <trkpt lat="37.5059833" lon="126.9073086"></trkpt>
   <trkpt lat="37.5059833" lon="126.9073086"></trkpt>
   <trkpt lat="37.5059875" lon="126.9074228"></trkpt>
   <trkpt lat="37.5059926" lon="126.9075291"></trkpt>
   <trkpt lat="37.5060048" lon="126.9079872"></trkpt>
   <trkpt lat="37.506004" lon="126.9081988"></trkpt>
   <trkpt lat="37.50601" lon="126.9084862"></trkpt>
   <trkpt lat="37.5060111" lon="126.9087034"></trkpt>
   <trkpt lat="37.5060104" lon="126.9089353"></trkpt>
   <trkpt lat="37.5060001" lon="126.9092149"></trkpt>
   <trkpt lat="37.5059961" lon="126.9093145"></trkpt>
   <trkpt lat="37.5059977" lon="126.9098236"></trkpt>
   <trkpt lat="37.5059997" lon="126.9102094"></trkpt>
   <trkpt lat="37.5060001" lon="126.9102886"></trkpt>
   <trkpt lat="37.5059956" lon="126.9108306"></trkpt>
   <trkpt lat="37.5059975" lon="126.9108656"></trkpt>
   <trkpt lat="37.5060058" lon="126.9108893"></trkpt>
   <trkpt lat="37.5060131" lon="126.9109062"></trkpt>
   <trkpt lat="37.5060303" lon="126.910922"></trkpt>
   <trkpt lat="37.5060303" lon="126.910922"></trkpt>
   <trkpt lat="37.506011" lon="126.9110386"></trkpt>
   <trkpt lat="37.50599" lon="126.9111655"></trkpt>
   <trkpt lat="37.50599" lon="126.9111655"></trkpt>
   <trkpt lat="37.505963" lon="126.911168"></trkpt>
   <trkpt lat="37.5059432" lon="126.9111738"></trkpt>
   <trkpt lat="37.5059243" lon="126.911183"></trkpt>
   <trkpt lat="37.5059001" lon="126.911207"></trkpt>
   <trkpt lat="37.5057156" lon="126.9118171"></trkpt>
   <trkpt lat="37.5056775" lon="126.911943"></trkpt>
   <trkpt lat="37.5055168" lon="126.9124228"></trkpt>
   <trkpt lat="37.5053783" lon="126.9128516"></trkpt>
   <trkpt lat="37.5053437" lon="126.9129605"></trkpt>
   <trkpt lat="37.5052505" lon="126.9132486"></trkpt>
   <trkpt lat="37.5051625" lon="126.9135106"></trkpt>
   <trkpt lat="37.5051218" lon="126.9136547"></trkpt>
   <trkpt lat="37.5050199" lon="126.914013"></trkpt>
   <trkpt lat="37.5049997" lon="126.9141138"></trkpt>
   <trkpt lat="37.5049674" lon="126.9143313"></trkpt>
   <trkpt lat="37.5046634" lon="126.9155624"></trkpt>
   <trkpt lat="37.5046325" lon="126.9156939"></trkpt>
   <trkpt lat="37.504629" lon="126.9157177"></trkpt>
   <trkpt lat="37.504629" lon="126.9157177"></trkpt>
   <trkpt lat="37.5046355" lon="126.9157402"></trkpt>
   <trkpt lat="37.5046491" lon="126.9157673"></trkpt>
   <trkpt lat="37.5047741" lon="126.9158851"></trkpt>
   <trkpt lat="37.5048609" lon="126.9159501"></trkpt>
   <trkpt lat="37.5049658" lon="126.916016"></trkpt>
   <trkpt lat="37.5050652" lon="126.9160605"></trkpt>
   <trkpt lat="37.5051356" lon="126.916078"></trkpt>
   <trkpt lat="37.5052303" lon="126.9161033"></trkpt>
   <trkpt lat="37.5053459" lon="126.916133"></trkpt>
   <trkpt lat="37.5053811" lon="126.9161406"></trkpt>
   <trkpt lat="37.5053811" lon="126.9161406"></trkpt>
   <trkpt lat="37.5054315" lon="126.9161391"></trkpt>
   <trkpt lat="37.5055819" lon="126.9161006"></trkpt>
   <trkpt lat="37.5056287" lon="126.9160866"></trkpt>
   <trkpt lat="37.5057329" lon="126.9160179"></trkpt>
   <trkpt lat="37.5057751" lon="126.915995"></trkpt>
   <trkpt lat="37.5057886" lon="126.915987"></trkpt>
   <trkpt lat="37.5058784" lon="126.9159218"></trkpt>
   <trkpt lat="37.5059492" lon="126.9158431"></trkpt>
   <trkpt lat="37.5059914" lon="126.9157976"></trkpt>
   <trkpt lat="37.506028" lon="126.9157328"></trkpt>
   <trkpt lat="37.5060957" lon="126.9155727"></trkpt>
   <trkpt lat="37.5062302" lon="126.9152504"></trkpt>
   <trkpt lat="37.5062606" lon="126.9151868"></trkpt>
   <trkpt lat="37.5062606" lon="126.9151868"></trkpt>
   <trkpt lat="37.5063139" lon="126.9152248"></trkpt>
   <trkpt lat="37.5063601" lon="126.9152618"></trkpt>
   <trkpt lat="37.5063601" lon="126.9152618"></trkpt>
   <trkpt lat="37.5064092" lon="126.915172"></trkpt>
   <trkpt lat="37.5064651" lon="126.9151818"></trkpt>
   <trkpt lat="37.5065246" lon="126.9151824"></trkpt>
   <trkpt lat="37.5067426" lon="126.9151423"></trkpt>
   <trkpt lat="37.5069678" lon="126.9151247"></trkpt>
   <trkpt lat="37.5069786" lon="126.9151257"></trkpt>
   <trkpt lat="37.5069786" lon="126.9151257"></trkpt>
   <trkpt lat="37.5070053" lon="126.9152341"></trkpt>
   <trkpt lat="37.5070053" lon="126.9152341"></trkpt>
   <trkpt lat="37.507217" lon="126.9152121"></trkpt>
   <trkpt lat="37.5073975" lon="126.9152526"></trkpt>
   <trkpt lat="37.5073975" lon="126.9152526"></trkpt>
   <trkpt lat="37.507217" lon="126.9152121"></trkpt>
   <trkpt lat="37.5070053" lon="126.9152341"></trkpt>
   <trkpt lat="37.5070053" lon="126.9152341"></trkpt>
   <trkpt lat="37.5069786" lon="126.9151257"></trkpt>
   <trkpt lat="37.5069786" lon="126.9151257"></trkpt>
   <trkpt lat="37.5069678" lon="126.9151247"></trkpt>
   <trkpt lat="37.5067426" lon="126.9151423"></trkpt>
   <trkpt lat="37.5065246" lon="126.9151824"></trkpt>
   <trkpt lat="37.5064651" lon="126.9151818"></trkpt>
   <trkpt lat="37.5064092" lon="126.915172"></trkpt>
   <trkpt lat="37.5064092" lon="126.915172"></trkpt>
   <trkpt lat="37.5063601" lon="126.9152618"></trkpt>
   <trkpt lat="37.5060926" lon="126.9158466"></trkpt>
   <trkpt lat="37.5060604" lon="126.9159045"></trkpt>
   <trkpt lat="37.5060058" lon="126.9159751"></trkpt>
   <trkpt lat="37.5059259" lon="126.9160481"></trkpt>
   <trkpt lat="37.5058243" lon="126.9160987"></trkpt>
   <trkpt lat="37.5058081" lon="126.916109"></trkpt>
   <trkpt lat="37.5057785" lon="126.9161285"></trkpt>
   <trkpt lat="37.5057291" lon="126.9161684"></trkpt>
   <trkpt lat="37.5057121" lon="126.9161969"></trkpt>
   <trkpt lat="37.5056755" lon="126.9162616"></trkpt>
   <trkpt lat="37.5056675" lon="126.9162911"></trkpt>
   <trkpt lat="37.505665" lon="126.9163353"></trkpt>
   <trkpt lat="37.5056778" lon="126.9163623"></trkpt>
   <trkpt lat="37.5056778" lon="126.9163623"></trkpt>
   <trkpt lat="37.5056357" lon="126.916426"></trkpt>
   <trkpt lat="37.5056045" lon="126.9164772"></trkpt>
   <trkpt lat="37.5056045" lon="126.9164772"></trkpt>
   <trkpt lat="37.505494" lon="126.916383"></trkpt>
   <trkpt lat="37.5053242" lon="126.916304"></trkpt>
   <trkpt lat="37.5051942" lon="126.9162575"></trkpt>
   <trkpt lat="37.5051914" lon="126.9162564"></trkpt>
  </trkseg>
 </trk>
</gpx>
