<?xml version="1.0" encoding="UTF-8"?>
<gpx creator="daengrun-naver-route" version="1.1" xmlns="http://www.topografix.com/GPX/1/1" xmlns:xsi="http://www.w3.org/2001/XMLSchema-instance" xsi:schemaLocation="http://www.topografix.com/GPX/1/1 http://www.topografix.com/GPX/1/1/gpx.xsd">
 <metadata>
  <name>영등포 꽃담소공원·양화한강공원 루프 3.24km</name>
  <desc>daengrun candidate geometry — measured 3.24km via Naver pedestrian router (o=flat, 계단회피). Elevation NOT available from this source. stairs=0 crosswalk=12 steppingstone=0 underpass=2 overpass=0</desc>
  <link href="naver:1g9vykz"><text>daengrun route id</text></link>
  <copyright author="NAVER Corp."><license>https://map.naver.com/</license></copyright>
 </metadata>
 <trk>
  <name>영등포 꽃담소공원·양화한강공원 루프 3.24km</name>
  <trkseg>
   <trkpt lat="37.5317616" lon="126.9009849"></trkpt>
   <trkpt lat="37.5319263" lon="126.9005807"></trkpt>
   <trkpt lat="37.5319263" lon="126.9005807"></trkpt>
   <trkpt lat="37.5318703" lon="126.9005472"></trkpt>
   <trkpt lat="37.5318069" lon="126.9005013"></trkpt>
   <trkpt lat="37.5318069" lon="126.9005013"></trkpt>
   <trkpt lat="37.5315535" lon="126.9002894"></trkpt>
   <trkpt lat="37.5315177" lon="126.9003474"></trkpt>
   <trkpt lat="37.531459" lon="126.9003207"></trkpt>
   <trkpt lat="37.5314038" lon="126.9002815"></trkpt>
   <trkpt lat="37.5313659" lon="126.9002716"></trkpt>
   <trkpt lat="37.5313316" lon="126.9002674"></trkpt>
   <trkpt lat="37.5313316" lon="126.9002674"></trkpt>
   <trkpt lat="37.5313334" lon="126.9002527"></trkpt>
   <trkpt lat="37.5312779" lon="126.9001603"></trkpt>
   <trkpt lat="37.5312616" lon="126.9001468"></trkpt>
   <trkpt lat="37.5312616" lon="126.9001468"></trkpt>
   <trkpt lat="37.5312779" lon="126.9001603"></trkpt>
   <trkpt lat="37.5313334" lon="126.9002527"></trkpt>
   <trkpt lat="37.5313316" lon="126.9002674"></trkpt>
   <trkpt lat="37.5313316" lon="126.9002674"></trkpt>
   <trkpt lat="37.5313659" lon="126.9002716"></trkpt>
   <trkpt lat="37.5314038" lon="126.9002815"></trkpt>
   <trkpt lat="37.531459" lon="126.9003207"></trkpt>
   <trkpt lat="37.5315177" lon="126.9003474"></trkpt>
   <trkpt lat="37.5315535" lon="126.9002894"></trkpt>
   <trkpt lat="37.5318069" lon="126.9005013"></trkpt>
   <trkpt lat="37.5318069" lon="126.9005013"></trkpt>
   <trkpt lat="37.5318703" lon="126.9005472"></trkpt>
   <trkpt lat="37.5319263" lon="126.9005807"></trkpt>
   <trkpt lat="37.5319263" lon="126.9005807"></trkpt>
   <trkpt lat="37.5319571" lon="126.9006008"></trkpt>
   <trkpt lat="37.532215" lon="126.9008013"></trkpt>
   <trkpt lat="37.532817" lon="126.9013205"></trkpt>
   <trkpt lat="37.5328595" lon="126.9013519"></trkpt>
   <trkpt lat="37.5330079" lon="126.901456"></trkpt>
   <trkpt lat="37.5331598" lon="126.9015634"></trkpt>
   <trkpt lat="37.5333398" lon="126.9016831"></trkpt>
   <trkpt lat="37.5334422" lon="126.9017807"></trkpt>
   <trkpt lat="37.5334776" lon="126.9018269"></trkpt>
   <trkpt lat="37.5335304" lon="126.9019464"></trkpt>
   <trkpt lat="37.5335304" lon="126.9019464"></trkpt>
   <trkpt lat="37.5335144" lon="126.901985"></trkpt>
   <trkpt lat="37.5335409" lon="126.9020618"></trkpt>
   <trkpt lat="37.5337518" lon="126.9022287"></trkpt>
   <trkpt lat="37.5339017" lon="126.9019265"></trkpt>
   <trkpt lat="37.5339642" lon="126.9018049"></trkpt>
   <trkpt lat="37.5340727" lon="126.9018866"></trkpt>
   <trkpt lat="37.5342201" lon="126.9016104"></trkpt>
   <trkpt lat="37.5342402" lon="126.9016759"></trkpt>
   <trkpt lat="37.5343203" lon="126.9016515"></trkpt>
   <trkpt lat="37.5343203" lon="126.9016515"></trkpt>
   <trkpt lat="37.5343258" lon="126.9014839"></trkpt>
   <trkpt lat="37.5343575" lon="126.9013365"></trkpt>
   <trkpt lat="37.5343645" lon="126.9013014"></trkpt>
   <trkpt lat="37.5343884" lon="126.9012084"></trkpt>
   <trkpt lat="37.5344384" lon="126.9011106"></trkpt>
   <trkpt lat="37.5345347" lon="126.9009118"></trkpt>
   <trkpt lat="37.5346453" lon="126.9006823"></trkpt>
   <trkpt lat="37.5347845" lon="126.9003971"></trkpt>
   <trkpt lat="37.5348326" lon="126.9002937"></trkpt>
   <trkpt lat="37.5348808" lon="126.9002016"></trkpt>
   <trkpt lat="37.5348808" lon="126.9002016"></trkpt>
   <trkpt lat="37.5349191" lon="126.9001096"></trkpt>
   <trkpt lat="37.5349378" lon="126.9000676"></trkpt>
   <trkpt lat="37.5349378" lon="126.9000676"></trkpt>
   <trkpt lat="37.5351395" lon="126.8996766"></trkpt>
   <trkpt lat="37.5353563" lon="126.8992369"></trkpt>
   <trkpt lat="37.5354474" lon="126.8990743"></trkpt>
   <trkpt lat="37.5354474" lon="126.8990743"></trkpt>
   <trkpt lat="37.5354626" lon="126.8990458"></trkpt>
   <trkpt lat="37.5355028" lon="126.8989708"></trkpt>
   <trkpt lat="37.5355028" lon="126.8989708"></trkpt>
   <trkpt lat="37.5359009" lon="126.8982059"></trkpt>
   <trkpt lat="37.5359009" lon="126.8982059"></trkpt>
   <trkpt lat="37.5360013" lon="126.8982786"></trkpt>
   <trkpt lat="37.5361823" lon="126.898413"></trkpt>
   <trkpt lat="37.5361823" lon="126.898413"></trkpt>
   <trkpt lat="37.5362112" lon="126.8984298"></trkpt>
   <trkpt lat="37.5362456" lon="126.8984521"></trkpt>
   <trkpt lat="37.5365352" lon="126.8986773"></trkpt>
   <trkpt lat="37.536561" lon="126.8986171"></trkpt>
   <trkpt lat="37.5365752" lon="126.898583"></trkpt>
   <trkpt lat="37.5365752" lon="126.898583"></trkpt>
   <trkpt lat="37.5385579" lon="126.9001133"></trkpt>
   <trkpt lat="37.5385579" lon="126.9001133"></trkpt>
   <trkpt lat="37.5385629" lon="126.9002231"></trkpt>
   <trkpt lat="37.538566" lon="126.9002864"></trkpt>
   <trkpt lat="37.5385745" lon="126.9003667"></trkpt>
   <trkpt lat="37.5385745" lon="126.9003667"></trkpt>
   <trkpt lat="37.5386817" lon="126.9003602"></trkpt>
   <trkpt lat="37.5388009" lon="126.9004068"></trkpt>
   <trkpt lat="37.5389094" lon="126.9004738"></trkpt>
   <trkpt lat="37.5393028" lon="126.9007299"></trkpt>
   <trkpt lat="37.539463" lon="126.900852"></trkpt>
   <trkpt lat="37.5395978" lon="126.9009562"></trkpt>
   <trkpt lat="37.5395978" lon="126.9009562"></trkpt>
   <trkpt lat="37.5395666" lon="126.9010266"></trkpt>
   <trkpt lat="37.5395319" lon="126.9011039"></trkpt>
   <trkpt lat="37.5395128" lon="126.9010882"></trkpt>
   <trkpt lat="37.5395298" lon="126.9010484"></trkpt>
   <trkpt lat="37.5395716" lon="126.900953"></trkpt>
   <trkpt lat="37.5397547" lon="126.9006131"></trkpt>
   <trkpt lat="37.5397547" lon="126.9006131"></trkpt>
   <trkpt lat="37.539667" lon="126.9005538"></trkpt>
   <trkpt lat="37.539667" lon="126.9005538"></trkpt>
   <trkpt lat="37.539725" lon="126.9004515"></trkpt>
   <trkpt lat="37.5398386" lon="126.9002819"></trkpt>
   <trkpt lat="37.5398995" lon="126.9002022"></trkpt>
   <trkpt lat="37.5403882" lon="126.8993504"></trkpt>
   <trkpt lat="37.5405213" lon="126.899115"></trkpt>
   <trkpt lat="37.5406728" lon="126.8989338"></trkpt>
   <trkpt lat="37.5406728" lon="126.8989338"></trkpt>
   <trkpt lat="37.5407869" lon="126.8990405"></trkpt>
   <trkpt lat="37.5407869" lon="126.8990405"></trkpt>
   <trkpt lat="37.5406728" lon="126.8989338"></trkpt>
   <trkpt lat="37.5406728" lon="126.8989338"></trkpt>
   <trkpt lat="37.5405213" lon="126.899115"></trkpt>
   <trkpt lat="37.5403882" lon="126.8993504"></trkpt>
   <trkpt lat="37.5398995" lon="126.9002022"></trkpt>
   <trkpt lat="37.5398386" lon="126.9002819"></trkpt>
   <trkpt lat="37.539725" lon="126.9004515"></trkpt>
   <trkpt lat="37.539667" lon="126.9005538"></trkpt>
   <trkpt lat="37.539667" lon="126.9005538"></trkpt>
   <trkpt lat="37.5397547" lon="126.9006131"></trkpt>
   <trkpt lat="37.5397547" lon="126.9006131"></trkpt>
   <trkpt lat="37.5395716" lon="126.900953"></trkpt>
   <trkpt lat="37.5395298" lon="126.9010484"></trkpt>
   <trkpt lat="37.5395128" lon="126.9010882"></trkpt>
   <trkpt lat="37.5395319" lon="126.9011039"></trkpt>
   <trkpt lat="37.5395666" lon="126.9010266"></trkpt>
   <trkpt lat="37.5395978" lon="126.9009562"></trkpt>
   <trkpt lat="37.5395978" lon="126.9009562"></trkpt>
   <trkpt lat="37.539463" lon="126.900852"></trkpt>
   <trkpt lat="37.5393028" lon="126.9007299"></trkpt>
   <trkpt lat="37.5389094" lon="126.9004738"></trkpt>
   <trkpt lat="37.5388009" lon="126.9004068"></trkpt>
   <trkpt lat="37.5386817" lon="126.9003602"></trkpt>
   <trkpt lat="37.5385745" lon="126.9003667"></trkpt>
   <trkpt lat="37.5385745" lon="126.9003667"></trkpt>
   <trkpt lat="37.538566" lon="126.9002864"></trkpt>
   <trkpt lat="37.5385629" lon="126.9002231"></trkpt>
   <trkpt lat="37.5385579" lon="126.9001133"></trkpt>
   <trkpt lat="37.5385579" lon="126.9001133"></trkpt>
   <trkpt lat="37.5365752" lon="126.898583"></trkpt>
   <trkpt lat="37.5365752" lon="126.898583"></trkpt>
   <trkpt lat="37.536561" lon="126.8986171"></trkpt>
   <trkpt lat="37.5365352" lon="126.8986773"></trkpt>
   <trkpt lat="37.5365352" lon="126.8986773"></trkpt>
   <trkpt lat="37.5362456" lon="126.8984521"></trkpt>
   <trkpt lat="37.5362456" lon="126.8984521"></trkpt>
   <trkpt lat="37.5362112" lon="126.8984298"></trkpt>
   <trkpt lat="37.5361823" lon="126.898413"></trkpt>
   <trkpt lat="37.5361823" lon="126.898413"></trkpt>
   <trkpt lat="37.5360013" lon="126.8982786"></trkpt>
   <trkpt lat="37.5359009" lon="126.8982059"></trkpt>
   <trkpt lat="37.5359009" lon="126.8982059"></trkpt>
   <trkpt lat="37.5355028" lon="126.8989708"></trkpt>
   <trkpt lat="37.5355028" lon="126.8989708"></trkpt>
   <trkpt lat="37.5354626" lon="126.8990458"></trkpt>
   <trkpt lat="37.5354474" lon="126.8990743"></trkpt>
   <trkpt lat="37.5354474" lon="126.8990743"></trkpt>
   <trkpt lat="37.5353563" lon="126.8992369"></trkpt>
   <trkpt lat="37.5351395" lon="126.8996766"></trkpt>
   <trkpt lat="37.5349378" lon="126.9000676"></trkpt>
   <trkpt lat="37.5349378" lon="126.9000676"></trkpt>
   <trkpt lat="37.5349191" lon="126.9001096"></trkpt>
   <trkpt lat="37.5348808" lon="126.9002016"></trkpt>
   <trkpt lat="37.5348808" lon="126.9002016"></trkpt>
   <trkpt lat="37.5348326" lon="126.9002937"></trkpt>
   <trkpt lat="37.5347845" lon="126.9003971"></trkpt>
   <trkpt lat="37.5346453" lon="126.9006823"></trkpt>
   <trkpt lat="37.5345347" lon="126.9009118"></trkpt>
   <trkpt lat="37.5344384" lon="126.9011106"></trkpt>
   <trkpt lat="37.5343884" lon="126.9012084"></trkpt>
   <trkpt lat="37.5343645" lon="126.9013014"></trkpt>
   <trkpt lat="37.5343575" lon="126.9013365"></trkpt>
   <trkpt lat="37.5343258" lon="126.9014839"></trkpt>
   <trkpt lat="37.5343203" lon="126.9016515"></trkpt>
   <trkpt lat="37.5343203" lon="126.9016515"></trkpt>
   <trkpt lat="37.5342402" lon="126.9016759"></trkpt>
   <trkpt lat="37.5342201" lon="126.9016104"></trkpt>
   <trkpt lat="37.5340727" lon="126.9018866"></trkpt>
   <trkpt lat="37.5339642" lon="126.9018049"></trkpt>
   <trkpt lat="37.5339017" lon="126.9019265"></trkpt>
   <trkpt lat="37.5337518" lon="126.9022287"></trkpt>
   <trkpt lat="37.5335409" lon="126.9020618"></trkpt>
   <trkpt lat="37.5335144" lon="126.901985"></trkpt>
   <trkpt lat="37.5335304" lon="126.9019464"></trkpt>
   <trkpt lat="37.5335304" lon="126.9019464"></trkpt>
   <trkpt lat="37.5334776" lon="126.9018269"></trkpt>
   <trkpt lat="37.5334422" lon="126.9017807"></trkpt>
   <trkpt lat="37.5333398" lon="126.9016831"></trkpt>
   <trkpt lat="37.5331598" lon="126.9015634"></trkpt>
   <trkpt lat="37.5330079" lon="126.901456"></trkpt>
   <trkpt lat="37.5328595" lon="126.9013519"></trkpt>
   <trkpt lat="37.532817" lon="126.9013205"></trkpt>
   <trkpt lat="37.532215" lon="126.9008013"></trkpt>
   <trkpt lat="37.5319571" lon="126.9006008"></trkpt>
   <trkpt lat="37.5319263" lon="126.9005807"></trkpt>
   <trkpt lat="37.5319263" lon="126.9005807"></trkpt>
   <trkpt lat="37.5317616" lon="126.9009849"></trkpt>
  </trkseg>
 </trk>
</gpx>
