<?xml version="1.0" encoding="UTF-8"?>
<gpx creator="StravaGPX" version="1.1" xmlns="http://www.topografix.com/GPX/1/1" xmlns:xsi="http://www.w3.org/2001/XMLSchema-instance" xsi:schemaLocation="http://www.topografix.com/GPX/1/1 http://www.topografix.com/GPX/1/1/gpx.xsd">
 <metadata>
  <name>올림픽선수촌앞 올림픽 공원 4.58 km</name>
  <author>
   <name>S Kim</name>
   <link href="https://www.strava.com/athletes/558867461"/>
  </author>
  <copyright author="OpenStreetMap contributors">
   <year>2020</year>
   <license>https://www.openstreetmap.org/copyright</license>
  </copyright>
  <link href="https://www.strava.com/routes/3523240019688241628"/>
 </metadata>
 <trk>
  <name>올림픽선수촌앞 올림픽 공원 4.58 km</name>
  <link href="https://www.strava.com/routes/3523240019688241628"/>
  <type>running</type>
  <trkseg>
   <trkpt lat="37.509910000000005" lon="127.13376000000001">
    <ele>29.34</ele>
   </trkpt>
   <trkpt lat="37.50977" lon="127.1337">
    <ele>28.85</ele>
   </trkpt>
   <trkpt lat="37.509800000000006" lon="127.13362000000001">
    <ele>28.76</ele>
   </trkpt>
   <trkpt lat="37.509780000000006" lon="127.13356000000002">
    <ele>28.76</ele>
   </trkpt>
   <trkpt lat="37.510083337793915" lon="127.13283000600977">
    <ele>29.890000000000004</ele>
   </trkpt>
   <trkpt lat="37.510386671095475" lon="127.13210000608633">
    <ele>30.96</ele>
   </trkpt>
   <trkpt lat="37.510690000000004" lon="127.13137">
    <ele>32.080000000000005</ele>
   </trkpt>
   <trkpt lat="37.51097667144719" lon="127.13061667246299">
    <ele>32.13</ele>
   </trkpt>
   <trkpt lat="37.51126333811019" lon="127.12986333913938">
    <ele>30.01</ele>
   </trkpt>
   <trkpt lat="37.51155" lon="127.12911000000001">
    <ele>27.46</ele>
   </trkpt>
   <trkpt lat="37.51167" lon="127.12888000000001">
    <ele>27.17</ele>
   </trkpt>
   <trkpt lat="37.51176" lon="127.12876000000001">
    <ele>26.2</ele>
   </trkpt>
   <trkpt lat="37.51193" lon="127.12864">
    <ele>25.75</ele>
   </trkpt>
   <trkpt lat="37.511900000000004" lon="127.12831000000001">
    <ele>25.470000000000002</ele>
   </trkpt>
   <trkpt lat="37.512060000000005" lon="127.12794000000001">
    <ele>25.150000000000002</ele>
   </trkpt>
   <trkpt lat="37.512060000000005" lon="127.12789000000001">
    <ele>25.210000000000004</ele>
   </trkpt>
   <trkpt lat="37.5122" lon="127.12789000000001">
    <ele>25.05</ele>
   </trkpt>
   <trkpt lat="37.51231000000001" lon="127.12786000000001">
    <ele>24.830000000000002</ele>
   </trkpt>
   <trkpt lat="37.51227" lon="127.12771000000001">
    <ele>24.96</ele>
   </trkpt>
   <trkpt lat="37.51227" lon="127.12759000000001">
    <ele>25.040000000000003</ele>
   </trkpt>
   <trkpt lat="37.512330000000006" lon="127.12733000000001">
    <ele>25.120000000000005</ele>
   </trkpt>
   <trkpt lat="37.51254500099245" lon="127.12683000158297">
    <ele>25.34</ele>
   </trkpt>
   <trkpt lat="37.51276" lon="127.12633000000001">
    <ele>25.650000000000002</ele>
   </trkpt>
   <trkpt lat="37.51309250891491" lon="127.12549001124643">
    <ele>26.240000000000002</ele>
   </trkpt>
   <trkpt lat="37.513425011881466" lon="127.12465001500824">
    <ele>26.69</ele>
   </trkpt>
   <trkpt lat="37.51375750889958" lon="127.12381001128546">
    <ele>27.500000000000004</ele>
   </trkpt>
   <trkpt lat="37.51409" lon="127.12297000000001">
    <ele>27.630000000000003</ele>
   </trkpt>
   <trkpt lat="37.514140000000005" lon="127.12283000000001">
    <ele>27.48</ele>
   </trkpt>
   <trkpt lat="37.51431" lon="127.12281000000002">
    <ele>27.17</ele>
   </trkpt>
   <trkpt lat="37.514390000000006" lon="127.12282">
    <ele>26.910000000000004</ele>
   </trkpt>
   <trkpt lat="37.51447" lon="127.12286000000002">
    <ele>26.750000000000004</ele>
   </trkpt>
   <trkpt lat="37.51476" lon="127.12305">
    <ele>25.23</ele>
   </trkpt>
   <trkpt lat="37.51500000148208" lon="127.1224550019388">
    <ele>25.540000000000003</ele>
   </trkpt>
   <trkpt lat="37.515240000000006" lon="127.12186000000001">
    <ele>28.200000000000003</ele>
   </trkpt>
   <trkpt lat="37.51531000000001" lon="127.12172000000001">
    <ele>28.68</ele>
   </trkpt>
   <trkpt lat="37.51543" lon="127.12160000000002">
    <ele>29.290000000000003</ele>
   </trkpt>
   <trkpt lat="37.51581" lon="127.12133000000001">
    <ele>30.570000000000004</ele>
   </trkpt>
   <trkpt lat="37.516040000000004" lon="127.12126">
    <ele>31.01</ele>
   </trkpt>
   <trkpt lat="37.516270000000006" lon="127.12125">
    <ele>30.88</ele>
   </trkpt>
   <trkpt lat="37.51671" lon="127.12129000000002">
    <ele>28.01</ele>
   </trkpt>
   <trkpt lat="37.51686" lon="127.12126">
    <ele>28.01</ele>
   </trkpt>
   <trkpt lat="37.517250000000004" lon="127.12110000000001">
    <ele>25.07</ele>
   </trkpt>
   <trkpt lat="37.5178" lon="127.12174000000002">
    <ele>26.080000000000002</ele>
   </trkpt>
   <trkpt lat="37.51787" lon="127.12184">
    <ele>26.080000000000002</ele>
   </trkpt>
   <trkpt lat="37.518" lon="127.12211">
    <ele>26.050000000000004</ele>
   </trkpt>
   <trkpt lat="37.51807" lon="127.12236000000001">
    <ele>25.890000000000004</ele>
   </trkpt>
   <trkpt lat="37.51807" lon="127.12262000000001">
    <ele>25.51</ele>
   </trkpt>
   <trkpt lat="37.51807" lon="127.12261000000001">
    <ele>25.53</ele>
   </trkpt>
   <trkpt lat="37.51803" lon="127.12308000000002">
    <ele>24.37</ele>
   </trkpt>
   <trkpt lat="37.517910001635" lon="127.12371000121294">
    <ele>23.67</ele>
   </trkpt>
   <trkpt lat="37.517790000000005" lon="127.12434">
    <ele>23.650000000000002</ele>
   </trkpt>
   <trkpt lat="37.517790000000005" lon="127.12460000000002">
    <ele>23.57</ele>
   </trkpt>
   <trkpt lat="37.517810000000004" lon="127.12476000000001">
    <ele>23.57</ele>
   </trkpt>
   <trkpt lat="37.517920000000004" lon="127.12524">
    <ele>23.450000000000003</ele>
   </trkpt>
   <trkpt lat="37.518060000000006" lon="127.12556000000001">
    <ele>23.450000000000003</ele>
   </trkpt>
   <trkpt lat="37.51823" lon="127.12586000000002">
    <ele>23.28</ele>
   </trkpt>
   <trkpt lat="37.518480000000004" lon="127.12609">
    <ele>23.28</ele>
   </trkpt>
   <trkpt lat="37.518750000000004" lon="127.12622">
    <ele>23.3</ele>
   </trkpt>
   <trkpt lat="37.518950000000004" lon="127.12628000000001">
    <ele>23.380000000000003</ele>
   </trkpt>
   <trkpt lat="37.51914" lon="127.12628000000001">
    <ele>23.430000000000003</ele>
   </trkpt>
   <trkpt lat="37.51952" lon="127.12625000000001">
    <ele>23.4</ele>
   </trkpt>
   <trkpt lat="37.51972000000001" lon="127.12619000000001">
    <ele>23.32</ele>
   </trkpt>
   <trkpt lat="37.51991" lon="127.12610000000001">
    <ele>22.820000000000004</ele>
   </trkpt>
   <trkpt lat="37.520070000000004" lon="127.12599000000002">
    <ele>22.820000000000004</ele>
   </trkpt>
   <trkpt lat="37.52042" lon="127.12561000000001">
    <ele>22.36</ele>
   </trkpt>
   <trkpt lat="37.52062" lon="127.12535000000001">
    <ele>21.990000000000002</ele>
   </trkpt>
   <trkpt lat="37.520700000000005" lon="127.12577000000002">
    <ele>22.87</ele>
   </trkpt>
   <trkpt lat="37.520570000000006" lon="127.12584000000001">
    <ele>22.990000000000002</ele>
   </trkpt>
   <trkpt lat="37.52008" lon="127.12624000000001">
    <ele>23.180000000000003</ele>
   </trkpt>
   <trkpt lat="37.51986" lon="127.12638000000001">
    <ele>23.520000000000003</ele>
   </trkpt>
   <trkpt lat="37.51959" lon="127.12644000000002">
    <ele>23.700000000000003</ele>
   </trkpt>
   <trkpt lat="37.51932" lon="127.12647000000001">
    <ele>23.720000000000002</ele>
   </trkpt>
   <trkpt lat="37.518800000000006" lon="127.12645">
    <ele>23.590000000000003</ele>
   </trkpt>
   <trkpt lat="37.51878" lon="127.12650000000001">
    <ele>23.590000000000003</ele>
   </trkpt>
   <trkpt lat="37.51867" lon="127.12657000000002">
    <ele>23.590000000000003</ele>
   </trkpt>
   <trkpt lat="37.51861" lon="127.12663">
    <ele>23.590000000000003</ele>
   </trkpt>
   <trkpt lat="37.51847" lon="127.12694">
    <ele>23.76</ele>
   </trkpt>
   <trkpt lat="37.51841" lon="127.12711000000002">
    <ele>23.89</ele>
   </trkpt>
   <trkpt lat="37.51841" lon="127.12741000000001">
    <ele>24.28</ele>
   </trkpt>
   <trkpt lat="37.518370000000004" lon="127.12755000000001">
    <ele>24.28</ele>
   </trkpt>
   <trkpt lat="37.518060000000006" lon="127.12776000000001">
    <ele>24.41</ele>
   </trkpt>
   <trkpt lat="37.518010000000004" lon="127.12781000000001">
    <ele>24.41</ele>
   </trkpt>
   <trkpt lat="37.51791" lon="127.12797">
    <ele>24.68</ele>
   </trkpt>
   <trkpt lat="37.517810000000004" lon="127.12805000000002">
    <ele>25.17</ele>
   </trkpt>
   <trkpt lat="37.51766000000001" lon="127.12842">
    <ele>25.300000000000004</ele>
   </trkpt>
   <trkpt lat="37.517316672708816" lon="127.12926667446084">
    <ele>24.76</ele>
   </trkpt>
   <trkpt lat="37.5169733393741" lon="127.13011334113082">
    <ele>24.380000000000003</ele>
   </trkpt>
   <trkpt lat="37.516630000000006" lon="127.13096000000002">
    <ele>24.180000000000003</ele>
   </trkpt>
   <trkpt lat="37.51605" lon="127.13057">
    <ele>23.85</ele>
   </trkpt>
   <trkpt lat="37.515750000000004" lon="127.13034">
    <ele>23.44</ele>
   </trkpt>
   <trkpt lat="37.5151250021137" lon="127.1299324897709">
    <ele>23.55</ele>
   </trkpt>
   <trkpt lat="37.51450000282741" lon="127.12952498636734">
    <ele>23.76</ele>
   </trkpt>
   <trkpt lat="37.513875002141205" lon="127.12911748978911">
    <ele>23.91</ele>
   </trkpt>
   <trkpt lat="37.513250000000006" lon="127.12871000000001">
    <ele>24.040000000000003</ele>
   </trkpt>
   <trkpt lat="37.51249" lon="127.12819">
    <ele>24.42</ele>
   </trkpt>
   <trkpt lat="37.51234" lon="127.12795000000001">
    <ele>24.71</ele>
   </trkpt>
   <trkpt lat="37.51231000000001" lon="127.12786000000001">
    <ele>24.92</ele>
   </trkpt>
   <trkpt lat="37.5125" lon="127.12775">
    <ele>24.91</ele>
   </trkpt>
   <trkpt lat="37.51258" lon="127.12796000000002">
    <ele>25.02</ele>
   </trkpt>
   <trkpt lat="37.51265" lon="127.12806">
    <ele>25.02</ele>
   </trkpt>
   <trkpt lat="37.51272" lon="127.12811">
    <ele>25.02</ele>
   </trkpt>
   <trkpt lat="37.51305" lon="127.12812000000001">
    <ele>24.85</ele>
   </trkpt>
   <trkpt lat="37.51312" lon="127.12807000000001">
    <ele>24.91</ele>
   </trkpt>
   <trkpt lat="37.513270000000006" lon="127.12783000000002">
    <ele>24.880000000000003</ele>
   </trkpt>
   <trkpt lat="37.51332" lon="127.12763000000001">
    <ele>24.900000000000002</ele>
   </trkpt>
   <trkpt lat="37.51332" lon="127.12756000000002">
    <ele>24.91</ele>
   </trkpt>
   <trkpt lat="37.51332" lon="127.12769000000002">
    <ele>24.91</ele>
   </trkpt>
   <trkpt lat="37.513270000000006" lon="127.12783000000002">
    <ele>24.880000000000003</ele>
   </trkpt>
   <trkpt lat="37.51312" lon="127.12807000000001">
    <ele>24.85</ele>
   </trkpt>
   <trkpt lat="37.51305" lon="127.12812000000001">
    <ele>24.85</ele>
   </trkpt>
   <trkpt lat="37.51272" lon="127.12811">
    <ele>25.02</ele>
   </trkpt>
   <trkpt lat="37.51265" lon="127.12806">
    <ele>25.02</ele>
   </trkpt>
   <trkpt lat="37.51258" lon="127.12796000000002">
    <ele>25.02</ele>
   </trkpt>
   <trkpt lat="37.5125" lon="127.12775">
    <ele>24.91</ele>
   </trkpt>
   <trkpt lat="37.51225" lon="127.12788">
    <ele>24.970000000000002</ele>
   </trkpt>
   <trkpt lat="37.512060000000005" lon="127.12789000000001">
    <ele>25.210000000000004</ele>
   </trkpt>
   <trkpt lat="37.512060000000005" lon="127.12794000000001">
    <ele>25.150000000000002</ele>
   </trkpt>
   <trkpt lat="37.511900000000004" lon="127.12831000000001">
    <ele>25.470000000000002</ele>
   </trkpt>
   <trkpt lat="37.51193" lon="127.12864">
    <ele>25.75</ele>
   </trkpt>
   <trkpt lat="37.51176" lon="127.12876000000001">
    <ele>26.2</ele>
   </trkpt>
   <trkpt lat="37.51167" lon="127.12888000000001">
    <ele>27.17</ele>
   </trkpt>
   <trkpt lat="37.51155" lon="127.12911000000001">
    <ele>28.0</ele>
   </trkpt>
   <trkpt lat="37.51126333812125" lon="127.12986333911027">
    <ele>30.01</ele>
   </trkpt>
   <trkpt lat="37.510976671458245" lon="127.13061667243392">
    <ele>32.13</ele>
   </trkpt>
   <trkpt lat="37.510690000000004" lon="127.13137">
    <ele>32.080000000000005</ele>
   </trkpt>
   <trkpt lat="37.51038667119088" lon="127.13210000585671">
    <ele>30.96</ele>
   </trkpt>
   <trkpt lat="37.51008333788932" lon="127.13283000578015">
    <ele>29.890000000000004</ele>
   </trkpt>
   <trkpt lat="37.509780000000006" lon="127.13356000000002">
    <ele>28.76</ele>
   </trkpt>
   <trkpt lat="37.509800000000006" lon="127.13362000000001">
    <ele>28.76</ele>
   </trkpt>
   <trkpt lat="37.50977" lon="127.1337">
    <ele>28.85</ele>
   </trkpt>
   <trkpt lat="37.509910000000005" lon="127.13376000000001">
    <ele>29.34</ele>
   </trkpt>
  </trkseg>
 </trk>
</gpx>
