<?xml version="1.0" encoding="UTF-8"?>
<gpx creator="daengrun-naver-route" version="1.1" xmlns="http://www.topografix.com/GPX/1/1" xmlns:xsi="http://www.w3.org/2001/XMLSchema-instance" xsi:schemaLocation="http://www.topografix.com/GPX/1/1 http://www.topografix.com/GPX/1/1/gpx.xsd">
 <metadata>
  <name>은평 못자리골천·창릉천 루프 1.72km</name>
  <desc>daengrun candidate geometry — measured 1.72km via Naver pedestrian router (o=flat, 계단회피). Elevation NOT available from this source. stairs=0 crosswalk=5 steppingstone=0 underpass=0 overpass=0</desc>
  <link href="naver:1o8vfi3"><text>daengrun route id</text></link>
  <copyright author="NAVER Corp."><license>https://map.naver.com/</license></copyright>
 </metadata>
 <trk>
  <name>은평 못자리골천·창릉천 루프 1.72km</name>
  <trkseg>
   <trkpt lat="37.6445987" lon="126.9267687"></trkpt>
   <trkpt lat="37.64477" lon="126.9265792"></trkpt>
   <trkpt lat="37.6448838" lon="126.9264537"></trkpt>
   <trkpt lat="37.6448838" lon="126.9264537"></trkpt>
   <trkpt lat="37.6449347" lon="126.9265349"></trkpt>
   <trkpt lat="37.644981" lon="126.9266003"></trkpt>
   <trkpt lat="37.644981" lon="126.9266003"></trkpt>
   <trkpt lat="37.6449998" lon="126.926582"></trkpt>
   <trkpt lat="37.6450142" lon="126.9265717"></trkpt>
   <trkpt lat="37.6450214" lon="126.9265694"></trkpt>
   <trkpt lat="37.6450286" lon="126.9265716"></trkpt>
   <trkpt lat="37.6450404" lon="126.9265772"></trkpt>
   <trkpt lat="37.6450558" lon="126.9265963"></trkpt>
   <trkpt lat="37.6457285" lon="126.9275921"></trkpt>
   <trkpt lat="37.6456883" lon="126.9276558"></trkpt>
   <trkpt lat="37.6457598" lon="126.9277312"></trkpt>
   <trkpt lat="37.6457671" lon="126.9277448"></trkpt>
   <trkpt lat="37.64576" lon="126.9277732"></trkpt>
   <trkpt lat="37.6457277" lon="126.9278063"></trkpt>
   <trkpt lat="37.6457162" lon="126.9278336"></trkpt>
   <trkpt lat="37.6457298" lon="126.9278584"></trkpt>
   <trkpt lat="37.645765" lon="126.9278684"></trkpt>
   <trkpt lat="37.645766" lon="126.9278967"></trkpt>
   <trkpt lat="37.6457196" lon="126.9279775"></trkpt>
   <trkpt lat="37.6455976" lon="126.9281122"></trkpt>
   <trkpt lat="37.6455976" lon="126.9281122"></trkpt>
   <trkpt lat="37.6457196" lon="126.9279775"></trkpt>
   <trkpt lat="37.645766" lon="126.9278967"></trkpt>
   <trkpt lat="37.645765" lon="126.9278684"></trkpt>
   <trkpt lat="37.6457298" lon="126.9278584"></trkpt>
   <trkpt lat="37.6457162" lon="126.9278336"></trkpt>
   <trkpt lat="37.6457277" lon="126.9278063"></trkpt>
   <trkpt lat="37.64576" lon="126.9277732"></trkpt>
   <trkpt lat="37.6457671" lon="126.9277448"></trkpt>
   <trkpt lat="37.6457598" lon="126.9277312"></trkpt>
   <trkpt lat="37.6456883" lon="126.9276558"></trkpt>
   <trkpt lat="37.6457285" lon="126.9275921"></trkpt>
   <trkpt lat="37.6450558" lon="126.9265963"></trkpt>
   <trkpt lat="37.6450404" lon="126.9265772"></trkpt>
   <trkpt lat="37.6450286" lon="126.9265716"></trkpt>
   <trkpt lat="37.6450214" lon="126.9265694"></trkpt>
   <trkpt lat="37.6450214" lon="126.9265694"></trkpt>
   <trkpt lat="37.6450353" lon="126.9262802"></trkpt>
   <trkpt lat="37.6450353" lon="126.9262802"></trkpt>
   <trkpt lat="37.6450551" lon="126.9262755"></trkpt>
   <trkpt lat="37.645082" lon="126.9262493"></trkpt>
   <trkpt lat="37.6455734" lon="126.9257161"></trkpt>
   <trkpt lat="37.6456577" lon="126.925627"></trkpt>
   <trkpt lat="37.6457608" lon="126.9255254"></trkpt>
   <trkpt lat="37.6458962" lon="126.9253849"></trkpt>
   <trkpt lat="37.6462648" lon="126.9249899"></trkpt>
   <trkpt lat="37.6462817" lon="126.9249546"></trkpt>
   <trkpt lat="37.6462924" lon="126.9249239"></trkpt>
   <trkpt lat="37.6462924" lon="126.9249239"></trkpt>
   <trkpt lat="37.6462768" lon="126.9248787"></trkpt>
   <trkpt lat="37.6455602" lon="126.9237461"></trkpt>
   <trkpt lat="37.6453856" lon="126.9234346"></trkpt>
   <trkpt lat="37.6453573" lon="126.9233725"></trkpt>
   <trkpt lat="37.6453573" lon="126.9233725"></trkpt>
   <trkpt lat="37.6454346" lon="126.9233209"></trkpt>
   <trkpt lat="37.6455262" lon="126.9232556"></trkpt>
   <trkpt lat="37.6455262" lon="126.9232556"></trkpt>
   <trkpt lat="37.6454743" lon="126.9231358"></trkpt>
   <trkpt lat="37.6454176" lon="126.9229753"></trkpt>
   <trkpt lat="37.6453644" lon="126.9227909"></trkpt>
   <trkpt lat="37.6453172" lon="126.9225306"></trkpt>
   <trkpt lat="37.6452412" lon="126.9215552"></trkpt>
   <trkpt lat="37.6452383" lon="126.9215144"></trkpt>
   <trkpt lat="37.6452408" lon="126.9214849"></trkpt>
   <trkpt lat="37.6452488" lon="126.9214577"></trkpt>
   <trkpt lat="37.6452533" lon="126.9214452"></trkpt>
   <trkpt lat="37.6452533" lon="126.9214452"></trkpt>
   <trkpt lat="37.6452703" lon="126.9214258"></trkpt>
   <trkpt lat="37.6452847" lon="126.9214154"></trkpt>
   <trkpt lat="37.6453126" lon="126.9214084"></trkpt>
   <trkpt lat="37.6454072" lon="126.9213975"></trkpt>
   <trkpt lat="37.645454" lon="126.9213926"></trkpt>
   <trkpt lat="37.6456865" lon="126.9213726"></trkpt>
   <trkpt lat="37.6456865" lon="126.9213726"></trkpt>
   <trkpt lat="37.645454" lon="126.9213926"></trkpt>
   <trkpt lat="37.6454072" lon="126.9213975"></trkpt>
   <trkpt lat="37.6453126" lon="126.9214084"></trkpt>
   <trkpt lat="37.6452847" lon="126.9214154"></trkpt>
   <trkpt lat="37.6452703" lon="126.9214258"></trkpt>
   <trkpt lat="37.6452533" lon="126.9214452"></trkpt>
   <trkpt lat="37.6452533" lon="126.9214452"></trkpt>
   <trkpt lat="37.6452488" lon="126.9214577"></trkpt>
   <trkpt lat="37.6452408" lon="126.9214849"></trkpt>
   <trkpt lat="37.6452383" lon="126.9215144"></trkpt>
   <trkpt lat="37.6452412" lon="126.9215552"></trkpt>
   <trkpt lat="37.6453172" lon="126.9225306"></trkpt>
   <trkpt lat="37.6453644" lon="126.9227909"></trkpt>
   <trkpt lat="37.6454176" lon="126.9229753"></trkpt>
   <trkpt lat="37.6454743" lon="126.9231358"></trkpt>
   <trkpt lat="37.6455262" lon="126.9232556"></trkpt>
   <trkpt lat="37.6455262" lon="126.9232556"></trkpt>
   <trkpt lat="37.6454346" lon="126.9233209"></trkpt>
   <trkpt lat="37.6453573" lon="126.9233725"></trkpt>
   <trkpt lat="37.6453573" lon="126.9233725"></trkpt>
   <trkpt lat="37.6453856" lon="126.9234346"></trkpt>
   <trkpt lat="37.6455602" lon="126.9237461"></trkpt>
   <trkpt lat="37.6462768" lon="126.9248787"></trkpt>
   <trkpt lat="37.6462924" lon="126.9249239"></trkpt>
   <trkpt lat="37.6462924" lon="126.9249239"></trkpt>
   <trkpt lat="37.6462817" lon="126.9249546"></trkpt>
   <trkpt lat="37.6462648" lon="126.9249899"></trkpt>
   <trkpt lat="37.6458962" lon="126.9253849"></trkpt>
   <trkpt lat="37.6457608" lon="126.9255254"></trkpt>
   <trkpt lat="37.6456577" lon="126.925627"></trkpt>
   <trkpt lat="37.6455734" lon="126.9257161"></trkpt>
   <trkpt lat="37.645082" lon="126.9262493"></trkpt>
   <trkpt lat="37.6450551" lon="126.9262755"></trkpt>
   <trkpt lat="37.6450353" lon="126.9262802"></trkpt>
   <trkpt lat="37.645019" lon="126.9262656"></trkpt>
   <trkpt lat="37.645" lon="126.9262397"></trkpt>
   <trkpt lat="37.645" lon="126.9262397"></trkpt>
   <trkpt lat="37.6449534" lon="126.9262933"></trkpt>
   <trkpt lat="37.6448906" lon="126.9263629"></trkpt>
   <trkpt lat="37.6448906" lon="126.9263629"></trkpt>
   <trkpt lat="37.6449079" lon="126.9263889"></trkpt>
   <trkpt lat="37.6449143" lon="126.926407"></trkpt>
   <trkpt lat="37.6449116" lon="126.9264195"></trkpt>
   <trkpt lat="37.6449009" lon="126.9264331"></trkpt>
   <trkpt lat="37.6448838" lon="126.9264537"></trkpt>
   <trkpt lat="37.64477" lon="126.9265792"></trkpt>
   <trkpt lat="37.6445987" lon="126.9267687"></trkpt>
  </trkseg>
 </trk>
</gpx>
