<?xml version="1.0" encoding="UTF-8"?>
<gpx creator="daengrun-naver-route" version="1.1" xmlns="http://www.topografix.com/GPX/1/1" xmlns:xsi="http://www.w3.org/2001/XMLSchema-instance" xsi:schemaLocation="http://www.topografix.com/GPX/1/1 http://www.topografix.com/GPX/1/1/gpx.xsd">
 <metadata>
  <name>은평 은평평화공원·북한산생태공원 루프 5.05km</name>
  <desc>daengrun candidate geometry — measured 5.05km via Naver pedestrian router (o=flat, 계단회피). Elevation NOT available from this source. stairs=0 crosswalk=9 steppingstone=0 underpass=0 overpass=0</desc>
  <link href="naver:1fji910"><text>daengrun route id</text></link>
  <copyright author="NAVER Corp."><license>https://map.naver.com/</license></copyright>
 </metadata>
 <trk>
  <name>은평 은평평화공원·북한산생태공원 루프 5.05km</name>
  <trkseg>
   <trkpt lat="37.6149536" lon="126.9332419"></trkpt>
   <trkpt lat="37.6140556" lon="126.9328249"></trkpt>
   <trkpt lat="37.6140556" lon="126.9328249"></trkpt>
   <trkpt lat="37.6140876" lon="126.932725"></trkpt>
   <trkpt lat="37.6141498" lon="126.9325387"></trkpt>
   <trkpt lat="37.6141835" lon="126.9324274"></trkpt>
   <trkpt lat="37.6142048" lon="126.932357"></trkpt>
   <trkpt lat="37.6142744" lon="126.932395"></trkpt>
   <trkpt lat="37.6142744" lon="126.932395"></trkpt>
   <trkpt lat="37.6143064" lon="126.9323086"></trkpt>
   <trkpt lat="37.6143242" lon="126.9322552"></trkpt>
   <trkpt lat="37.6143242" lon="126.9322552"></trkpt>
   <trkpt lat="37.6142375" lon="126.9322151"></trkpt>
   <trkpt lat="37.6141354" lon="126.9321615"></trkpt>
   <trkpt lat="37.6140206" lon="126.9321102"></trkpt>
   <trkpt lat="37.6137326" lon="126.9319969"></trkpt>
   <trkpt lat="37.613499" lon="126.9319782"></trkpt>
   <trkpt lat="37.6134152" lon="126.9319687"></trkpt>
   <trkpt lat="37.6132763" lon="126.931955"></trkpt>
   <trkpt lat="37.6131203" lon="126.9319347"></trkpt>
   <trkpt lat="37.6125612" lon="126.9318981"></trkpt>
   <trkpt lat="37.6124539" lon="126.9318808"></trkpt>
   <trkpt lat="37.6122842" lon="126.9318266"></trkpt>
   <trkpt lat="37.6122318" lon="126.9317941"></trkpt>
   <trkpt lat="37.6122028" lon="126.9317694"></trkpt>
   <trkpt lat="37.6122028" lon="126.9317694"></trkpt>
   <trkpt lat="37.61218" lon="126.9317073"></trkpt>
   <trkpt lat="37.6121378" lon="126.9315569"></trkpt>
   <trkpt lat="37.6120334" lon="126.9312257"></trkpt>
   <trkpt lat="37.6119806" lon="126.9311094"></trkpt>
   <trkpt lat="37.6118788" lon="126.9309425"></trkpt>
   <trkpt lat="37.6117535" lon="126.9307441"></trkpt>
   <trkpt lat="37.6115359" lon="126.9304885"></trkpt>
   <trkpt lat="37.611506" lon="126.9304491"></trkpt>
   <trkpt lat="37.6112421" lon="126.9299344"></trkpt>
   <trkpt lat="37.6111774" lon="126.9297797"></trkpt>
   <trkpt lat="37.6111669" lon="126.929654"></trkpt>
   <trkpt lat="37.6111639" lon="126.9296087"></trkpt>
   <trkpt lat="37.6111666" lon="126.9295883"></trkpt>
   <trkpt lat="37.6111666" lon="126.9295883"></trkpt>
   <trkpt lat="37.6111719" lon="126.9295701"></trkpt>
   <trkpt lat="37.611179" lon="126.9295554"></trkpt>
   <trkpt lat="37.6113155" lon="126.9294388"></trkpt>
   <trkpt lat="37.6113487" lon="126.929409"></trkpt>
   <trkpt lat="37.6113487" lon="126.929409"></trkpt>
   <trkpt lat="37.6112632" lon="126.9292545"></trkpt>
   <trkpt lat="37.6112232" lon="126.9291811"></trkpt>
   <trkpt lat="37.6111904" lon="126.9291225"></trkpt>
   <trkpt lat="37.6111904" lon="126.9291225"></trkpt>
   <trkpt lat="37.6110594" lon="126.9292311"></trkpt>
   <trkpt lat="37.6110306" lon="126.929237"></trkpt>
   <trkpt lat="37.6110306" lon="126.929237"></trkpt>
   <trkpt lat="37.6110161" lon="126.929236"></trkpt>
   <trkpt lat="37.610999" lon="126.9292304"></trkpt>
   <trkpt lat="37.6108826" lon="126.9290183"></trkpt>
   <trkpt lat="37.6108146" lon="126.9289418"></trkpt>
   <trkpt lat="37.610562" lon="126.928716"></trkpt>
   <trkpt lat="37.6105412" lon="126.9286969"></trkpt>
   <trkpt lat="37.6104571" lon="126.9286284"></trkpt>
   <trkpt lat="37.6100906" lon="126.9283321"></trkpt>
   <trkpt lat="37.6100145" lon="126.92825"></trkpt>
   <trkpt lat="37.6099692" lon="126.9281982"></trkpt>
   <trkpt lat="37.609921" lon="126.9281283"></trkpt>
   <trkpt lat="37.6097401" lon="126.9278079"></trkpt>
   <trkpt lat="37.6095238" lon="126.9274267"></trkpt>
   <trkpt lat="37.6094474" lon="126.9272935"></trkpt>
   <trkpt lat="37.6094165" lon="126.9272371"></trkpt>
   <trkpt lat="37.6092111" lon="126.9268818"></trkpt>
   <trkpt lat="37.6091093" lon="126.9267149"></trkpt>
   <trkpt lat="37.6088754" lon="126.9262567"></trkpt>
   <trkpt lat="37.6086332" lon="126.9259278"></trkpt>
   <trkpt lat="37.6084208" lon="126.9256325"></trkpt>
   <trkpt lat="37.6082324" lon="126.9252477"></trkpt>
   <trkpt lat="37.6081231" lon="126.9250151"></trkpt>
   <trkpt lat="37.6080146" lon="126.9247667"></trkpt>
   <trkpt lat="37.6079827" lon="126.9246888"></trkpt>
   <trkpt lat="37.6079827" lon="126.9246888"></trkpt>
   <trkpt lat="37.6078606" lon="126.9247826"></trkpt>
   <trkpt lat="37.6077447" lon="126.9248673"></trkpt>
   <trkpt lat="37.6077447" lon="126.9248673"></trkpt>
   <trkpt lat="37.6076728" lon="126.9247183"></trkpt>
   <trkpt lat="37.6076081" lon="126.9245761"></trkpt>
   <trkpt lat="37.6075151" lon="126.9243683"></trkpt>
   <trkpt lat="37.6072965" lon="126.9239032"></trkpt>
   <trkpt lat="37.6070771" lon="126.9236308"></trkpt>
   <trkpt lat="37.6069685" lon="126.9235398"></trkpt>
   <trkpt lat="37.6069051" lon="126.9234769"></trkpt>
   <trkpt lat="37.6068136" lon="126.9233949"></trkpt>
   <trkpt lat="37.6067585" lon="126.9233602"></trkpt>
   <trkpt lat="37.606707" lon="126.92333"></trkpt>
   <trkpt lat="37.606612" lon="126.9232741"></trkpt>
   <trkpt lat="37.6065208" lon="126.9232283"></trkpt>
   <trkpt lat="37.6064765" lon="126.9232015"></trkpt>
   <trkpt lat="37.6063952" lon="126.9231602"></trkpt>
   <trkpt lat="37.6063581" lon="126.9231423"></trkpt>
   <trkpt lat="37.6063202" lon="126.9231358"></trkpt>
   <trkpt lat="37.6062905" lon="126.9231349"></trkpt>
   <trkpt lat="37.60625" lon="126.9231511"></trkpt>
   <trkpt lat="37.606171" lon="126.9232084"></trkpt>
   <trkpt lat="37.606171" lon="126.9232084"></trkpt>
   <trkpt lat="37.606082" lon="126.9230697"></trkpt>
   <trkpt lat="37.6060111" lon="126.9229615"></trkpt>
   <trkpt lat="37.6059643" lon="126.9229698"></trkpt>
   <trkpt lat="37.605931" lon="126.922978"></trkpt>
   <trkpt lat="37.605931" lon="126.922978"></trkpt>
   <trkpt lat="37.6059347" lon="126.9230051"></trkpt>
   <trkpt lat="37.6059349" lon="126.9230459"></trkpt>
   <trkpt lat="37.6059279" lon="126.9230743"></trkpt>
   <trkpt lat="37.6059162" lon="126.9230891"></trkpt>
   <trkpt lat="37.605884" lon="126.9231324"></trkpt>
   <trkpt lat="37.60584" lon="126.9231735"></trkpt>
   <trkpt lat="37.6054971" lon="126.9234696"></trkpt>
   <trkpt lat="37.6053419" lon="126.9236"></trkpt>
   <trkpt lat="37.6053419" lon="126.9236"></trkpt>
   <trkpt lat="37.6053319" lon="126.923583"></trkpt>
   <trkpt lat="37.6052973" lon="126.923521"></trkpt>
   <trkpt lat="37.6052308" lon="126.9233844"></trkpt>
   <trkpt lat="37.6052051" lon="126.9232759"></trkpt>
   <trkpt lat="37.6052032" lon="126.9232612"></trkpt>
   <trkpt lat="37.6052032" lon="126.9232612"></trkpt>
   <trkpt lat="37.6052051" lon="126.9232759"></trkpt>
   <trkpt lat="37.6052308" lon="126.9233844"></trkpt>
   <trkpt lat="37.6052973" lon="126.923521"></trkpt>
   <trkpt lat="37.6053319" lon="126.923583"></trkpt>
   <trkpt lat="37.6053419" lon="126.9236"></trkpt>
   <trkpt lat="37.6053419" lon="126.9236"></trkpt>
   <trkpt lat="37.6054971" lon="126.9234696"></trkpt>
   <trkpt lat="37.60584" lon="126.9231735"></trkpt>
   <trkpt lat="37.605884" lon="126.9231324"></trkpt>
   <trkpt lat="37.6059162" lon="126.9230891"></trkpt>
   <trkpt lat="37.6059279" lon="126.9230743"></trkpt>
   <trkpt lat="37.6059349" lon="126.9230459"></trkpt>
   <trkpt lat="37.6059347" lon="126.9230051"></trkpt>
   <trkpt lat="37.605931" lon="126.922978"></trkpt>
   <trkpt lat="37.605931" lon="126.922978"></trkpt>
   <trkpt lat="37.6059643" lon="126.9229698"></trkpt>
   <trkpt lat="37.6060111" lon="126.9229615"></trkpt>
   <trkpt lat="37.606082" lon="126.9230697"></trkpt>
   <trkpt lat="37.606171" lon="126.9232084"></trkpt>
   <trkpt lat="37.606171" lon="126.9232084"></trkpt>
   <trkpt lat="37.60625" lon="126.9231511"></trkpt>
   <trkpt lat="37.6062905" lon="126.9231349"></trkpt>
   <trkpt lat="37.6063202" lon="126.9231358"></trkpt>
   <trkpt lat="37.6063581" lon="126.9231423"></trkpt>
   <trkpt lat="37.6063952" lon="126.9231602"></trkpt>
   <trkpt lat="37.6064765" lon="126.9232015"></trkpt>
   <trkpt lat="37.6065208" lon="126.9232283"></trkpt>
   <trkpt lat="37.606612" lon="126.9232741"></trkpt>
   <trkpt lat="37.606707" lon="126.92333"></trkpt>
   <trkpt lat="37.6067585" lon="126.9233602"></trkpt>
   <trkpt lat="37.6068136" lon="126.9233949"></trkpt>
   <trkpt lat="37.6069051" lon="126.9234769"></trkpt>
   <trkpt lat="37.6069685" lon="126.9235398"></trkpt>
   <trkpt lat="37.6070771" lon="126.9236308"></trkpt>
   <trkpt lat="37.6072965" lon="126.9239032"></trkpt>
   <trkpt lat="37.6075151" lon="126.9243683"></trkpt>
   <trkpt lat="37.6076081" lon="126.9245761"></trkpt>
   <trkpt lat="37.6076728" lon="126.9247183"></trkpt>
   <trkpt lat="37.6077447" lon="126.9248673"></trkpt>
   <trkpt lat="37.6077675" lon="126.9249227"></trkpt>
   <trkpt lat="37.607866" lon="126.9251508"></trkpt>
   <trkpt lat="37.6079498" lon="126.9253439"></trkpt>
   <trkpt lat="37.6081592" lon="126.9257649"></trkpt>
   <trkpt lat="37.6082119" lon="126.9258573"></trkpt>
   <trkpt lat="37.6083671" lon="126.9260873"></trkpt>
   <trkpt lat="37.6086619" lon="126.9264521"></trkpt>
   <trkpt lat="37.6086864" lon="126.9264938"></trkpt>
   <trkpt lat="37.6087119" lon="126.926548"></trkpt>
   <trkpt lat="37.6087356" lon="126.9265988"></trkpt>
   <trkpt lat="37.6088014" lon="126.9267977"></trkpt>
   <trkpt lat="37.6088483" lon="126.926973"></trkpt>
   <trkpt lat="37.6088483" lon="126.926973"></trkpt>
   <trkpt lat="37.6088497" lon="126.927263"></trkpt>
   <trkpt lat="37.6088409" lon="126.9273118"></trkpt>
   <trkpt lat="37.608818" lon="126.9274219"></trkpt>
   <trkpt lat="37.6087728" lon="126.9275888"></trkpt>
   <trkpt lat="37.6086848" lon="126.9278285"></trkpt>
   <trkpt lat="37.6085546" lon="126.9281263"></trkpt>
   <trkpt lat="37.6084017" lon="126.9285592"></trkpt>
   <trkpt lat="37.6083742" lon="126.9286523"></trkpt>
   <trkpt lat="37.6083548" lon="126.9287374"></trkpt>
   <trkpt lat="37.6083027" lon="126.9289667"></trkpt>
   <trkpt lat="37.608276" lon="126.9292195"></trkpt>
   <trkpt lat="37.6082763" lon="126.929471"></trkpt>
   <trkpt lat="37.6082921" lon="126.9297542"></trkpt>
   <trkpt lat="37.6083201" lon="126.930138"></trkpt>
   <trkpt lat="37.6083605" lon="126.9304923"></trkpt>
   <trkpt lat="37.6083982" lon="126.9306325"></trkpt>
   <trkpt lat="37.6084494" lon="126.9307783"></trkpt>
   <trkpt lat="37.6085061" lon="126.9309591"></trkpt>
   <trkpt lat="37.6085563" lon="126.9310902"></trkpt>
   <trkpt lat="37.6085776" lon="126.9312067"></trkpt>
   <trkpt lat="37.6085691" lon="126.9313133"></trkpt>
   <trkpt lat="37.6085691" lon="126.9313133"></trkpt>
   <trkpt lat="37.6086214" lon="126.9313208"></trkpt>
   <trkpt lat="37.6086466" lon="126.9313184"></trkpt>
   <trkpt lat="37.6087285" lon="126.9314696"></trkpt>
   <trkpt lat="37.6088058" lon="126.9316038"></trkpt>
   <trkpt lat="37.6087961" lon="126.9316628"></trkpt>
   <trkpt lat="37.608791" lon="126.9317263"></trkpt>
   <trkpt lat="37.608791" lon="126.9317263"></trkpt>
   <trkpt lat="37.6088542" lon="126.9317394"></trkpt>
   <trkpt lat="37.608903" lon="126.931773"></trkpt>
   <trkpt lat="37.6089867" lon="126.9319276"></trkpt>
   <trkpt lat="37.6092645" lon="126.9325384"></trkpt>
   <trkpt lat="37.6093716" lon="126.932873"></trkpt>
   <trkpt lat="37.6094229" lon="126.9330516"></trkpt>
   <trkpt lat="37.6094523" lon="126.9331556"></trkpt>
   <trkpt lat="37.6094895" lon="126.9334023"></trkpt>
   <trkpt lat="37.6095262" lon="126.9337147"></trkpt>
   <trkpt lat="37.6095425" lon="126.9344828"></trkpt>
   <trkpt lat="37.6095439" lon="126.9345961"></trkpt>
   <trkpt lat="37.6095552" lon="126.9352656"></trkpt>
   <trkpt lat="37.6095577" lon="126.9353959"></trkpt>
   <trkpt lat="37.6095659" lon="126.9359827"></trkpt>
   <trkpt lat="37.609606" lon="126.9364514"></trkpt>
   <trkpt lat="37.60962" lon="126.936551"></trkpt>
   <trkpt lat="37.6096626" lon="126.9368068"></trkpt>
   <trkpt lat="37.6096784" lon="126.9368882"></trkpt>
   <trkpt lat="37.6098023" lon="126.9373609"></trkpt>
   <trkpt lat="37.6099357" lon="126.9377462"></trkpt>
   <trkpt lat="37.6100343" lon="126.9380151"></trkpt>
   <trkpt lat="37.6101358" lon="126.9383033"></trkpt>
   <trkpt lat="37.6103755" lon="126.9390617"></trkpt>
   <trkpt lat="37.6104058" lon="126.9391726"></trkpt>
   <trkpt lat="37.6104444" lon="126.9393218"></trkpt>
   <trkpt lat="37.6104444" lon="126.9393218"></trkpt>
   <trkpt lat="37.6105703" lon="126.9392756"></trkpt>
   <trkpt lat="37.6106837" lon="126.9392373"></trkpt>
   <trkpt lat="37.6106837" lon="126.9392373"></trkpt>
   <trkpt lat="37.6106754" lon="126.9391989"></trkpt>
   <trkpt lat="37.6106769" lon="126.9391411"></trkpt>
   <trkpt lat="37.6106875" lon="126.9390877"></trkpt>
   <trkpt lat="37.6109172" lon="126.9390622"></trkpt>
   <trkpt lat="37.6113203" lon="126.939092"></trkpt>
   <trkpt lat="37.6113636" lon="126.9391042"></trkpt>
   <trkpt lat="37.6113826" lon="126.9391301"></trkpt>
   <trkpt lat="37.6114371" lon="126.9392158"></trkpt>
   <trkpt lat="37.6114371" lon="126.9392158"></trkpt>
   <trkpt lat="37.6113443" lon="126.9392267"></trkpt>
   <trkpt lat="37.6112677" lon="126.9392171"></trkpt>
   <trkpt lat="37.6112298" lon="126.9392185"></trkpt>
   <trkpt lat="37.6112037" lon="126.9392277"></trkpt>
   <trkpt lat="37.6111903" lon="126.9392369"></trkpt>
   <trkpt lat="37.6111903" lon="126.9392369"></trkpt>
   <trkpt lat="37.6112551" lon="126.9394143"></trkpt>
   <trkpt lat="37.6113048" lon="126.939636"></trkpt>
   <trkpt lat="37.611305" lon="126.9396711"></trkpt>
   <trkpt lat="37.6112634" lon="126.9398335"></trkpt>
   <trkpt lat="37.611261" lon="126.9398981"></trkpt>
   <trkpt lat="37.6112731" lon="126.9399829"></trkpt>
   <trkpt lat="37.6112941" lon="126.9400326"></trkpt>
   <trkpt lat="37.6112932" lon="126.9400326"></trkpt>
   <trkpt lat="37.6112932" lon="126.9400326"></trkpt>
   <trkpt lat="37.6112941" lon="126.9400326"></trkpt>
   <trkpt lat="37.6112731" lon="126.9399829"></trkpt>
   <trkpt lat="37.611261" lon="126.9398981"></trkpt>
   <trkpt lat="37.6112634" lon="126.9398335"></trkpt>
   <trkpt lat="37.611305" lon="126.9396711"></trkpt>
   <trkpt lat="37.6113048" lon="126.939636"></trkpt>
   <trkpt lat="37.6112551" lon="126.9394143"></trkpt>
   <trkpt lat="37.6111903" lon="126.9392369"></trkpt>
   <trkpt lat="37.6111903" lon="126.9392369"></trkpt>
   <trkpt lat="37.6112037" lon="126.9392277"></trkpt>
   <trkpt lat="37.6112298" lon="126.9392185"></trkpt>
   <trkpt lat="37.6112677" lon="126.9392171"></trkpt>
   <trkpt lat="37.6113443" lon="126.9392267"></trkpt>
   <trkpt lat="37.6114371" lon="126.9392158"></trkpt>
   <trkpt lat="37.6114371" lon="126.9392158"></trkpt>
   <trkpt lat="37.6113826" lon="126.9391301"></trkpt>
   <trkpt lat="37.6113636" lon="126.9391042"></trkpt>
   <trkpt lat="37.6113203" lon="126.939092"></trkpt>
   <trkpt lat="37.6109172" lon="126.9390622"></trkpt>
   <trkpt lat="37.6106875" lon="126.9390877"></trkpt>
   <trkpt lat="37.6106875" lon="126.9390877"></trkpt>
   <trkpt lat="37.6107185" lon="126.9389663"></trkpt>
   <trkpt lat="37.610736" lon="126.9388664"></trkpt>
   <trkpt lat="37.6107684" lon="126.9386622"></trkpt>
   <trkpt lat="37.6108183" lon="126.938356"></trkpt>
   <trkpt lat="37.6108237" lon="126.9383446"></trkpt>
   <trkpt lat="37.6108327" lon="126.9383377"></trkpt>
   <trkpt lat="37.6109604" lon="126.9382767"></trkpt>
   <trkpt lat="37.6110053" lon="126.9382514"></trkpt>
   <trkpt lat="37.6110655" lon="126.9382181"></trkpt>
   <trkpt lat="37.6111329" lon="126.938178"></trkpt>
   <trkpt lat="37.6112875" lon="126.9380703"></trkpt>
   <trkpt lat="37.611371" lon="126.9380051"></trkpt>
   <trkpt lat="37.611422" lon="126.937939"></trkpt>
   <trkpt lat="37.6114471" lon="126.9378991"></trkpt>
   <trkpt lat="37.6114827" lon="126.9378037"></trkpt>
   <trkpt lat="37.6115067" lon="126.9377457"></trkpt>
   <trkpt lat="37.611563" lon="126.9376309"></trkpt>
   <trkpt lat="37.6116373" lon="126.9375329"></trkpt>
   <trkpt lat="37.6117378" lon="126.9374324"></trkpt>
   <trkpt lat="37.6118292" lon="126.9373207"></trkpt>
   <trkpt lat="37.6119278" lon="126.93721"></trkpt>
   <trkpt lat="37.6121096" lon="126.9369662"></trkpt>
   <trkpt lat="37.61213" lon="126.936889"></trkpt>
   <trkpt lat="37.6121325" lon="126.9368369"></trkpt>
   <trkpt lat="37.6121321" lon="126.9367712"></trkpt>
   <trkpt lat="37.6121251" lon="126.936437"></trkpt>
   <trkpt lat="37.612121" lon="126.9363169"></trkpt>
   <trkpt lat="37.6121118" lon="126.9359068"></trkpt>
   <trkpt lat="37.6121118" lon="126.9359068"></trkpt>
   <trkpt lat="37.6123347" lon="126.9357714"></trkpt>
   <trkpt lat="37.6124101" lon="126.9357176"></trkpt>
   <trkpt lat="37.6124702" lon="126.9356571"></trkpt>
   <trkpt lat="37.6124863" lon="126.935623"></trkpt>
   <trkpt lat="37.6125006" lon="126.9355934"></trkpt>
   <trkpt lat="37.6125139" lon="126.9355457"></trkpt>
   <trkpt lat="37.6125343" lon="126.935481"></trkpt>
   <trkpt lat="37.6125537" lon="126.9354061"></trkpt>
   <trkpt lat="37.6125838" lon="126.9352857"></trkpt>
   <trkpt lat="37.612612" lon="126.9351371"></trkpt>
   <trkpt lat="37.612641" lon="126.9349998"></trkpt>
   <trkpt lat="37.612648" lon="126.9347516"></trkpt>
   <trkpt lat="37.6126495" lon="126.9346949"></trkpt>
   <trkpt lat="37.6126484" lon="126.9346575"></trkpt>
   <trkpt lat="37.6126446" lon="126.9346247"></trkpt>
   <trkpt lat="37.6126333" lon="126.9345217"></trkpt>
   <trkpt lat="37.6125884" lon="126.9341674"></trkpt>
   <trkpt lat="37.6125745" lon="126.9340905"></trkpt>
   <trkpt lat="37.6125542" lon="126.9339977"></trkpt>
   <trkpt lat="37.6125267" lon="126.9338959"></trkpt>
   <trkpt lat="37.6125056" lon="126.9338292"></trkpt>
   <trkpt lat="37.6124837" lon="126.9337762"></trkpt>
   <trkpt lat="37.6124056" lon="126.933651"></trkpt>
   <trkpt lat="37.6123303" lon="126.933536"></trkpt>
   <trkpt lat="37.6120563" lon="126.9331721"></trkpt>
   <trkpt lat="37.6120173" lon="126.9331282"></trkpt>
   <trkpt lat="37.6119992" lon="126.9331045"></trkpt>
   <trkpt lat="37.6119865" lon="126.933082"></trkpt>
   <trkpt lat="37.6119827" lon="126.9330458"></trkpt>
   <trkpt lat="37.6119844" lon="126.9330208"></trkpt>
   <trkpt lat="37.6119982" lon="126.9328927"></trkpt>
   <trkpt lat="37.6120094" lon="126.9327861"></trkpt>
   <trkpt lat="37.612028" lon="126.9325299"></trkpt>
   <trkpt lat="37.6120322" lon="126.9324664"></trkpt>
   <trkpt lat="37.6120433" lon="126.9323451"></trkpt>
   <trkpt lat="37.612051" lon="126.9322487"></trkpt>
   <trkpt lat="37.6120596" lon="126.9321727"></trkpt>
   <trkpt lat="37.6120788" lon="126.9320412"></trkpt>
   <trkpt lat="37.612092" lon="126.931964"></trkpt>
   <trkpt lat="37.612092" lon="126.931964"></trkpt>
   <trkpt lat="37.612462" lon="126.9320632"></trkpt>
   <trkpt lat="37.612563" lon="126.9320726"></trkpt>
   <trkpt lat="37.6129444" lon="126.9320946"></trkpt>
   <trkpt lat="37.6130922" lon="126.9321026"></trkpt>
   <trkpt lat="37.6132753" lon="126.9321159"></trkpt>
   <trkpt lat="37.6134069" lon="126.9321251"></trkpt>
   <trkpt lat="37.6134484" lon="126.9321271"></trkpt>
   <trkpt lat="37.6134484" lon="126.9321271"></trkpt>
   <trkpt lat="37.6134682" lon="126.932128"></trkpt>
   <trkpt lat="37.6135421" lon="126.9321354"></trkpt>
   <trkpt lat="37.6135421" lon="126.9321354"></trkpt>
   <trkpt lat="37.6137658" lon="126.9321575"></trkpt>
   <trkpt lat="37.6140132" lon="126.9322587"></trkpt>
   <trkpt lat="37.6141163" lon="126.9323146"></trkpt>
   <trkpt lat="37.6142048" lon="126.932357"></trkpt>
   <trkpt lat="37.6142048" lon="126.932357"></trkpt>
   <trkpt lat="37.6141835" lon="126.9324274"></trkpt>
   <trkpt lat="37.6141498" lon="126.9325387"></trkpt>
   <trkpt lat="37.6140876" lon="126.932725"></trkpt>
   <trkpt lat="37.6140556" lon="126.9328249"></trkpt>
   <trkpt lat="37.6140556" lon="126.9328249"></trkpt>
   <trkpt lat="37.6149536" lon="126.9332419"></trkpt>
  </trkseg>
 </trk>
</gpx>
