<?xml version="1.0" encoding="UTF-8"?>
<gpx creator="StravaGPX" version="1.1" xmlns="http://www.topografix.com/GPX/1/1" xmlns:xsi="http://www.w3.org/2001/XMLSchema-instance" xsi:schemaLocation="http://www.topografix.com/GPX/1/1 http://www.topografix.com/GPX/1/1/gpx.xsd">
 <metadata>
  <name>은평 물푸레골천 박석 루프 6.8km</name>
  <desc>daengrun candidate geometry — measured 6.8km, gain 100</desc>
  <author>
   <name>S Kim</name>
   <link href="https://www.strava.com/athletes/558867461"/>
  </author>
  <copyright author="OpenStreetMap contributors">
   <year>2020</year>
   <license>https://www.openstreetmap.org/copyright</license>
  </copyright>
  <link href="https://www.strava.com/routes/3525055224123590598"/>
 </metadata>
 <trk>
  <name>은평 물푸레골천 박석 루프 6.8km</name>
  <desc>daengrun candidate geometry — measured 6.8km, gain 100</desc>
  <link href="https://www.strava.com/routes/3525055224123590598"/>
  <type>running</type>
  <trkseg>
   <trkpt lat="37.63290000000001" lon="126.92190000000001">
    <ele>42.9</ele>
   </trkpt>
   <trkpt lat="37.632760000000005" lon="126.92199000000001">
    <ele>43.480000000000004</ele>
   </trkpt>
   <trkpt lat="37.633070000000004" lon="126.92266000000001">
    <ele>41.89</ele>
   </trkpt>
   <trkpt lat="37.63302" lon="126.92287000000002">
    <ele>40.84</ele>
   </trkpt>
   <trkpt lat="37.63346000000001" lon="126.92253000000001">
    <ele>39.35</ele>
   </trkpt>
   <trkpt lat="37.63355" lon="126.9227">
    <ele>39.36000000000001</ele>
   </trkpt>
   <trkpt lat="37.633970000000005" lon="126.92233000000002">
    <ele>39.05</ele>
   </trkpt>
   <trkpt lat="37.634080000000004" lon="126.92219000000001">
    <ele>38.830000000000005</ele>
   </trkpt>
   <trkpt lat="37.63432" lon="126.92162">
    <ele>38.67</ele>
   </trkpt>
   <trkpt lat="37.634420000000006" lon="126.92090000000002">
    <ele>38.55</ele>
   </trkpt>
   <trkpt lat="37.634510000000006" lon="126.92055">
    <ele>38.18000000000001</ele>
   </trkpt>
   <trkpt lat="37.63485" lon="126.92029000000001">
    <ele>37.95</ele>
   </trkpt>
   <trkpt lat="37.635000000000005" lon="126.92015">
    <ele>37.96</ele>
   </trkpt>
   <trkpt lat="37.635090000000005" lon="126.91991000000002">
    <ele>37.910000000000004</ele>
   </trkpt>
   <trkpt lat="37.635130000000004" lon="126.91966000000001">
    <ele>37.68000000000001</ele>
   </trkpt>
   <trkpt lat="37.63512" lon="126.91899000000001">
    <ele>38.220000000000006</ele>
   </trkpt>
   <trkpt lat="37.634660000000004" lon="126.91902">
    <ele>39.31</ele>
   </trkpt>
   <trkpt lat="37.63464500341622" lon="126.9181199997031">
    <ele>41.45</ele>
   </trkpt>
   <trkpt lat="37.63463" lon="126.91722000000001">
    <ele>45.980000000000004</ele>
   </trkpt>
   <trkpt lat="37.63468" lon="126.91716000000001">
    <ele>46.03</ele>
   </trkpt>
   <trkpt lat="37.63467" lon="126.91696000000002">
    <ele>46.25000000000001</ele>
   </trkpt>
   <trkpt lat="37.634550000000004" lon="126.91673000000002">
    <ele>46.910000000000004</ele>
   </trkpt>
   <trkpt lat="37.63452" lon="126.91616">
    <ele>49.39</ele>
   </trkpt>
   <trkpt lat="37.63447" lon="126.91561000000002">
    <ele>55.77</ele>
   </trkpt>
   <trkpt lat="37.63440000000001" lon="126.91560000000001">
    <ele>55.760000000000005</ele>
   </trkpt>
   <trkpt lat="37.63439" lon="126.91488000000001">
    <ele>57.99000000000001</ele>
   </trkpt>
   <trkpt lat="37.634350000000005" lon="126.91413000000001">
    <ele>59.620000000000005</ele>
   </trkpt>
   <trkpt lat="37.63421" lon="126.91334">
    <ele>61.38</ele>
   </trkpt>
   <trkpt lat="37.634220000000006" lon="126.91305000000001">
    <ele>62.220000000000006</ele>
   </trkpt>
   <trkpt lat="37.63421" lon="126.91334">
    <ele>61.38</ele>
   </trkpt>
   <trkpt lat="37.634350000000005" lon="126.91413000000001">
    <ele>59.620000000000005</ele>
   </trkpt>
   <trkpt lat="37.63439" lon="126.91488000000001">
    <ele>57.99000000000001</ele>
   </trkpt>
   <trkpt lat="37.63440000000001" lon="126.91560000000001">
    <ele>55.760000000000005</ele>
   </trkpt>
   <trkpt lat="37.63443000168093" lon="126.9162299998727">
    <ele>50.04</ele>
   </trkpt>
   <trkpt lat="37.634460000000004" lon="126.91686000000001">
    <ele>46.720000000000006</ele>
   </trkpt>
   <trkpt lat="37.635123333394674" lon="126.91682666725922">
    <ele>46.73</ele>
   </trkpt>
   <trkpt lat="37.63578666677996" lon="126.9167933339233">
    <ele>42.96</ele>
   </trkpt>
   <trkpt lat="37.63645" lon="126.91676000000001">
    <ele>40.080000000000005</ele>
   </trkpt>
   <trkpt lat="37.637156666643115" lon="126.9167033344153">
    <ele>38.760000000000005</ele>
   </trkpt>
   <trkpt lat="37.63786333325911" lon="126.91664666775274">
    <ele>37.05</ele>
   </trkpt>
   <trkpt lat="37.63857" lon="126.91659000000001">
    <ele>35.4</ele>
   </trkpt>
   <trkpt lat="37.63875" lon="126.91657000000001">
    <ele>34.18</ele>
   </trkpt>
   <trkpt lat="37.63899" lon="126.91647">
    <ele>34.17</ele>
   </trkpt>
   <trkpt lat="37.63895500160221" lon="126.91585499981697">
    <ele>36.26</ele>
   </trkpt>
   <trkpt lat="37.638920000000006" lon="126.91524000000001">
    <ele>41.85</ele>
   </trkpt>
   <trkpt lat="37.6389" lon="126.91519000000001">
    <ele>41.85</ele>
   </trkpt>
   <trkpt lat="37.638850000000005" lon="126.91508000000002">
    <ele>42.24000000000001</ele>
   </trkpt>
   <trkpt lat="37.63853" lon="126.91481000000002">
    <ele>47.34</ele>
   </trkpt>
   <trkpt lat="37.638040000000004" lon="126.91432">
    <ele>56.11000000000001</ele>
   </trkpt>
   <trkpt lat="37.63786" lon="126.91401">
    <ele>60.39000000000001</ele>
   </trkpt>
   <trkpt lat="37.63774" lon="126.91354000000001">
    <ele>66.65</ele>
   </trkpt>
   <trkpt lat="37.637730000000005" lon="126.91352">
    <ele>67.0</ele>
   </trkpt>
   <trkpt lat="37.63786" lon="126.91401">
    <ele>60.39000000000001</ele>
   </trkpt>
   <trkpt lat="37.638040000000004" lon="126.91432">
    <ele>56.11000000000001</ele>
   </trkpt>
   <trkpt lat="37.63853" lon="126.91481000000002">
    <ele>47.34</ele>
   </trkpt>
   <trkpt lat="37.638850000000005" lon="126.91508000000002">
    <ele>42.24000000000001</ele>
   </trkpt>
   <trkpt lat="37.638920000000006" lon="126.91524000000001">
    <ele>41.85</ele>
   </trkpt>
   <trkpt lat="37.63895500159006" lon="126.91585499960358">
    <ele>36.26</ele>
   </trkpt>
   <trkpt lat="37.63899" lon="126.91647">
    <ele>34.17</ele>
   </trkpt>
   <trkpt lat="37.63891" lon="126.91650000000001">
    <ele>34.18</ele>
   </trkpt>
   <trkpt lat="37.638830000000006" lon="126.91658000000001">
    <ele>34.36</ele>
   </trkpt>
   <trkpt lat="37.638870000000004" lon="126.91691000000002">
    <ele>34.02</ele>
   </trkpt>
   <trkpt lat="37.638960000000004" lon="126.91694000000001">
    <ele>34.13</ele>
   </trkpt>
   <trkpt lat="37.639010000000006" lon="126.91779000000001">
    <ele>34.14</ele>
   </trkpt>
   <trkpt lat="37.63904" lon="126.91874000000001">
    <ele>35.27</ele>
   </trkpt>
   <trkpt lat="37.63828000003592" lon="126.91880000184197">
    <ele>35.550000000000004</ele>
   </trkpt>
   <trkpt lat="37.63752000004146" lon="126.91886000245646">
    <ele>36.32000000000001</ele>
   </trkpt>
   <trkpt lat="37.636760000016636" lon="126.91892000184345">
    <ele>36.74</ele>
   </trkpt>
   <trkpt lat="37.636" lon="126.91898">
    <ele>37.94</ele>
   </trkpt>
   <trkpt lat="37.63512" lon="126.91899000000001">
    <ele>37.59</ele>
   </trkpt>
   <trkpt lat="37.635130000000004" lon="126.91966000000001">
    <ele>37.68000000000001</ele>
   </trkpt>
   <trkpt lat="37.635090000000005" lon="126.91991000000002">
    <ele>37.910000000000004</ele>
   </trkpt>
   <trkpt lat="37.635000000000005" lon="126.92015">
    <ele>37.96</ele>
   </trkpt>
   <trkpt lat="37.63485" lon="126.92029000000001">
    <ele>37.95</ele>
   </trkpt>
   <trkpt lat="37.634510000000006" lon="126.92055">
    <ele>38.18000000000001</ele>
   </trkpt>
   <trkpt lat="37.634420000000006" lon="126.92090000000002">
    <ele>38.55</ele>
   </trkpt>
   <trkpt lat="37.63432" lon="126.92162">
    <ele>38.67</ele>
   </trkpt>
   <trkpt lat="37.634080000000004" lon="126.92219000000001">
    <ele>38.830000000000005</ele>
   </trkpt>
   <trkpt lat="37.633970000000005" lon="126.92233000000002">
    <ele>39.05</ele>
   </trkpt>
   <trkpt lat="37.63355" lon="126.9227">
    <ele>39.49</ele>
   </trkpt>
   <trkpt lat="37.63312500053069" lon="126.92300500164522">
    <ele>39.589999999999996</ele>
   </trkpt>
   <trkpt lat="37.6327" lon="126.92331000000001">
    <ele>40.019999999999996</ele>
   </trkpt>
   <trkpt lat="37.63248" lon="126.92339000000001">
    <ele>40.25</ele>
   </trkpt>
   <trkpt lat="37.632360000000006" lon="126.92348000000001">
    <ele>40.36</ele>
   </trkpt>
   <trkpt lat="37.6323" lon="126.92361000000001">
    <ele>40.43</ele>
   </trkpt>
   <trkpt lat="37.63228" lon="126.92373">
    <ele>40.43</ele>
   </trkpt>
   <trkpt lat="37.632310000000004" lon="126.92392000000001">
    <ele>40.35</ele>
   </trkpt>
   <trkpt lat="37.63282" lon="126.92482000000001">
    <ele>40.660000000000004</ele>
   </trkpt>
   <trkpt lat="37.633120000000005" lon="126.92508000000001">
    <ele>41.78</ele>
   </trkpt>
   <trkpt lat="37.633300000000006" lon="126.92530000000001">
    <ele>43.38</ele>
   </trkpt>
   <trkpt lat="37.633300000000006" lon="126.92544000000001">
    <ele>43.45</ele>
   </trkpt>
   <trkpt lat="37.6332" lon="126.92567000000001">
    <ele>42.97</ele>
   </trkpt>
   <trkpt lat="37.63299000000001" lon="126.92588">
    <ele>41.980000000000004</ele>
   </trkpt>
   <trkpt lat="37.632740000000005" lon="126.92644000000001">
    <ele>42.45</ele>
   </trkpt>
   <trkpt lat="37.63252" lon="126.92704">
    <ele>43.27</ele>
   </trkpt>
   <trkpt lat="37.63219" lon="126.92741000000001">
    <ele>43.99</ele>
   </trkpt>
   <trkpt lat="37.63212" lon="126.92771">
    <ele>45.09</ele>
   </trkpt>
   <trkpt lat="37.63206" lon="126.92807">
    <ele>45.65</ele>
   </trkpt>
   <trkpt lat="37.631930000000004" lon="126.92835000000001">
    <ele>45.88</ele>
   </trkpt>
   <trkpt lat="37.631660000000004" lon="126.92864000000002">
    <ele>45.82000000000001</ele>
   </trkpt>
   <trkpt lat="37.63147" lon="126.92879">
    <ele>47.190000000000005</ele>
   </trkpt>
   <trkpt lat="37.63139" lon="126.92887">
    <ele>47.42</ele>
   </trkpt>
   <trkpt lat="37.631130000000006" lon="126.92924000000001">
    <ele>48.27</ele>
   </trkpt>
   <trkpt lat="37.63089" lon="126.92940000000002">
    <ele>48.81</ele>
   </trkpt>
   <trkpt lat="37.630300000000005" lon="126.92957000000001">
    <ele>49.800000000000004</ele>
   </trkpt>
   <trkpt lat="37.62998" lon="126.92961000000001">
    <ele>50.53</ele>
   </trkpt>
   <trkpt lat="37.62942" lon="126.92957000000001">
    <ele>52.34</ele>
   </trkpt>
   <trkpt lat="37.62932" lon="126.92964">
    <ele>52.52</ele>
   </trkpt>
   <trkpt lat="37.629110000000004" lon="126.93011000000001">
    <ele>53.050000000000004</ele>
   </trkpt>
   <trkpt lat="37.62912" lon="126.93032000000001">
    <ele>53.34</ele>
   </trkpt>
   <trkpt lat="37.62924" lon="126.93033000000001">
    <ele>57.260000000000005</ele>
   </trkpt>
   <trkpt lat="37.629290000000005" lon="126.93018000000001">
    <ele>59.10000000000001</ele>
   </trkpt>
   <trkpt lat="37.629360000000005" lon="126.93003000000002">
    <ele>59.43</ele>
   </trkpt>
   <trkpt lat="37.628960000000006" lon="126.92964">
    <ele>59.04</ele>
   </trkpt>
   <trkpt lat="37.62879" lon="126.92953000000001">
    <ele>59.04</ele>
   </trkpt>
   <trkpt lat="37.62856" lon="126.92944000000001">
    <ele>57.980000000000004</ele>
   </trkpt>
   <trkpt lat="37.62771" lon="126.92932">
    <ele>55.85</ele>
   </trkpt>
   <trkpt lat="37.627410000000005" lon="126.92872000000001">
    <ele>54.410000000000004</ele>
   </trkpt>
   <trkpt lat="37.62738" lon="126.92854000000001">
    <ele>54.26</ele>
   </trkpt>
   <trkpt lat="37.62727" lon="126.92852">
    <ele>54.2</ele>
   </trkpt>
   <trkpt lat="37.62722" lon="126.92833000000002">
    <ele>53.790000000000006</ele>
   </trkpt>
   <trkpt lat="37.62722" lon="126.92813000000001">
    <ele>53.230000000000004</ele>
   </trkpt>
   <trkpt lat="37.62735" lon="126.92812">
    <ele>53.71000000000001</ele>
   </trkpt>
   <trkpt lat="37.627430000000004" lon="126.92803">
    <ele>54.8</ele>
   </trkpt>
   <trkpt lat="37.62765" lon="126.92802">
    <ele>56.09</ele>
   </trkpt>
   <trkpt lat="37.62778" lon="126.92791000000001">
    <ele>57.800000000000004</ele>
   </trkpt>
   <trkpt lat="37.62791" lon="126.92788000000002">
    <ele>59.120000000000005</ele>
   </trkpt>
   <trkpt lat="37.62778" lon="126.92791000000001">
    <ele>57.800000000000004</ele>
   </trkpt>
   <trkpt lat="37.62765" lon="126.92802">
    <ele>56.09</ele>
   </trkpt>
   <trkpt lat="37.627430000000004" lon="126.92803">
    <ele>54.8</ele>
   </trkpt>
   <trkpt lat="37.62735" lon="126.92812">
    <ele>53.71000000000001</ele>
   </trkpt>
   <trkpt lat="37.62722" lon="126.92813000000001">
    <ele>53.230000000000004</ele>
   </trkpt>
   <trkpt lat="37.62722" lon="126.92833000000002">
    <ele>53.790000000000006</ele>
   </trkpt>
   <trkpt lat="37.62727" lon="126.92852">
    <ele>54.2</ele>
   </trkpt>
   <trkpt lat="37.62738" lon="126.92854000000001">
    <ele>54.26</ele>
   </trkpt>
   <trkpt lat="37.627410000000005" lon="126.92872000000001">
    <ele>54.410000000000004</ele>
   </trkpt>
   <trkpt lat="37.62771" lon="126.92932">
    <ele>55.85</ele>
   </trkpt>
   <trkpt lat="37.62856" lon="126.92944000000001">
    <ele>57.980000000000004</ele>
   </trkpt>
   <trkpt lat="37.62879" lon="126.92953000000001">
    <ele>59.04</ele>
   </trkpt>
   <trkpt lat="37.628960000000006" lon="126.92964">
    <ele>59.04</ele>
   </trkpt>
   <trkpt lat="37.629360000000005" lon="126.93003000000002">
    <ele>59.43</ele>
   </trkpt>
   <trkpt lat="37.629290000000005" lon="126.93018000000001">
    <ele>59.10000000000001</ele>
   </trkpt>
   <trkpt lat="37.62924" lon="126.93033000000001">
    <ele>57.260000000000005</ele>
   </trkpt>
   <trkpt lat="37.62912" lon="126.93032000000001">
    <ele>53.34</ele>
   </trkpt>
   <trkpt lat="37.629110000000004" lon="126.93011000000001">
    <ele>53.050000000000004</ele>
   </trkpt>
   <trkpt lat="37.62932" lon="126.92964">
    <ele>52.52</ele>
   </trkpt>
   <trkpt lat="37.62942" lon="126.92957000000001">
    <ele>52.190000000000005</ele>
   </trkpt>
   <trkpt lat="37.62998" lon="126.92961000000001">
    <ele>50.32</ele>
   </trkpt>
   <trkpt lat="37.630300000000005" lon="126.92957000000001">
    <ele>49.330000000000005</ele>
   </trkpt>
   <trkpt lat="37.63089" lon="126.92940000000002">
    <ele>48.27</ele>
   </trkpt>
   <trkpt lat="37.631130000000006" lon="126.92924000000001">
    <ele>48.27</ele>
   </trkpt>
   <trkpt lat="37.63139" lon="126.92887">
    <ele>47.42</ele>
   </trkpt>
   <trkpt lat="37.63147" lon="126.92879">
    <ele>47.190000000000005</ele>
   </trkpt>
   <trkpt lat="37.631660000000004" lon="126.92864000000002">
    <ele>45.82000000000001</ele>
   </trkpt>
   <trkpt lat="37.631930000000004" lon="126.92835000000001">
    <ele>45.86000000000001</ele>
   </trkpt>
   <trkpt lat="37.63206" lon="126.92807">
    <ele>45.65</ele>
   </trkpt>
   <trkpt lat="37.63212" lon="126.92771">
    <ele>45.09</ele>
   </trkpt>
   <trkpt lat="37.63219" lon="126.92741000000001">
    <ele>43.84</ele>
   </trkpt>
   <trkpt lat="37.63252" lon="126.92704">
    <ele>43.160000000000004</ele>
   </trkpt>
   <trkpt lat="37.632740000000005" lon="126.92644000000001">
    <ele>42.45</ele>
   </trkpt>
   <trkpt lat="37.632960000000004" lon="126.92594000000001">
    <ele>41.95</ele>
   </trkpt>
   <trkpt lat="37.63284" lon="126.92584000000001">
    <ele>42.36</ele>
   </trkpt>
   <trkpt lat="37.63289" lon="126.92572000000001">
    <ele>42.49000000000001</ele>
   </trkpt>
   <trkpt lat="37.632920000000006" lon="126.92551000000002">
    <ele>42.65</ele>
   </trkpt>
   <trkpt lat="37.63291" lon="126.92532000000001">
    <ele>43.11</ele>
   </trkpt>
   <trkpt lat="37.6328" lon="126.92508000000001">
    <ele>43.27</ele>
   </trkpt>
   <trkpt lat="37.63261" lon="126.92496000000001">
    <ele>43.38</ele>
   </trkpt>
   <trkpt lat="37.63248" lon="126.92476">
    <ele>42.480000000000004</ele>
   </trkpt>
   <trkpt lat="37.632380000000005" lon="126.92449">
    <ele>40.940000000000005</ele>
   </trkpt>
   <trkpt lat="37.632070000000006" lon="126.92389000000001">
    <ele>43.15</ele>
   </trkpt>
   <trkpt lat="37.632070000000006" lon="126.92367000000002">
    <ele>42.93</ele>
   </trkpt>
   <trkpt lat="37.63212" lon="126.92360000000001">
    <ele>42.89</ele>
   </trkpt>
   <trkpt lat="37.63219" lon="126.92331000000001">
    <ele>42.27</ele>
   </trkpt>
   <trkpt lat="37.632310000000004" lon="126.92320000000001">
    <ele>42.03</ele>
   </trkpt>
   <trkpt lat="37.632540000000006" lon="126.92319">
    <ele>41.93</ele>
   </trkpt>
   <trkpt lat="37.63302" lon="126.92287000000002">
    <ele>40.84</ele>
   </trkpt>
   <trkpt lat="37.633070000000004" lon="126.92266000000001">
    <ele>41.89</ele>
   </trkpt>
   <trkpt lat="37.63275" lon="126.92195000000001">
    <ele>42.82</ele>
   </trkpt>
   <trkpt lat="37.63282" lon="126.92191000000001">
    <ele>43.15</ele>
   </trkpt>
   <trkpt lat="37.632830000000006" lon="126.92195000000001">
    <ele>42.89</ele>
   </trkpt>
   <trkpt lat="37.63290000000001" lon="126.92190000000001">
    <ele>42.89</ele>
   </trkpt>
  </trkseg>
 </trk>
</gpx>
