<?xml version="1.0" encoding="UTF-8"?>
<gpx creator="StravaGPX" version="1.1" xmlns="http://www.topografix.com/GPX/1/1" xmlns:xsi="http://www.w3.org/2001/XMLSchema-instance" xsi:schemaLocation="http://www.topografix.com/GPX/1/1 http://www.topografix.com/GPX/1/1/gpx.xsd">
 <metadata>
  <name>이촌 한강 박물관 루프 7.63km</name>
  <desc>daengrun candidate geometry — measured 7.63km, gain 37</desc>
  <author>
   <name>S Kim</name>
   <link href="https://www.strava.com/athletes/558867461"/>
  </author>
  <copyright author="OpenStreetMap contributors">
   <year>2020</year>
   <license>https://www.openstreetmap.org/copyright</license>
  </copyright>
  <link href="https://www.strava.com/routes/3523234988767503826"/>
 </metadata>
 <trk>
  <name>이촌 한강 박물관 루프 7.63km</name>
  <desc>daengrun candidate geometry — measured 7.63km, gain 37</desc>
  <link href="https://www.strava.com/routes/3523234988767503826"/>
  <type>running</type>
  <trkseg>
   <trkpt lat="37.52011" lon="126.97327000000001">
    <ele>21.11</ele>
   </trkpt>
   <trkpt lat="37.5204" lon="126.97234000000002">
    <ele>20.93</ele>
   </trkpt>
   <trkpt lat="37.51958666801479" lon="126.97193999127951">
    <ele>21.48</ele>
   </trkpt>
   <trkpt lat="37.51877333468061" lon="126.97153999127924">
    <ele>21.290000000000003</ele>
   </trkpt>
   <trkpt lat="37.51796" lon="126.97114">
    <ele>16.28</ele>
   </trkpt>
   <trkpt lat="37.517950000000006" lon="126.97114">
    <ele>16.28</ele>
   </trkpt>
   <trkpt lat="37.51876666802291" lon="126.97153999124792">
    <ele>21.290000000000003</ele>
   </trkpt>
   <trkpt lat="37.51958333469692" lon="126.97193999125136">
    <ele>21.48</ele>
   </trkpt>
   <trkpt lat="37.5204" lon="126.97234000000002">
    <ele>20.93</ele>
   </trkpt>
   <trkpt lat="37.520070000000004" lon="126.97339000000001">
    <ele>21.220000000000002</ele>
   </trkpt>
   <trkpt lat="37.51935666764636" lon="126.97304332668888">
    <ele>21.09</ele>
   </trkpt>
   <trkpt lat="37.518643334279496" lon="126.97269666000604">
    <ele>20.880000000000003</ele>
   </trkpt>
   <trkpt lat="37.51793" lon="126.97235">
    <ele>17.18</ele>
   </trkpt>
   <trkpt lat="37.517830000000004" lon="126.97270000000002">
    <ele>17.580000000000002</ele>
   </trkpt>
   <trkpt lat="37.51793" lon="126.97235">
    <ele>17.18</ele>
   </trkpt>
   <trkpt lat="37.51864333438003" lon="126.97269666005488">
    <ele>20.880000000000003</ele>
   </trkpt>
   <trkpt lat="37.51935666774689" lon="126.97304332673774">
    <ele>21.09</ele>
   </trkpt>
   <trkpt lat="37.520070000000004" lon="126.97339000000001">
    <ele>21.220000000000002</ele>
   </trkpt>
   <trkpt lat="37.5204" lon="126.97234000000002">
    <ele>20.93</ele>
   </trkpt>
   <trkpt lat="37.5196700010971" lon="126.97197999295821">
    <ele>21.48</ele>
   </trkpt>
   <trkpt lat="37.51894000110153" lon="126.9716199929605">
    <ele>21.290000000000003</ele>
   </trkpt>
   <trkpt lat="37.51821" lon="126.97126000000002">
    <ele>16.880000000000003</ele>
   </trkpt>
   <trkpt lat="37.51753" lon="126.97094000000001">
    <ele>15.540000000000001</ele>
   </trkpt>
   <trkpt lat="37.51753" lon="126.97092">
    <ele>15.540000000000001</ele>
   </trkpt>
   <trkpt lat="37.51737" lon="126.97085000000001">
    <ele>15.540000000000001</ele>
   </trkpt>
   <trkpt lat="37.517" lon="126.97063000000001">
    <ele>14.640000000000002</ele>
   </trkpt>
   <trkpt lat="37.51693" lon="126.97079000000001">
    <ele>14.5</ele>
   </trkpt>
   <trkpt lat="37.51691" lon="126.97091">
    <ele>14.67</ele>
   </trkpt>
   <trkpt lat="37.51682" lon="126.97114">
    <ele>14.730000000000002</ele>
   </trkpt>
   <trkpt lat="37.516605001326006" lon="126.97173000208775">
    <ele>14.93</ele>
   </trkpt>
   <trkpt lat="37.51639" lon="126.97232000000001">
    <ele>15.21</ele>
   </trkpt>
   <trkpt lat="37.51612" lon="126.97319000000002">
    <ele>15.27</ele>
   </trkpt>
   <trkpt lat="37.51596500130339" lon="126.97374000104207">
    <ele>15.280000000000001</ele>
   </trkpt>
   <trkpt lat="37.51581" lon="126.97429000000001">
    <ele>15.200000000000001</ele>
   </trkpt>
   <trkpt lat="37.515710001488145" lon="126.97488500082208">
    <ele>15.320000000000002</ele>
   </trkpt>
   <trkpt lat="37.51561" lon="126.97548">
    <ele>15.22</ele>
   </trkpt>
   <trkpt lat="37.515493342693944" lon="126.97653333656481">
    <ele>15.38</ele>
   </trkpt>
   <trkpt lat="37.51537667603411" lon="126.97758666983638">
    <ele>15.280000000000001</ele>
   </trkpt>
   <trkpt lat="37.515260000000005" lon="126.97864000000001">
    <ele>15.330000000000002</ele>
   </trkpt>
   <trkpt lat="37.515215003090916" lon="126.97949500033585">
    <ele>15.450000000000001</ele>
   </trkpt>
   <trkpt lat="37.515170000000005" lon="126.98035000000002">
    <ele>15.360000000000001</ele>
   </trkpt>
   <trkpt lat="37.51516" lon="126.98147000000002">
    <ele>15.340000000000002</ele>
   </trkpt>
   <trkpt lat="37.51518" lon="126.98208000000001">
    <ele>15.19</ele>
   </trkpt>
   <trkpt lat="37.51523500979159" lon="126.98295999803405">
    <ele>15.4</ele>
   </trkpt>
   <trkpt lat="37.51529001305462" lon="126.98383999736534">
    <ele>14.900000000000002</ele>
   </trkpt>
   <trkpt lat="37.51534500978909" lon="126.98471999799371">
    <ele>15.120000000000001</ele>
   </trkpt>
   <trkpt lat="37.5154" lon="126.9856">
    <ele>15.200000000000001</ele>
   </trkpt>
   <trkpt lat="37.51536" lon="126.98628000000001">
    <ele>15.44</ele>
   </trkpt>
   <trkpt lat="37.515390000000004" lon="126.98673000000001">
    <ele>15.490000000000002</ele>
   </trkpt>
   <trkpt lat="37.515510000000006" lon="126.98675000000001">
    <ele>15.780000000000003</ele>
   </trkpt>
   <trkpt lat="37.515480000000004" lon="126.98649">
    <ele>15.850000000000003</ele>
   </trkpt>
   <trkpt lat="37.51549" lon="126.98642000000001">
    <ele>15.850000000000003</ele>
   </trkpt>
   <trkpt lat="37.51559" lon="126.98633000000001">
    <ele>16.020000000000003</ele>
   </trkpt>
   <trkpt lat="37.51586" lon="126.98634000000001">
    <ele>16.21</ele>
   </trkpt>
   <trkpt lat="37.51633999982712" lon="126.98638499969356">
    <ele>16.37</ele>
   </trkpt>
   <trkpt lat="37.51682" lon="126.98643000000001">
    <ele>16.71</ele>
   </trkpt>
   <trkpt lat="37.51681" lon="126.98643000000001">
    <ele>16.71</ele>
   </trkpt>
   <trkpt lat="37.51633500003741" lon="126.98638499971628">
    <ele>16.3</ele>
   </trkpt>
   <trkpt lat="37.51586" lon="126.98634000000001">
    <ele>16.21</ele>
   </trkpt>
   <trkpt lat="37.51559" lon="126.98633000000001">
    <ele>16.020000000000003</ele>
   </trkpt>
   <trkpt lat="37.51549" lon="126.98642000000001">
    <ele>15.850000000000003</ele>
   </trkpt>
   <trkpt lat="37.515480000000004" lon="126.98649">
    <ele>15.850000000000003</ele>
   </trkpt>
   <trkpt lat="37.515510000000006" lon="126.98675000000001">
    <ele>15.780000000000003</ele>
   </trkpt>
   <trkpt lat="37.515390000000004" lon="126.98673000000001">
    <ele>15.490000000000002</ele>
   </trkpt>
   <trkpt lat="37.51543" lon="126.98695000000001">
    <ele>15.4</ele>
   </trkpt>
   <trkpt lat="37.515480000000004" lon="126.98712">
    <ele>15.4</ele>
   </trkpt>
   <trkpt lat="37.515600000000006" lon="126.98731000000001">
    <ele>15.4</ele>
   </trkpt>
   <trkpt lat="37.515950000000004" lon="126.98768000000001">
    <ele>15.320000000000002</ele>
   </trkpt>
   <trkpt lat="37.51603" lon="126.98784">
    <ele>15.21</ele>
   </trkpt>
   <trkpt lat="37.51612000208192" lon="126.98853999928355">
    <ele>14.06</ele>
   </trkpt>
   <trkpt lat="37.51621" lon="126.98924000000001">
    <ele>13.48</ele>
   </trkpt>
   <trkpt lat="37.516360000000006" lon="126.98970000000001">
    <ele>13.32</ele>
   </trkpt>
   <trkpt lat="37.516420000000004" lon="126.99005000000001">
    <ele>12.900000000000002</ele>
   </trkpt>
   <trkpt lat="37.51646" lon="126.99021">
    <ele>12.76</ele>
   </trkpt>
   <trkpt lat="37.51675000099001" lon="126.99072499777134">
    <ele>12.64</ele>
   </trkpt>
   <trkpt lat="37.51704" lon="126.99124">
    <ele>12.540000000000001</ele>
   </trkpt>
   <trkpt lat="37.51746500139979" lon="126.99180999679419">
    <ele>12.4</ele>
   </trkpt>
   <trkpt lat="37.51789" lon="126.99238000000001">
    <ele>12.100000000000001</ele>
   </trkpt>
   <trkpt lat="37.51821" lon="126.99268000000001">
    <ele>12.090000000000002</ele>
   </trkpt>
   <trkpt lat="37.518510000000006" lon="126.99311000000002">
    <ele>12.32</ele>
   </trkpt>
   <trkpt lat="37.518600000000006" lon="126.99329000000002">
    <ele>12.360000000000001</ele>
   </trkpt>
   <trkpt lat="37.51878000125676" lon="126.99381999893545">
    <ele>12.280000000000001</ele>
   </trkpt>
   <trkpt lat="37.51896" lon="126.99435000000001">
    <ele>12.540000000000001</ele>
   </trkpt>
   <trkpt lat="37.51944" lon="126.99415">
    <ele>9.030000000000001</ele>
   </trkpt>
   <trkpt lat="37.520140000000005" lon="126.99400000000001">
    <ele>12.790000000000001</ele>
   </trkpt>
   <trkpt lat="37.52059500005075" lon="126.99388500070256">
    <ele>14.16</ele>
   </trkpt>
   <trkpt lat="37.52105" lon="126.99377000000001">
    <ele>18.22</ele>
   </trkpt>
   <trkpt lat="37.521800000000006" lon="126.99368000000001">
    <ele>26.19</ele>
   </trkpt>
   <trkpt lat="37.522180000000006" lon="126.99377000000001">
    <ele>26.220000000000002</ele>
   </trkpt>
   <trkpt lat="37.521553333444515" lon="126.99388000184618">
    <ele>22.8</ele>
   </trkpt>
   <trkpt lat="37.520926666787005" lon="126.99399000184455">
    <ele>19.49</ele>
   </trkpt>
   <trkpt lat="37.520300000000006" lon="126.99410000000002">
    <ele>20.0</ele>
   </trkpt>
   <trkpt lat="37.52026" lon="126.99371000000001">
    <ele>21.27</ele>
   </trkpt>
   <trkpt lat="37.52017" lon="126.99360000000001">
    <ele>21.300000000000004</ele>
   </trkpt>
   <trkpt lat="37.52015" lon="126.99328000000001">
    <ele>21.220000000000002</ele>
   </trkpt>
   <trkpt lat="37.5202" lon="126.99268000000001">
    <ele>21.25</ele>
   </trkpt>
   <trkpt lat="37.52033" lon="126.99176000000001">
    <ele>20.150000000000002</ele>
   </trkpt>
   <trkpt lat="37.520360000000004" lon="126.99093">
    <ele>19.89</ele>
   </trkpt>
   <trkpt lat="37.520410000000005" lon="126.99087000000002">
    <ele>19.98</ele>
   </trkpt>
   <trkpt lat="37.520540000000004" lon="126.99080000000001">
    <ele>19.85</ele>
   </trkpt>
   <trkpt lat="37.52055" lon="126.99063000000001">
    <ele>19.700000000000003</ele>
   </trkpt>
   <trkpt lat="37.520430000000005" lon="126.99048">
    <ele>19.450000000000003</ele>
   </trkpt>
   <trkpt lat="37.52040334072892" lon="126.98954333262058">
    <ele>19.17</ele>
   </trkpt>
   <trkpt lat="37.520376674061005" lon="126.98860666591057">
    <ele>19.21</ele>
   </trkpt>
   <trkpt lat="37.52035" lon="126.98767000000001">
    <ele>19.5</ele>
   </trkpt>
   <trkpt lat="37.52037" lon="126.98721">
    <ele>20.03</ele>
   </trkpt>
   <trkpt lat="37.52017" lon="126.98629000000001">
    <ele>20.77</ele>
   </trkpt>
   <trkpt lat="37.52006000244637" lon="126.98552999895932">
    <ele>20.17</ele>
   </trkpt>
   <trkpt lat="37.51995" lon="126.98477000000001">
    <ele>19.85</ele>
   </trkpt>
   <trkpt lat="37.51991" lon="126.98422000000001">
    <ele>19.590000000000003</ele>
   </trkpt>
   <trkpt lat="37.51993" lon="126.98327">
    <ele>19.700000000000003</ele>
   </trkpt>
   <trkpt lat="37.51995" lon="126.98295000000002">
    <ele>19.75</ele>
   </trkpt>
   <trkpt lat="37.52011500198349" lon="126.982265001492">
    <ele>19.5</ele>
   </trkpt>
   <trkpt lat="37.52028" lon="126.98158000000001">
    <ele>19.250000000000004</ele>
   </trkpt>
   <trkpt lat="37.520520000000005" lon="126.98088000000001">
    <ele>18.98</ele>
   </trkpt>
   <trkpt lat="37.52071" lon="126.98023">
    <ele>18.9</ele>
   </trkpt>
   <trkpt lat="37.521080000000005" lon="126.9792">
    <ele>18.98</ele>
   </trkpt>
   <trkpt lat="37.52109" lon="126.97897">
    <ele>18.98</ele>
   </trkpt>
   <trkpt lat="37.52127" lon="126.97860000000001">
    <ele>18.840000000000003</ele>
   </trkpt>
   <trkpt lat="37.5214650012378" lon="126.97805000154291">
    <ele>18.840000000000003</ele>
   </trkpt>
   <trkpt lat="37.521660000000004" lon="126.9775">
    <ele>18.94</ele>
   </trkpt>
   <trkpt lat="37.521750000000004" lon="126.97718">
    <ele>19.06</ele>
   </trkpt>
   <trkpt lat="37.52168" lon="126.97694000000001">
    <ele>19.28</ele>
   </trkpt>
   <trkpt lat="37.521923337815444" lon="126.976210004794">
    <ele>19.78</ele>
   </trkpt>
   <trkpt lat="37.52216667113802" lon="126.97548000482632">
    <ele>19.650000000000002</ele>
   </trkpt>
   <trkpt lat="37.52241" lon="126.97475000000001">
    <ele>19.31</ele>
   </trkpt>
   <trkpt lat="37.522510000000004" lon="126.97440000000002">
    <ele>18.87</ele>
   </trkpt>
   <trkpt lat="37.522400000000005" lon="126.97436">
    <ele>20.240000000000002</ele>
   </trkpt>
   <trkpt lat="37.522675003325794" lon="126.97347000332361">
    <ele>19.919999999999998</ele>
   </trkpt>
   <trkpt lat="37.52295" lon="126.97258000000001">
    <ele>19.470000000000002</ele>
   </trkpt>
   <trkpt lat="37.523070000000004" lon="126.97212">
    <ele>19.42</ele>
   </trkpt>
   <trkpt lat="37.52273" lon="126.97177">
    <ele>21.54</ele>
   </trkpt>
   <trkpt lat="37.52255" lon="126.97244">
    <ele>21.61</ele>
   </trkpt>
   <trkpt lat="37.521910000000005" lon="126.97209000000001">
    <ele>20.48</ele>
   </trkpt>
   <trkpt lat="37.52161" lon="126.97302">
    <ele>20.67</ele>
   </trkpt>
   <trkpt lat="37.52098500019898" lon="126.97274999769152">
    <ele>20.950000000000003</ele>
   </trkpt>
   <trkpt lat="37.520360000000004" lon="126.97248">
    <ele>20.950000000000003</ele>
   </trkpt>
   <trkpt lat="37.52011" lon="126.97327000000001">
    <ele>21.11</ele>
   </trkpt>
  </trkseg>
 </trk>
</gpx>
