<?xml version="1.0" encoding="UTF-8"?>
<gpx creator="StravaGPX" version="1.1" xmlns="http://www.topografix.com/GPX/1/1" xmlns:xsi="http://www.w3.org/2001/XMLSchema-instance" xsi:schemaLocation="http://www.topografix.com/GPX/1/1 http://www.topografix.com/GPX/1/1/gpx.xsd">
 <metadata>
  <name>잠실 레이크팰리스·석촌호수 서호 루프 3.97km</name>
  <desc>daengrun dog-route candidate — Strava 3.97 km, gain 10 m, surface 57% paved · 0% dirt · 43% not specified. Start/end: 레이크팰리스. Waypoints: 석촌호수 서호 사거리; 석촌호수 아뜰리에; 석촌호수 서호 남단; 송파나루공원; 석촌호수·한솔병원 정류장. West-lake surface route; no subway/station underground passage.</desc>
  <author>
   <name>S Kim</name>
   <link href="https://www.strava.com/athletes/558867461"/>
  </author>
  <copyright author="OpenStreetMap contributors">
   <year>2020</year>
   <license>https://www.openstreetmap.org/copyright</license>
  </copyright>
  <link href="https://www.strava.com/routes/3523231493906677212"/>
 </metadata>
 <trk>
  <name>잠실 레이크팰리스·석촌호수 서호 루프 3.97km</name>
  <desc>daengrun dog-route candidate — Strava 3.97 km, gain 10 m, surface 57% paved · 0% dirt · 43% not specified. Start/end: 레이크팰리스. Waypoints: 석촌호수 서호 사거리; 석촌호수 아뜰리에; 석촌호수 서호 남단; 송파나루공원; 석촌호수·한솔병원 정류장. West-lake surface route; no subway/station underground passage.</desc>
  <link href="https://www.strava.com/routes/3523231493906677212"/>
  <type>running</type>
  <trkseg>
   <trkpt lat="37.508790000000005" lon="127.09347000000001">
    <ele>18.64</ele>
   </trkpt>
   <trkpt lat="37.50858" lon="127.09329000000001">
    <ele>18.840000000000003</ele>
   </trkpt>
   <trkpt lat="37.50831" lon="127.09319">
    <ele>19.01</ele>
   </trkpt>
   <trkpt lat="37.50818" lon="127.09319">
    <ele>18.930000000000003</ele>
   </trkpt>
   <trkpt lat="37.508" lon="127.09303000000001">
    <ele>19.03</ele>
   </trkpt>
   <trkpt lat="37.507670000000005" lon="127.09291">
    <ele>19.430000000000003</ele>
   </trkpt>
   <trkpt lat="37.507310000000004" lon="127.09291">
    <ele>20.09</ele>
   </trkpt>
   <trkpt lat="37.507175003025225" lon="127.09375500143018">
    <ele>20.290000000000003</ele>
   </trkpt>
   <trkpt lat="37.50704" lon="127.09460000000001">
    <ele>20.16</ele>
   </trkpt>
   <trkpt lat="37.50706" lon="127.09471">
    <ele>20.16</ele>
   </trkpt>
   <trkpt lat="37.507000000000005" lon="127.09508000000001">
    <ele>20.19</ele>
   </trkpt>
   <trkpt lat="37.50695" lon="127.09517000000001">
    <ele>20.19</ele>
   </trkpt>
   <trkpt lat="37.50683" lon="127.09601">
    <ele>20.05</ele>
   </trkpt>
   <trkpt lat="37.506750000000004" lon="127.09596">
    <ele>20.05</ele>
   </trkpt>
   <trkpt lat="37.506640000000004" lon="127.09657000000001">
    <ele>20.270000000000003</ele>
   </trkpt>
   <trkpt lat="37.50658" lon="127.09696000000001">
    <ele>20.25</ele>
   </trkpt>
   <trkpt lat="37.50674" lon="127.09700000000001">
    <ele>19.970000000000002</ele>
   </trkpt>
   <trkpt lat="37.506640000000004" lon="127.09753">
    <ele>19.610000000000003</ele>
   </trkpt>
   <trkpt lat="37.50699" lon="127.09783000000002">
    <ele>19.32</ele>
   </trkpt>
   <trkpt lat="37.5069" lon="127.09796000000001">
    <ele>19.07</ele>
   </trkpt>
   <trkpt lat="37.50688" lon="127.09802">
    <ele>19.07</ele>
   </trkpt>
   <trkpt lat="37.50688" lon="127.09810000000002">
    <ele>18.98</ele>
   </trkpt>
   <trkpt lat="37.5069" lon="127.09814000000001">
    <ele>18.98</ele>
   </trkpt>
   <trkpt lat="37.50694" lon="127.09822000000001">
    <ele>18.910000000000004</ele>
   </trkpt>
   <trkpt lat="37.506910000000005" lon="127.09838">
    <ele>18.81</ele>
   </trkpt>
   <trkpt lat="37.5069" lon="127.09869">
    <ele>18.45</ele>
   </trkpt>
   <trkpt lat="37.506930000000004" lon="127.09939000000001">
    <ele>18.28</ele>
   </trkpt>
   <trkpt lat="37.507000000000005" lon="127.09976">
    <ele>18.48</ele>
   </trkpt>
   <trkpt lat="37.50714" lon="127.10018000000001">
    <ele>18.42</ele>
   </trkpt>
   <trkpt lat="37.50703" lon="127.10023000000001">
    <ele>19.020000000000003</ele>
   </trkpt>
   <trkpt lat="37.50719" lon="127.10063000000001">
    <ele>19.180000000000003</ele>
   </trkpt>
   <trkpt lat="37.50708" lon="127.10065000000002">
    <ele>19.73</ele>
   </trkpt>
   <trkpt lat="37.50697" lon="127.1007">
    <ele>20.080000000000002</ele>
   </trkpt>
   <trkpt lat="37.50719" lon="127.10122000000001">
    <ele>20.110000000000003</ele>
   </trkpt>
   <trkpt lat="37.507180000000005" lon="127.10122000000001">
    <ele>20.110000000000003</ele>
   </trkpt>
   <trkpt lat="37.50697" lon="127.1007">
    <ele>20.080000000000002</ele>
   </trkpt>
   <trkpt lat="37.50708" lon="127.10065000000002">
    <ele>19.73</ele>
   </trkpt>
   <trkpt lat="37.50719" lon="127.10063000000001">
    <ele>19.180000000000003</ele>
   </trkpt>
   <trkpt lat="37.50737" lon="127.10052000000002">
    <ele>16.3</ele>
   </trkpt>
   <trkpt lat="37.507740000000005" lon="127.10144000000001">
    <ele>16.200000000000003</ele>
   </trkpt>
   <trkpt lat="37.508185002430245" lon="127.10220499537688">
    <ele>16.009999999999998</ele>
   </trkpt>
   <trkpt lat="37.508630000000004" lon="127.10297000000001">
    <ele>15.91</ele>
   </trkpt>
   <trkpt lat="37.508810000000004" lon="127.10297000000001">
    <ele>15.91</ele>
   </trkpt>
   <trkpt lat="37.5092" lon="127.10287000000001">
    <ele>15.46</ele>
   </trkpt>
   <trkpt lat="37.509570000000004" lon="127.10263">
    <ele>15.260000000000002</ele>
   </trkpt>
   <trkpt lat="37.50994" lon="127.10328000000001">
    <ele>15.18</ele>
   </trkpt>
   <trkpt lat="37.51015" lon="127.10309000000001">
    <ele>15.22</ele>
   </trkpt>
   <trkpt lat="37.510220000000004" lon="127.10321">
    <ele>15.240000000000002</ele>
   </trkpt>
   <trkpt lat="37.510310000000004" lon="127.10311000000002">
    <ele>15.240000000000002</ele>
   </trkpt>
   <trkpt lat="37.510630000000006" lon="127.10288000000001">
    <ele>15.63</ele>
   </trkpt>
   <trkpt lat="37.511070000000004" lon="127.10283000000001">
    <ele>15.67</ele>
   </trkpt>
   <trkpt lat="37.51127" lon="127.10294">
    <ele>15.620000000000001</ele>
   </trkpt>
   <trkpt lat="37.511430000000004" lon="127.10314000000001">
    <ele>15.580000000000002</ele>
   </trkpt>
   <trkpt lat="37.511540000000004" lon="127.10353">
    <ele>15.65</ele>
   </trkpt>
   <trkpt lat="37.511520000000004" lon="127.10344">
    <ele>15.63</ele>
   </trkpt>
   <trkpt lat="37.511430000000004" lon="127.10314000000001">
    <ele>15.580000000000002</ele>
   </trkpt>
   <trkpt lat="37.51127" lon="127.10294">
    <ele>15.620000000000001</ele>
   </trkpt>
   <trkpt lat="37.511070000000004" lon="127.10283000000001">
    <ele>15.67</ele>
   </trkpt>
   <trkpt lat="37.510630000000006" lon="127.10288000000001">
    <ele>15.63</ele>
   </trkpt>
   <trkpt lat="37.510310000000004" lon="127.10311000000002">
    <ele>15.240000000000002</ele>
   </trkpt>
   <trkpt lat="37.50986" lon="127.10356000000002">
    <ele>15.340000000000002</ele>
   </trkpt>
   <trkpt lat="37.50963" lon="127.10374000000002">
    <ele>15.64</ele>
   </trkpt>
   <trkpt lat="37.509530000000005" lon="127.10395000000001">
    <ele>15.770000000000003</ele>
   </trkpt>
   <trkpt lat="37.50952" lon="127.10408000000001">
    <ele>15.83</ele>
   </trkpt>
   <trkpt lat="37.50914" lon="127.10401000000002">
    <ele>19.360000000000003</ele>
   </trkpt>
   <trkpt lat="37.50902" lon="127.10401000000002">
    <ele>19.48</ele>
   </trkpt>
   <trkpt lat="37.508990000000004" lon="127.10417000000001">
    <ele>19.770000000000003</ele>
   </trkpt>
   <trkpt lat="37.50889" lon="127.10428000000002">
    <ele>19.970000000000002</ele>
   </trkpt>
   <trkpt lat="37.508590000000005" lon="127.10436000000001">
    <ele>19.880000000000003</ele>
   </trkpt>
   <trkpt lat="37.50814500089942" lon="127.10483000283531">
    <ele>19.85</ele>
   </trkpt>
   <trkpt lat="37.5077" lon="127.10530000000001">
    <ele>19.919999999999998</ele>
   </trkpt>
   <trkpt lat="37.507160000000006" lon="127.10576">
    <ele>20.03</ele>
   </trkpt>
   <trkpt lat="37.507110000000004" lon="127.10569000000001">
    <ele>20.03</ele>
   </trkpt>
   <trkpt lat="37.50699" lon="127.10544000000002">
    <ele>20.380000000000003</ele>
   </trkpt>
   <trkpt lat="37.507220000000004" lon="127.10523">
    <ele>20.400000000000002</ele>
   </trkpt>
   <trkpt lat="37.50699" lon="127.10544000000002">
    <ele>20.380000000000003</ele>
   </trkpt>
   <trkpt lat="37.506930000000004" lon="127.10532">
    <ele>20.0</ele>
   </trkpt>
   <trkpt lat="37.5076450018636" lon="127.1046650062231">
    <ele>19.69</ele>
   </trkpt>
   <trkpt lat="37.50836" lon="127.10401000000002">
    <ele>19.470000000000002</ele>
   </trkpt>
   <trkpt lat="37.508390000000006" lon="127.10398">
    <ele>19.48</ele>
   </trkpt>
   <trkpt lat="37.508390000000006" lon="127.10383000000002">
    <ele>19.37</ele>
   </trkpt>
   <trkpt lat="37.508610000000004" lon="127.10363000000001">
    <ele>19.15</ele>
   </trkpt>
   <trkpt lat="37.5088" lon="127.10364000000001">
    <ele>19.180000000000003</ele>
   </trkpt>
   <trkpt lat="37.50940000148751" lon="127.10308000434675">
    <ele>19.380000000000003</ele>
   </trkpt>
   <trkpt lat="37.510000000000005" lon="127.10252000000001">
    <ele>19.340000000000003</ele>
   </trkpt>
   <trkpt lat="37.509910000000005" lon="127.10236">
    <ele>15.18</ele>
   </trkpt>
   <trkpt lat="37.510180000000005" lon="127.10210000000001">
    <ele>15.580000000000002</ele>
   </trkpt>
   <trkpt lat="37.51028" lon="127.10191">
    <ele>15.74</ele>
   </trkpt>
   <trkpt lat="37.510310000000004" lon="127.10169">
    <ele>15.770000000000003</ele>
   </trkpt>
   <trkpt lat="37.5103" lon="127.10148000000001">
    <ele>15.700000000000001</ele>
   </trkpt>
   <trkpt lat="37.510200000000005" lon="127.1012">
    <ele>15.580000000000002</ele>
   </trkpt>
   <trkpt lat="37.51015" lon="127.10100000000001">
    <ele>15.63</ele>
   </trkpt>
   <trkpt lat="37.50999" lon="127.10045000000001">
    <ele>15.620000000000001</ele>
   </trkpt>
   <trkpt lat="37.50979" lon="127.09995">
    <ele>15.8</ele>
   </trkpt>
   <trkpt lat="37.50952" lon="127.09945">
    <ele>16.37</ele>
   </trkpt>
   <trkpt lat="37.50934" lon="127.09906000000001">
    <ele>16.0</ele>
   </trkpt>
   <trkpt lat="37.509310000000006" lon="127.09902000000001">
    <ele>16.0</ele>
   </trkpt>
   <trkpt lat="37.5093" lon="127.09898000000001">
    <ele>16.020000000000003</ele>
   </trkpt>
   <trkpt lat="37.508970000000005" lon="127.09838">
    <ele>16.09</ele>
   </trkpt>
   <trkpt lat="37.5088" lon="127.09819000000002">
    <ele>16.080000000000002</ele>
   </trkpt>
   <trkpt lat="37.509060000000005" lon="127.09761000000002">
    <ele>19.3</ele>
   </trkpt>
   <trkpt lat="37.50976" lon="127.09762">
    <ele>19.73</ele>
   </trkpt>
   <trkpt lat="37.50976" lon="127.09740000000001">
    <ele>19.73</ele>
   </trkpt>
   <trkpt lat="37.50979" lon="127.09727000000001">
    <ele>19.76</ele>
   </trkpt>
   <trkpt lat="37.50987000000001" lon="127.09670000000001">
    <ele>19.98</ele>
   </trkpt>
   <trkpt lat="37.50995500474711" lon="127.09564000106882">
    <ele>19.84</ele>
   </trkpt>
   <trkpt lat="37.510040000000004" lon="127.09458000000001">
    <ele>19.89</ele>
   </trkpt>
   <trkpt lat="37.509510000000006" lon="127.09413">
    <ele>17.2</ele>
   </trkpt>
   <trkpt lat="37.509310000000006" lon="127.09391000000001">
    <ele>17.820000000000004</ele>
   </trkpt>
   <trkpt lat="37.508790000000005" lon="127.09346000000001">
    <ele>18.64</ele>
   </trkpt>
  </trkseg>
 </trk>
</gpx>
