<?xml version="1.0" encoding="UTF-8"?>
<gpx creator="StravaGPX" version="1.1" xmlns="http://www.topografix.com/GPX/1/1" xmlns:xsi="http://www.w3.org/2001/XMLSchema-instance" xsi:schemaLocation="http://www.topografix.com/GPX/1/1 http://www.topografix.com/GPX/1/1/gpx.xsd">
 <metadata>
  <name>종로 평창천 루프 3.2km</name>
  <desc>daengrun candidate geometry — measured 3.2km, gain 126</desc>
  <author>
   <name>S Kim</name>
   <link href="https://www.strava.com/athletes/558867461"/>
  </author>
  <copyright author="OpenStreetMap contributors">
   <year>2020</year>
   <license>https://www.openstreetmap.org/copyright</license>
  </copyright>
  <link href="https://www.strava.com/routes/3525014064112666566"/>
 </metadata>
 <trk>
  <name>종로 평창천 루프 3.2km</name>
  <desc>daengrun candidate geometry — measured 3.2km, gain 126</desc>
  <link href="https://www.strava.com/routes/3525014064112666566"/>
  <type>running</type>
  <trkseg>
   <trkpt lat="37.609730000000006" lon="126.97770000000001">
    <ele>135.92000000000002</ele>
   </trkpt>
   <trkpt lat="37.61001" lon="126.97784000000001">
    <ele>135.92000000000002</ele>
   </trkpt>
   <trkpt lat="37.61027" lon="126.97703000000001">
    <ele>135.79000000000002</ele>
   </trkpt>
   <trkpt lat="37.61048" lon="126.97689000000001">
    <ele>134.72</ele>
   </trkpt>
   <trkpt lat="37.61034" lon="126.97655000000002">
    <ele>133.89000000000001</ele>
   </trkpt>
   <trkpt lat="37.610220000000005" lon="126.97663000000001">
    <ele>132.19</ele>
   </trkpt>
   <trkpt lat="37.60965" lon="126.97642">
    <ele>127.06</ele>
   </trkpt>
   <trkpt lat="37.60942" lon="126.97643000000001">
    <ele>124.87</ele>
   </trkpt>
   <trkpt lat="37.609030000000004" lon="126.97662000000001">
    <ele>120.85000000000001</ele>
   </trkpt>
   <trkpt lat="37.60902" lon="126.97649000000001">
    <ele>120.64000000000001</ele>
   </trkpt>
   <trkpt lat="37.60886" lon="126.97602">
    <ele>119.60000000000001</ele>
   </trkpt>
   <trkpt lat="37.60886" lon="126.97601000000002">
    <ele>119.57000000000001</ele>
   </trkpt>
   <trkpt lat="37.60866" lon="126.97534000000002">
    <ele>118.38000000000001</ele>
   </trkpt>
   <trkpt lat="37.60864" lon="126.97507000000002">
    <ele>118.15</ele>
   </trkpt>
   <trkpt lat="37.60877" lon="126.97461000000001">
    <ele>116.49000000000001</ele>
   </trkpt>
   <trkpt lat="37.6092" lon="126.97386000000002">
    <ele>114.33000000000001</ele>
   </trkpt>
   <trkpt lat="37.609" lon="126.97345000000001">
    <ele>112.51</ele>
   </trkpt>
   <trkpt lat="37.608760000000004" lon="126.97312000000001">
    <ele>111.17</ele>
   </trkpt>
   <trkpt lat="37.60846" lon="126.97285000000001">
    <ele>109.97000000000001</ele>
   </trkpt>
   <trkpt lat="37.608060000395454" lon="126.97256499850491">
    <ele>108.18</ele>
   </trkpt>
   <trkpt lat="37.60766" lon="126.97228000000001">
    <ele>106.79</ele>
   </trkpt>
   <trkpt lat="37.60746" lon="126.97208">
    <ele>105.52</ele>
   </trkpt>
   <trkpt lat="37.60736" lon="126.97194">
    <ele>105.28000000000002</ele>
   </trkpt>
   <trkpt lat="37.60761" lon="126.97167000000002">
    <ele>110.89</ele>
   </trkpt>
   <trkpt lat="37.60774" lon="126.97160000000001">
    <ele>112.4</ele>
   </trkpt>
   <trkpt lat="37.607890000000005" lon="126.97162000000002">
    <ele>116.34</ele>
   </trkpt>
   <trkpt lat="37.608290000000004" lon="126.97205000000001">
    <ele>123.57000000000001</ele>
   </trkpt>
   <trkpt lat="37.608520000000006" lon="126.97211000000001">
    <ele>130.87</ele>
   </trkpt>
   <trkpt lat="37.60922" lon="126.97220000000002">
    <ele>137.89000000000001</ele>
   </trkpt>
   <trkpt lat="37.60936" lon="126.97216000000002">
    <ele>141.23000000000002</ele>
   </trkpt>
   <trkpt lat="37.60953000000001" lon="126.97197000000001">
    <ele>146.35</ele>
   </trkpt>
   <trkpt lat="37.609700000000004" lon="126.97172">
    <ele>150.24</ele>
   </trkpt>
   <trkpt lat="37.60953000000001" lon="126.97197000000001">
    <ele>146.35</ele>
   </trkpt>
   <trkpt lat="37.60936" lon="126.97216000000002">
    <ele>141.23000000000002</ele>
   </trkpt>
   <trkpt lat="37.60922" lon="126.97220000000002">
    <ele>137.89000000000001</ele>
   </trkpt>
   <trkpt lat="37.608520000000006" lon="126.97211000000001">
    <ele>130.87</ele>
   </trkpt>
   <trkpt lat="37.608290000000004" lon="126.97205000000001">
    <ele>123.57000000000001</ele>
   </trkpt>
   <trkpt lat="37.607890000000005" lon="126.97162000000002">
    <ele>114.82000000000001</ele>
   </trkpt>
   <trkpt lat="37.60774" lon="126.97160000000001">
    <ele>112.4</ele>
   </trkpt>
   <trkpt lat="37.60761" lon="126.97167000000002">
    <ele>110.89</ele>
   </trkpt>
   <trkpt lat="37.60736" lon="126.97194">
    <ele>105.28000000000002</ele>
   </trkpt>
   <trkpt lat="37.60746" lon="126.97208">
    <ele>105.52</ele>
   </trkpt>
   <trkpt lat="37.60766" lon="126.97228000000001">
    <ele>106.79</ele>
   </trkpt>
   <trkpt lat="37.6080600002899" lon="126.97256499842969">
    <ele>108.18</ele>
   </trkpt>
   <trkpt lat="37.60846" lon="126.97285000000001">
    <ele>109.97000000000001</ele>
   </trkpt>
   <trkpt lat="37.60864" lon="126.97300000000001">
    <ele>110.63000000000001</ele>
   </trkpt>
   <trkpt lat="37.608760000000004" lon="126.97312000000001">
    <ele>111.17</ele>
   </trkpt>
   <trkpt lat="37.609" lon="126.97345000000001">
    <ele>112.51</ele>
   </trkpt>
   <trkpt lat="37.6092" lon="126.97386000000002">
    <ele>114.33000000000001</ele>
   </trkpt>
   <trkpt lat="37.60961500395275" lon="126.97482999454817">
    <ele>122.05</ele>
   </trkpt>
   <trkpt lat="37.61003" lon="126.9758">
    <ele>129.44</ele>
   </trkpt>
   <trkpt lat="37.61012" lon="126.97574000000002">
    <ele>129.44</ele>
   </trkpt>
   <trkpt lat="37.61050000342342" lon="126.97663999541581">
    <ele>134.13</ele>
   </trkpt>
   <trkpt lat="37.61088" lon="126.97754">
    <ele>140.49</ele>
   </trkpt>
   <trkpt lat="37.610960000000006" lon="126.97751000000001">
    <ele>140.36</ele>
   </trkpt>
   <trkpt lat="37.611200000000004" lon="126.97747000000001">
    <ele>140.61</ele>
   </trkpt>
   <trkpt lat="37.611340000000006" lon="126.97748000000001">
    <ele>140.82</ele>
   </trkpt>
   <trkpt lat="37.61139" lon="126.9775">
    <ele>140.97</ele>
   </trkpt>
   <trkpt lat="37.61169" lon="126.97772">
    <ele>143.27</ele>
   </trkpt>
   <trkpt lat="37.611760000000004" lon="126.97775000000001">
    <ele>143.70000000000002</ele>
   </trkpt>
   <trkpt lat="37.61225" lon="126.97774000000001">
    <ele>150.71</ele>
   </trkpt>
   <trkpt lat="37.61258" lon="126.97777">
    <ele>155.71</ele>
   </trkpt>
   <trkpt lat="37.612820000000006" lon="126.97785">
    <ele>159.0</ele>
   </trkpt>
   <trkpt lat="37.61307" lon="126.9783">
    <ele>167.10000000000002</ele>
   </trkpt>
   <trkpt lat="37.613440000000004" lon="126.97814000000001">
    <ele>168.92000000000002</ele>
   </trkpt>
   <trkpt lat="37.614090000000004" lon="126.97831000000001">
    <ele>186.50000000000003</ele>
   </trkpt>
   <trkpt lat="37.6144" lon="126.97834000000002">
    <ele>186.50000000000003</ele>
   </trkpt>
   <trkpt lat="37.61439" lon="126.97834000000002">
    <ele>186.36</ele>
   </trkpt>
   <trkpt lat="37.614090000000004" lon="126.97831000000001">
    <ele>186.36</ele>
   </trkpt>
   <trkpt lat="37.613440000000004" lon="126.97814000000001">
    <ele>168.92000000000002</ele>
   </trkpt>
   <trkpt lat="37.61307" lon="126.9783">
    <ele>167.10000000000002</ele>
   </trkpt>
   <trkpt lat="37.612930000000006" lon="126.97840000000001">
    <ele>167.33</ele>
   </trkpt>
   <trkpt lat="37.61245" lon="126.97855000000001">
    <ele>166.75</ele>
   </trkpt>
   <trkpt lat="37.612120000000004" lon="126.97850000000001">
    <ele>162.61</ele>
   </trkpt>
   <trkpt lat="37.61153" lon="126.97833000000001">
    <ele>151.88000000000002</ele>
   </trkpt>
   <trkpt lat="37.611200000000004" lon="126.97828000000001">
    <ele>146.55</ele>
   </trkpt>
   <trkpt lat="37.6111" lon="126.97834000000002">
    <ele>145.8</ele>
   </trkpt>
   <trkpt lat="37.61079000219502" lon="126.97761499692518">
    <ele>140.21</ele>
   </trkpt>
   <trkpt lat="37.61048" lon="126.97689000000001">
    <ele>134.72</ele>
   </trkpt>
   <trkpt lat="37.61027" lon="126.97703000000001">
    <ele>135.79000000000002</ele>
   </trkpt>
   <trkpt lat="37.61001" lon="126.97784000000001">
    <ele>135.92000000000002</ele>
   </trkpt>
   <trkpt lat="37.609730000000006" lon="126.97770000000001">
    <ele>135.92000000000002</ele>
   </trkpt>
  </trkseg>
 </trk>
</gpx>
