<?xml version="1.0" encoding="UTF-8"?>
<gpx creator="daengrun-naver-route" version="1.1" xmlns="http://www.topografix.com/GPX/1/1" xmlns:xsi="http://www.w3.org/2001/XMLSchema-instance" xsi:schemaLocation="http://www.topografix.com/GPX/1/1 http://www.topografix.com/GPX/1/1/gpx.xsd">
 <metadata>
  <name>종로 월암근린공원·의주공원 루프 1.97km</name>
  <desc>daengrun candidate geometry — measured 1.97km via Naver pedestrian router (o=flat, 계단회피). Elevation NOT available from this source. stairs=0 crosswalk=7 steppingstone=0 underpass=0 overpass=0</desc>
  <link href="naver:im2667"><text>daengrun route id</text></link>
  <copyright author="NAVER Corp."><license>https://map.naver.com/</license></copyright>
 </metadata>
 <trk>
  <name>종로 월암근린공원·의주공원 루프 1.97km</name>
  <trkseg>
   <trkpt lat="37.5704204" lon="126.963998"></trkpt>
   <trkpt lat="37.5707109" lon="126.9644489"></trkpt>
   <trkpt lat="37.5709106" lon="126.9647623"></trkpt>
   <trkpt lat="37.5710032" lon="126.9649066"></trkpt>
   <trkpt lat="37.5710741" lon="126.9648404"></trkpt>
   <trkpt lat="37.5710741" lon="126.9648404"></trkpt>
   <trkpt lat="37.5711241" lon="126.9649204"></trkpt>
   <trkpt lat="37.5711241" lon="126.9649204"></trkpt>
   <trkpt lat="37.5711429" lon="126.9648999"></trkpt>
   <trkpt lat="37.5714946" lon="126.9645475"></trkpt>
   <trkpt lat="37.5715475" lon="126.9644814"></trkpt>
   <trkpt lat="37.5715967" lon="126.9644086"></trkpt>
   <trkpt lat="37.5715967" lon="126.9644086"></trkpt>
   <trkpt lat="37.5716302" lon="126.9644378"></trkpt>
   <trkpt lat="37.5717391" lon="126.964599"></trkpt>
   <trkpt lat="37.5717583" lon="126.9646441"></trkpt>
   <trkpt lat="37.5718072" lon="126.964706"></trkpt>
   <trkpt lat="37.5718072" lon="126.964706"></trkpt>
   <trkpt lat="37.5717752" lon="126.9650018"></trkpt>
   <trkpt lat="37.5717963" lon="126.9650753"></trkpt>
   <trkpt lat="37.5718555" lon="126.96523"></trkpt>
   <trkpt lat="37.5718555" lon="126.96523"></trkpt>
   <trkpt lat="37.5718021" lon="126.965364"></trkpt>
   <trkpt lat="37.5717464" lon="126.9654165"></trkpt>
   <trkpt lat="37.5717793" lon="126.9655091"></trkpt>
   <trkpt lat="37.5718191" lon="126.9655372"></trkpt>
   <trkpt lat="37.5718104" lon="126.9656029"></trkpt>
   <trkpt lat="37.5717864" lon="126.9656767"></trkpt>
   <trkpt lat="37.5717262" lon="126.9657349"></trkpt>
   <trkpt lat="37.571692" lon="126.9657396"></trkpt>
   <trkpt lat="37.5716622" lon="126.9657319"></trkpt>
   <trkpt lat="37.5716366" lon="126.9656404"></trkpt>
   <trkpt lat="37.5716129" lon="126.9655862"></trkpt>
   <trkpt lat="37.5715542" lon="126.9655708"></trkpt>
   <trkpt lat="37.5714713" lon="126.9655578"></trkpt>
   <trkpt lat="37.5713999" lon="126.9655334"></trkpt>
   <trkpt lat="37.5713241" lon="126.9655135"></trkpt>
   <trkpt lat="37.5712701" lon="126.9655207"></trkpt>
   <trkpt lat="37.5712701" lon="126.9655207"></trkpt>
   <trkpt lat="37.5713241" lon="126.9655135"></trkpt>
   <trkpt lat="37.5713999" lon="126.9655334"></trkpt>
   <trkpt lat="37.5714713" lon="126.9655578"></trkpt>
   <trkpt lat="37.5715542" lon="126.9655708"></trkpt>
   <trkpt lat="37.5716129" lon="126.9655862"></trkpt>
   <trkpt lat="37.5716366" lon="126.9656404"></trkpt>
   <trkpt lat="37.5716622" lon="126.9657319"></trkpt>
   <trkpt lat="37.571692" lon="126.9657396"></trkpt>
   <trkpt lat="37.5717262" lon="126.9657349"></trkpt>
   <trkpt lat="37.5717864" lon="126.9656767"></trkpt>
   <trkpt lat="37.5718104" lon="126.9656029"></trkpt>
   <trkpt lat="37.5718191" lon="126.9655372"></trkpt>
   <trkpt lat="37.5717793" lon="126.9655091"></trkpt>
   <trkpt lat="37.5717464" lon="126.9654165"></trkpt>
   <trkpt lat="37.5718021" lon="126.965364"></trkpt>
   <trkpt lat="37.5718555" lon="126.96523"></trkpt>
   <trkpt lat="37.5718555" lon="126.96523"></trkpt>
   <trkpt lat="37.5717963" lon="126.9650753"></trkpt>
   <trkpt lat="37.5717752" lon="126.9650018"></trkpt>
   <trkpt lat="37.5718072" lon="126.964706"></trkpt>
   <trkpt lat="37.5718072" lon="126.964706"></trkpt>
   <trkpt lat="37.5717583" lon="126.9646441"></trkpt>
   <trkpt lat="37.5717391" lon="126.964599"></trkpt>
   <trkpt lat="37.5716302" lon="126.9644378"></trkpt>
   <trkpt lat="37.5715967" lon="126.9644086"></trkpt>
   <trkpt lat="37.5715967" lon="126.9644086"></trkpt>
   <trkpt lat="37.5716564" lon="126.9642496"></trkpt>
   <trkpt lat="37.5716786" lon="126.9641679"></trkpt>
   <trkpt lat="37.5716882" lon="126.9640954"></trkpt>
   <trkpt lat="37.5716888" lon="126.9640456"></trkpt>
   <trkpt lat="37.5716887" lon="126.9640093"></trkpt>
   <trkpt lat="37.57169" lon="126.9631158"></trkpt>
   <trkpt lat="37.571693" lon="126.9629833"></trkpt>
   <trkpt lat="37.5716855" lon="126.9629177"></trkpt>
   <trkpt lat="37.5716809" lon="126.9628985"></trkpt>
   <trkpt lat="37.571637" lon="126.9627493"></trkpt>
   <trkpt lat="37.5715969" lon="126.9626522"></trkpt>
   <trkpt lat="37.5715568" lon="126.962571"></trkpt>
   <trkpt lat="37.5715568" lon="126.962571"></trkpt>
   <trkpt lat="37.5714896" lon="126.9624593"></trkpt>
   <trkpt lat="37.5714896" lon="126.9624593"></trkpt>
   <trkpt lat="37.5714125" lon="126.9623376"></trkpt>
   <trkpt lat="37.5712364" lon="126.9620716"></trkpt>
   <trkpt lat="37.5710467" lon="126.9617842"></trkpt>
   <trkpt lat="37.5710467" lon="126.9617842"></trkpt>
   <trkpt lat="37.5711193" lon="126.9616954"></trkpt>
   <trkpt lat="37.5715577" lon="126.9611724"></trkpt>
   <trkpt lat="37.5717182" lon="126.9609957"></trkpt>
   <trkpt lat="37.5718232" lon="126.9608874"></trkpt>
   <trkpt lat="37.5718816" lon="126.9608507"></trkpt>
   <trkpt lat="37.5719212" lon="126.9608437"></trkpt>
   <trkpt lat="37.5719906" lon="126.9608375"></trkpt>
   <trkpt lat="37.5720628" lon="126.960854"></trkpt>
   <trkpt lat="37.5720628" lon="126.960854"></trkpt>
   <trkpt lat="37.5721341" lon="126.9606711"></trkpt>
   <trkpt lat="37.5725612" lon="126.9602491"></trkpt>
   <trkpt lat="37.5726512" lon="126.960219"></trkpt>
   <trkpt lat="37.5726512" lon="126.960219"></trkpt>
   <trkpt lat="37.5726685" lon="126.960075"></trkpt>
   <trkpt lat="37.5726997" lon="126.9599967"></trkpt>
   <trkpt lat="37.5729949" lon="126.9596888"></trkpt>
   <trkpt lat="37.5729949" lon="126.9596888"></trkpt>
   <trkpt lat="37.5730685" lon="126.959635"></trkpt>
   <trkpt lat="37.5730685" lon="126.959635"></trkpt>
   <trkpt lat="37.5731892" lon="126.9598017"></trkpt>
   <trkpt lat="37.5733134" lon="126.959956"></trkpt>
   <trkpt lat="37.5733387" lon="126.9599864"></trkpt>
   <trkpt lat="37.5733849" lon="126.9600415"></trkpt>
   <trkpt lat="37.573577" lon="126.9602621"></trkpt>
   <trkpt lat="37.573577" lon="126.9602621"></trkpt>
   <trkpt lat="37.5736039" lon="126.9602257"></trkpt>
   <trkpt lat="37.5736774" lon="126.9601289"></trkpt>
   <trkpt lat="37.5736907" lon="126.9600801"></trkpt>
   <trkpt lat="37.5737003" lon="126.9600166"></trkpt>
   <trkpt lat="37.5737003" lon="126.9600166"></trkpt>
   <trkpt lat="37.5736907" lon="126.9600801"></trkpt>
   <trkpt lat="37.5736774" lon="126.9601289"></trkpt>
   <trkpt lat="37.5736039" lon="126.9602257"></trkpt>
   <trkpt lat="37.573577" lon="126.9602621"></trkpt>
   <trkpt lat="37.573577" lon="126.9602621"></trkpt>
   <trkpt lat="37.5733849" lon="126.9600415"></trkpt>
   <trkpt lat="37.5733387" lon="126.9599864"></trkpt>
   <trkpt lat="37.5733134" lon="126.959956"></trkpt>
   <trkpt lat="37.5731892" lon="126.9598017"></trkpt>
   <trkpt lat="37.5730685" lon="126.959635"></trkpt>
   <trkpt lat="37.5730685" lon="126.959635"></trkpt>
   <trkpt lat="37.5729949" lon="126.9596888"></trkpt>
   <trkpt lat="37.5729949" lon="126.9596888"></trkpt>
   <trkpt lat="37.5726997" lon="126.9599967"></trkpt>
   <trkpt lat="37.5726685" lon="126.960075"></trkpt>
   <trkpt lat="37.5726512" lon="126.960219"></trkpt>
   <trkpt lat="37.5726512" lon="126.960219"></trkpt>
   <trkpt lat="37.5725612" lon="126.9602491"></trkpt>
   <trkpt lat="37.5721341" lon="126.9606711"></trkpt>
   <trkpt lat="37.5720628" lon="126.960854"></trkpt>
   <trkpt lat="37.5720628" lon="126.960854"></trkpt>
   <trkpt lat="37.5719906" lon="126.9608375"></trkpt>
   <trkpt lat="37.5719212" lon="126.9608437"></trkpt>
   <trkpt lat="37.5718816" lon="126.9608507"></trkpt>
   <trkpt lat="37.5718232" lon="126.9608874"></trkpt>
   <trkpt lat="37.5717182" lon="126.9609957"></trkpt>
   <trkpt lat="37.5715577" lon="126.9611724"></trkpt>
   <trkpt lat="37.5711193" lon="126.9616954"></trkpt>
   <trkpt lat="37.5710467" lon="126.9617842"></trkpt>
   <trkpt lat="37.5710467" lon="126.9617842"></trkpt>
   <trkpt lat="37.5712364" lon="126.9620716"></trkpt>
   <trkpt lat="37.5714125" lon="126.9623376"></trkpt>
   <trkpt lat="37.5714125" lon="126.9623376"></trkpt>
   <trkpt lat="37.5713344" lon="126.9624186"></trkpt>
   <trkpt lat="37.5713344" lon="126.9624186"></trkpt>
   <trkpt lat="37.5712736" lon="126.9623273"></trkpt>
   <trkpt lat="37.5711965" lon="126.962406"></trkpt>
   <trkpt lat="37.5711965" lon="126.962406"></trkpt>
   <trkpt lat="37.571251" lon="126.962503"></trkpt>
   <trkpt lat="37.5712556" lon="126.962521"></trkpt>
   <trkpt lat="37.5712539" lon="126.9625414"></trkpt>
   <trkpt lat="37.5712413" lon="126.9625596"></trkpt>
   <trkpt lat="37.5711632" lon="126.962627"></trkpt>
   <trkpt lat="37.5710524" lon="126.9628373"></trkpt>
   <trkpt lat="37.5702126" lon="126.9636757"></trkpt>
   <trkpt lat="37.5702126" lon="126.9636757"></trkpt>
   <trkpt lat="37.5704204" lon="126.963998"></trkpt>
  </trkseg>
 </trk>
</gpx>
