<?xml version="1.0" encoding="UTF-8"?>
<gpx creator="StravaGPX" version="1.1" xmlns="http://www.topografix.com/GPX/1/1" xmlns:xsi="http://www.w3.org/2001/XMLSchema-instance" xsi:schemaLocation="http://www.topografix.com/GPX/1/1 http://www.topografix.com/GPX/1/1/gpx.xsd">
 <metadata>
  <name>중랑 면목체육공원 루프 3.67km</name>
  <desc>daengrun candidate geometry — measured 3.67km, gain 23</desc>
  <author>
   <name>S Kim</name>
   <link href="https://www.strava.com/athletes/558867461"/>
  </author>
  <copyright author="OpenStreetMap contributors">
   <year>2020</year>
   <license>https://www.openstreetmap.org/copyright</license>
  </copyright>
  <link href="https://www.strava.com/routes/3525071384420879450"/>
 </metadata>
 <trk>
  <name>중랑 면목체육공원 루프 3.67km</name>
  <desc>daengrun candidate geometry — measured 3.67km, gain 23</desc>
  <link href="https://www.strava.com/routes/3525071384420879450"/>
  <type>running</type>
  <trkseg>
   <trkpt lat="37.586040000000004" lon="127.08396">
    <ele>26.310000000000002</ele>
   </trkpt>
   <trkpt lat="37.58601" lon="127.08415000000001">
    <ele>26.310000000000002</ele>
   </trkpt>
   <trkpt lat="37.58549" lon="127.08408000000001">
    <ele>23.340000000000003</ele>
   </trkpt>
   <trkpt lat="37.585510000000006" lon="127.08386000000002">
    <ele>25.400000000000002</ele>
   </trkpt>
   <trkpt lat="37.58500499984234" lon="127.08395500068129">
    <ele>24.580000000000002</ele>
   </trkpt>
   <trkpt lat="37.584500000000006" lon="127.08405">
    <ele>24.09</ele>
   </trkpt>
   <trkpt lat="37.584450000000004" lon="127.08353000000001">
    <ele>24.970000000000002</ele>
   </trkpt>
   <trkpt lat="37.584700000000005" lon="127.08351">
    <ele>25.060000000000002</ele>
   </trkpt>
   <trkpt lat="37.58494" lon="127.08347">
    <ele>25.05</ele>
   </trkpt>
   <trkpt lat="37.58527" lon="127.08347">
    <ele>25.030000000000005</ele>
   </trkpt>
   <trkpt lat="37.58569" lon="127.08355000000002">
    <ele>25.1</ele>
   </trkpt>
   <trkpt lat="37.58568" lon="127.08355000000002">
    <ele>25.09</ele>
   </trkpt>
   <trkpt lat="37.58527" lon="127.08347">
    <ele>25.030000000000005</ele>
   </trkpt>
   <trkpt lat="37.58494" lon="127.08347">
    <ele>25.05</ele>
   </trkpt>
   <trkpt lat="37.584700000000005" lon="127.08351">
    <ele>25.060000000000002</ele>
   </trkpt>
   <trkpt lat="37.584230000000005" lon="127.08356">
    <ele>24.860000000000003</ele>
   </trkpt>
   <trkpt lat="37.58391" lon="127.08363000000001">
    <ele>24.84</ele>
   </trkpt>
   <trkpt lat="37.583310000000004" lon="127.08385000000001">
    <ele>24.93</ele>
   </trkpt>
   <trkpt lat="37.58314" lon="127.08390000000001">
    <ele>24.96</ele>
   </trkpt>
   <trkpt lat="37.582660000000004" lon="127.08392">
    <ele>25.080000000000002</ele>
   </trkpt>
   <trkpt lat="37.58227" lon="127.08384000000001">
    <ele>25.17</ele>
   </trkpt>
   <trkpt lat="37.581950000000006" lon="127.08375000000001">
    <ele>25.130000000000003</ele>
   </trkpt>
   <trkpt lat="37.58131" lon="127.08350000000002">
    <ele>24.77</ele>
   </trkpt>
   <trkpt lat="37.58133" lon="127.08330000000001">
    <ele>24.450000000000003</ele>
   </trkpt>
   <trkpt lat="37.58131" lon="127.08322000000001">
    <ele>24.35</ele>
   </trkpt>
   <trkpt lat="37.58133" lon="127.08287000000001">
    <ele>22.64</ele>
   </trkpt>
   <trkpt lat="37.58139000152398" lon="127.08227000042797">
    <ele>20.830000000000002</ele>
   </trkpt>
   <trkpt lat="37.581450000000004" lon="127.08167000000002">
    <ele>19.75</ele>
   </trkpt>
   <trkpt lat="37.581450000000004" lon="127.08134000000001">
    <ele>19.520000000000003</ele>
   </trkpt>
   <trkpt lat="37.581540000000004" lon="127.08024">
    <ele>18.580000000000002</ele>
   </trkpt>
   <trkpt lat="37.581610000000005" lon="127.08010000000002">
    <ele>18.45</ele>
   </trkpt>
   <trkpt lat="37.58169" lon="127.08002">
    <ele>18.45</ele>
   </trkpt>
   <trkpt lat="37.5816" lon="127.07989">
    <ele>18.400000000000002</ele>
   </trkpt>
   <trkpt lat="37.5816" lon="127.07957">
    <ele>18.520000000000003</ele>
   </trkpt>
   <trkpt lat="37.58156" lon="127.07945000000001">
    <ele>18.62</ele>
   </trkpt>
   <trkpt lat="37.58162" lon="127.0794">
    <ele>18.7</ele>
   </trkpt>
   <trkpt lat="37.58166000000001" lon="127.07931">
    <ele>18.770000000000003</ele>
   </trkpt>
   <trkpt lat="37.58156" lon="127.07919000000001">
    <ele>19.250000000000004</ele>
   </trkpt>
   <trkpt lat="37.58149" lon="127.07913">
    <ele>19.32</ele>
   </trkpt>
   <trkpt lat="37.58135" lon="127.07857000000001">
    <ele>23.53</ele>
   </trkpt>
   <trkpt lat="37.58135" lon="127.07849000000002">
    <ele>23.53</ele>
   </trkpt>
   <trkpt lat="37.58126" lon="127.07842000000001">
    <ele>24.150000000000002</ele>
   </trkpt>
   <trkpt lat="37.581030000000005" lon="127.07777000000002">
    <ele>25.560000000000002</ele>
   </trkpt>
   <trkpt lat="37.58129" lon="127.07762000000001">
    <ele>22.9</ele>
   </trkpt>
   <trkpt lat="37.581300000000006" lon="127.07764000000002">
    <ele>22.9</ele>
   </trkpt>
   <trkpt lat="37.58129" lon="127.07767000000001">
    <ele>22.9</ele>
   </trkpt>
   <trkpt lat="37.580850000000005" lon="127.07791000000002">
    <ele>17.05</ele>
   </trkpt>
   <trkpt lat="37.58072000000001" lon="127.07795000000002">
    <ele>16.580000000000002</ele>
   </trkpt>
   <trkpt lat="37.58068" lon="127.07786000000002">
    <ele>16.580000000000002</ele>
   </trkpt>
   <trkpt lat="37.58088" lon="127.07778">
    <ele>16.580000000000002</ele>
   </trkpt>
   <trkpt lat="37.581450000000004" lon="127.07741000000001">
    <ele>16.580000000000002</ele>
   </trkpt>
   <trkpt lat="37.582148579775094" lon="127.07683574661878">
    <ele>16.61</ele>
   </trkpt>
   <trkpt lat="37.582847156768295" lon="127.07626148246051">
    <ele>16.700000000000003</ele>
   </trkpt>
   <trkpt lat="37.5835457309795" lon="127.07568720752477">
    <ele>16.69</ele>
   </trkpt>
   <trkpt lat="37.584244302408585" lon="127.07511292181113">
    <ele>16.91</ele>
   </trkpt>
   <trkpt lat="37.58494287105542" lon="127.07453862531915">
    <ele>17.0</ele>
   </trkpt>
   <trkpt lat="37.585641436919886" lon="127.0739643180484">
    <ele>17.060000000000002</ele>
   </trkpt>
   <trkpt lat="37.58634" lon="127.07339">
    <ele>16.93</ele>
   </trkpt>
   <trkpt lat="37.58599" lon="127.07370000000002">
    <ele>16.86</ele>
   </trkpt>
   <trkpt lat="37.586110000000005" lon="127.07392000000002">
    <ele>16.93</ele>
   </trkpt>
   <trkpt lat="37.58615" lon="127.07394000000001">
    <ele>16.880000000000003</ele>
   </trkpt>
   <trkpt lat="37.58628" lon="127.07415000000002">
    <ele>16.650000000000002</ele>
   </trkpt>
   <trkpt lat="37.58621" lon="127.07421000000001">
    <ele>17.310000000000002</ele>
   </trkpt>
   <trkpt lat="37.585840000000005" lon="127.07471000000001">
    <ele>22.38</ele>
   </trkpt>
   <trkpt lat="37.585750000000004" lon="127.07487">
    <ele>22.92</ele>
   </trkpt>
   <trkpt lat="37.58616" lon="127.07452">
    <ele>22.87</ele>
   </trkpt>
   <trkpt lat="37.58612" lon="127.07463000000001">
    <ele>22.62</ele>
   </trkpt>
   <trkpt lat="37.58574" lon="127.07508000000001">
    <ele>20.05</ele>
   </trkpt>
   <trkpt lat="37.58579" lon="127.07518000000002">
    <ele>19.96</ele>
   </trkpt>
   <trkpt lat="37.585730000000005" lon="127.07521000000001">
    <ele>19.860000000000003</ele>
   </trkpt>
   <trkpt lat="37.585865001736096" lon="127.0758499988791">
    <ele>19.700000000000003</ele>
   </trkpt>
   <trkpt lat="37.586000000000006" lon="127.07649">
    <ele>19.900000000000002</ele>
   </trkpt>
   <trkpt lat="37.58605" lon="127.07649">
    <ele>19.76</ele>
   </trkpt>
   <trkpt lat="37.586286675562604" lon="127.07751666015542">
    <ele>19.430000000000003</ele>
   </trkpt>
   <trkpt lat="37.586523342233285" lon="127.0785433268394">
    <ele>19.180000000000003</ele>
   </trkpt>
   <trkpt lat="37.586760000000005" lon="127.07957">
    <ele>19.05</ele>
   </trkpt>
   <trkpt lat="37.58681" lon="127.07978000000001">
    <ele>19.05</ele>
   </trkpt>
   <trkpt lat="37.586830000000006" lon="127.07978000000001">
    <ele>19.05</ele>
   </trkpt>
   <trkpt lat="37.58681" lon="127.07991000000001">
    <ele>19.05</ele>
   </trkpt>
   <trkpt lat="37.58666" lon="127.07990000000001">
    <ele>19.180000000000003</ele>
   </trkpt>
   <trkpt lat="37.586690000000004" lon="127.08010000000002">
    <ele>19.110000000000003</ele>
   </trkpt>
   <trkpt lat="37.58691251266121" lon="127.0810999910642">
    <ele>19.69</ele>
   </trkpt>
   <trkpt lat="37.58713501688642" lon="127.0820999881069">
    <ele>20.43</ele>
   </trkpt>
   <trkpt lat="37.5873575126755" lon="127.08309999112801">
    <ele>21.550000000000004</ele>
   </trkpt>
   <trkpt lat="37.58758" lon="127.0841">
    <ele>25.18</ele>
   </trkpt>
   <trkpt lat="37.586740000000006" lon="127.08382000000002">
    <ele>25.310000000000002</ele>
   </trkpt>
   <trkpt lat="37.586040000000004" lon="127.08361000000001">
    <ele>25.26</ele>
   </trkpt>
   <trkpt lat="37.586000000000006" lon="127.08395000000002">
    <ele>26.310000000000002</ele>
   </trkpt>
   <trkpt lat="37.586040000000004" lon="127.08396">
    <ele>26.310000000000002</ele>
   </trkpt>
  </trkseg>
 </trk>
</gpx>
