<?xml version="1.0" encoding="UTF-8"?>
<gpx creator="daengrun-naver-route" version="1.1" xmlns="http://www.topografix.com/GPX/1/1" xmlns:xsi="http://www.w3.org/2001/XMLSchema-instance" xsi:schemaLocation="http://www.topografix.com/GPX/1/1 http://www.topografix.com/GPX/1/1/gpx.xsd">
 <metadata>
  <name>중랑 테라스연못·동원마을마당 루프 2.06km</name>
  <desc>daengrun candidate geometry — measured 2.06km via Naver pedestrian router (o=flat, 계단회피). Elevation NOT available from this source. stairs=0 crosswalk=6 steppingstone=0 underpass=0 overpass=0</desc>
  <link href="naver:1p9481j"><text>daengrun route id</text></link>
  <copyright author="NAVER Corp."><license>https://map.naver.com/</license></copyright>
 </metadata>
 <trk>
  <name>중랑 테라스연못·동원마을마당 루프 2.06km</name>
  <trkseg>
   <trkpt lat="37.6018784" lon="127.1069469"></trkpt>
   <trkpt lat="37.6020274" lon="127.1073041"></trkpt>
   <trkpt lat="37.6020274" lon="127.1073041"></trkpt>
   <trkpt lat="37.6020328" lon="127.1072973"></trkpt>
   <trkpt lat="37.6022627" lon="127.1070446"></trkpt>
   <trkpt lat="37.6022834" lon="127.1070286"></trkpt>
   <trkpt lat="37.6023014" lon="127.1070138"></trkpt>
   <trkpt lat="37.602448" lon="127.106936"></trkpt>
   <trkpt lat="37.6025992" lon="127.106857"></trkpt>
   <trkpt lat="37.6025992" lon="127.106857"></trkpt>
   <trkpt lat="37.6027988" lon="127.1075244"></trkpt>
   <trkpt lat="37.6028198" lon="127.1075889"></trkpt>
   <trkpt lat="37.6028535" lon="127.1076986"></trkpt>
   <trkpt lat="37.60292" lon="127.1076608"></trkpt>
   <trkpt lat="37.60292" lon="127.1076608"></trkpt>
   <trkpt lat="37.6029401" lon="127.1077253"></trkpt>
   <trkpt lat="37.6029556" lon="127.1077728"></trkpt>
   <trkpt lat="37.6029556" lon="127.1077728"></trkpt>
   <trkpt lat="37.6028908" lon="127.1078117"></trkpt>
   <trkpt lat="37.6031576" lon="127.1086124"></trkpt>
   <trkpt lat="37.6031739" lon="127.1086621"></trkpt>
   <trkpt lat="37.6032192" lon="127.1087129"></trkpt>
   <trkpt lat="37.6032916" lon="127.1088065"></trkpt>
   <trkpt lat="37.6034072" lon="127.1091537"></trkpt>
   <trkpt lat="37.6034672" lon="127.1093131"></trkpt>
   <trkpt lat="37.603631" lon="127.1097711"></trkpt>
   <trkpt lat="37.603631" lon="127.1097711"></trkpt>
   <trkpt lat="37.6036625" lon="127.1097471"></trkpt>
   <trkpt lat="37.6038279" lon="127.1096296"></trkpt>
   <trkpt lat="37.6042523" lon="127.1093181"></trkpt>
   <trkpt lat="37.6043844" lon="127.1091894"></trkpt>
   <trkpt lat="37.6044536" lon="127.1091335"></trkpt>
   <trkpt lat="37.6044536" lon="127.1091335"></trkpt>
   <trkpt lat="37.6045407" lon="127.1092985"></trkpt>
   <trkpt lat="37.6045407" lon="127.1092985"></trkpt>
   <trkpt lat="37.6044481" lon="127.1093737"></trkpt>
   <trkpt lat="37.6043915" lon="127.1094171"></trkpt>
   <trkpt lat="37.6043915" lon="127.1094171"></trkpt>
   <trkpt lat="37.6044495" lon="127.1095323"></trkpt>
   <trkpt lat="37.6044587" lon="127.1095731"></trkpt>
   <trkpt lat="37.6044888" lon="127.1096975"></trkpt>
   <trkpt lat="37.6045126" lon="127.1097914"></trkpt>
   <trkpt lat="37.6045298" lon="127.1098265"></trkpt>
   <trkpt lat="37.6045596" lon="127.1098478"></trkpt>
   <trkpt lat="37.6045868" lon="127.1098862"></trkpt>
   <trkpt lat="37.6045941" lon="127.1098986"></trkpt>
   <trkpt lat="37.6046211" lon="127.1099132"></trkpt>
   <trkpt lat="37.60473" lon="127.1098537"></trkpt>
   <trkpt lat="37.604848" lon="127.1098395"></trkpt>
   <trkpt lat="37.6049174" lon="127.1098324"></trkpt>
   <trkpt lat="37.6050201" lon="127.1098024"></trkpt>
   <trkpt lat="37.6051741" lon="127.1097846"></trkpt>
   <trkpt lat="37.6052751" lon="127.1097738"></trkpt>
   <trkpt lat="37.6053363" lon="127.1097735"></trkpt>
   <trkpt lat="37.6053363" lon="127.1097735"></trkpt>
   <trkpt lat="37.6053706" lon="127.1100441"></trkpt>
   <trkpt lat="37.605351" lon="127.1103762"></trkpt>
   <trkpt lat="37.6053684" lon="127.1104848"></trkpt>
   <trkpt lat="37.6053684" lon="127.1104848"></trkpt>
   <trkpt lat="37.605351" lon="127.1103762"></trkpt>
   <trkpt lat="37.6053706" lon="127.1100441"></trkpt>
   <trkpt lat="37.6053363" lon="127.1097735"></trkpt>
   <trkpt lat="37.6053363" lon="127.1097735"></trkpt>
   <trkpt lat="37.6053742" lon="127.1097824"></trkpt>
   <trkpt lat="37.6054302" lon="127.109798"></trkpt>
   <trkpt lat="37.6055305" lon="127.1098711"></trkpt>
   <trkpt lat="37.6055946" lon="127.1099104"></trkpt>
   <trkpt lat="37.6056478" lon="127.1099237"></trkpt>
   <trkpt lat="37.6057542" lon="127.1099232"></trkpt>
   <trkpt lat="37.6058028" lon="127.1099229"></trkpt>
   <trkpt lat="37.6058578" lon="127.1099204"></trkpt>
   <trkpt lat="37.6058578" lon="127.1099181"></trkpt>
   <trkpt lat="37.6058578" lon="127.1099181"></trkpt>
   <trkpt lat="37.6058595" lon="127.109892"></trkpt>
   <trkpt lat="37.6058536" lon="127.1097391"></trkpt>
   <trkpt lat="37.6058516" lon="127.1096791"></trkpt>
   <trkpt lat="37.6058557" lon="127.1095556"></trkpt>
   <trkpt lat="37.605896" lon="127.1094613"></trkpt>
   <trkpt lat="37.6058858" lon="127.1094036"></trkpt>
   <trkpt lat="37.6058492" lon="127.1092248"></trkpt>
   <trkpt lat="37.60583" lon="127.1091569"></trkpt>
   <trkpt lat="37.6057729" lon="127.1090473"></trkpt>
   <trkpt lat="37.6057102" lon="127.1088969"></trkpt>
   <trkpt lat="37.6056864" lon="127.1087951"></trkpt>
   <trkpt lat="37.6056487" lon="127.108563"></trkpt>
   <trkpt lat="37.6056357" lon="127.1084396"></trkpt>
   <trkpt lat="37.6056357" lon="127.1084396"></trkpt>
   <trkpt lat="37.6062061" lon="127.1081217"></trkpt>
   <trkpt lat="37.6062061" lon="127.1081217"></trkpt>
   <trkpt lat="37.6061679" lon="127.1080199"></trkpt>
   <trkpt lat="37.6061406" lon="127.1079317"></trkpt>
   <trkpt lat="37.6061406" lon="127.1079317"></trkpt>
   <trkpt lat="37.6061819" lon="127.1079065"></trkpt>
   <trkpt lat="37.6061981" lon="127.1078906"></trkpt>
   <trkpt lat="37.6062016" lon="127.1078589"></trkpt>
   <trkpt lat="37.6061897" lon="127.1077989"></trkpt>
   <trkpt lat="37.6061048" lon="127.1074878"></trkpt>
   <trkpt lat="37.6060318" lon="127.1072151"></trkpt>
   <trkpt lat="37.6060244" lon="127.1071517"></trkpt>
   <trkpt lat="37.6060231" lon="127.1070475"></trkpt>
   <trkpt lat="37.6060185" lon="127.1067291"></trkpt>
   <trkpt lat="37.6060082" lon="127.106625"></trkpt>
   <trkpt lat="37.6059024" lon="127.106255"></trkpt>
   <trkpt lat="37.605877" lon="127.1062076"></trkpt>
   <trkpt lat="37.6058571" lon="127.1061918"></trkpt>
   <trkpt lat="37.6058418" lon="127.1061919"></trkpt>
   <trkpt lat="37.6057932" lon="127.1062171"></trkpt>
   <trkpt lat="37.6057932" lon="127.1062171"></trkpt>
   <trkpt lat="37.6057805" lon="127.1061752"></trkpt>
   <trkpt lat="37.6057587" lon="127.1061232"></trkpt>
   <trkpt lat="37.6057587" lon="127.1061232"></trkpt>
   <trkpt lat="37.6058063" lon="127.1060901"></trkpt>
   <trkpt lat="37.6055997" lon="127.1057581"></trkpt>
   <trkpt lat="37.605539" lon="127.1056599"></trkpt>
   <trkpt lat="37.6055172" lon="127.1056136"></trkpt>
   <trkpt lat="37.6055172" lon="127.1056136"></trkpt>
   <trkpt lat="37.605599" lon="127.1055531"></trkpt>
   <trkpt lat="37.605599" lon="127.1055531"></trkpt>
   <trkpt lat="37.6055763" lon="127.1054943"></trkpt>
   <trkpt lat="37.6055543" lon="127.1053924"></trkpt>
   <trkpt lat="37.6055461" lon="127.1053506"></trkpt>
   <trkpt lat="37.6054993" lon="127.1051163"></trkpt>
   <trkpt lat="37.6054846" lon="127.1050189"></trkpt>
   <trkpt lat="37.6054846" lon="127.1050189"></trkpt>
   <trkpt lat="37.6054993" lon="127.1051163"></trkpt>
   <trkpt lat="37.6055461" lon="127.1053506"></trkpt>
   <trkpt lat="37.6055543" lon="127.1053924"></trkpt>
   <trkpt lat="37.6055763" lon="127.1054943"></trkpt>
   <trkpt lat="37.605599" lon="127.1055531"></trkpt>
   <trkpt lat="37.605599" lon="127.1055531"></trkpt>
   <trkpt lat="37.6055172" lon="127.1056136"></trkpt>
   <trkpt lat="37.6055172" lon="127.1056136"></trkpt>
   <trkpt lat="37.605539" lon="127.1056599"></trkpt>
   <trkpt lat="37.6055997" lon="127.1057581"></trkpt>
   <trkpt lat="37.6058063" lon="127.1060901"></trkpt>
   <trkpt lat="37.6058063" lon="127.1060901"></trkpt>
   <trkpt lat="37.6057587" lon="127.1061232"></trkpt>
   <trkpt lat="37.6057344" lon="127.1061381"></trkpt>
   <trkpt lat="37.6057038" lon="127.1061541"></trkpt>
   <trkpt lat="37.6051432" lon="127.1064471"></trkpt>
   <trkpt lat="37.6050982" lon="127.1064711"></trkpt>
   <trkpt lat="37.604777" lon="127.1066371"></trkpt>
   <trkpt lat="37.6046933" lon="127.1066806"></trkpt>
   <trkpt lat="37.6045764" lon="127.1067435"></trkpt>
   <trkpt lat="37.6044963" lon="127.1067904"></trkpt>
   <trkpt lat="37.6039304" lon="127.1071083"></trkpt>
   <trkpt lat="37.6037982" lon="127.1071781"></trkpt>
   <trkpt lat="37.603665" lon="127.1072491"></trkpt>
   <trkpt lat="37.6035804" lon="127.1072971"></trkpt>
   <trkpt lat="37.6033996" lon="127.1073943"></trkpt>
   <trkpt lat="37.60292" lon="127.1076608"></trkpt>
   <trkpt lat="37.6028535" lon="127.1076986"></trkpt>
   <trkpt lat="37.6028535" lon="127.1076986"></trkpt>
   <trkpt lat="37.6028198" lon="127.1075889"></trkpt>
   <trkpt lat="37.6027988" lon="127.1075244"></trkpt>
   <trkpt lat="37.6025992" lon="127.106857"></trkpt>
   <trkpt lat="37.6025992" lon="127.106857"></trkpt>
   <trkpt lat="37.602448" lon="127.106936"></trkpt>
   <trkpt lat="37.6023014" lon="127.1070138"></trkpt>
   <trkpt lat="37.6022834" lon="127.1070286"></trkpt>
   <trkpt lat="37.6022627" lon="127.1070446"></trkpt>
   <trkpt lat="37.6020328" lon="127.1072973"></trkpt>
   <trkpt lat="37.6020274" lon="127.1073041"></trkpt>
   <trkpt lat="37.6020274" lon="127.1073041"></trkpt>
   <trkpt lat="37.6018784" lon="127.1069469"></trkpt>
  </trkseg>
 </trk>
</gpx>
