<?xml version="1.0" encoding="UTF-8"?>
<gpx creator="daengrun-naver-route" version="1.1" xmlns="http://www.topografix.com/GPX/1/1" xmlns:xsi="http://www.w3.org/2001/XMLSchema-instance" xsi:schemaLocation="http://www.topografix.com/GPX/1/1 http://www.topografix.com/GPX/1/1/gpx.xsd">
 <metadata>
  <name>중랑 봉현마을마당 루프 2.46km</name>
  <desc>daengrun candidate geometry — measured 2.46km via Naver pedestrian router (o=flat, 계단회피). Elevation NOT available from this source. stairs=0 crosswalk=5 steppingstone=0 underpass=2 overpass=0</desc>
  <link href="naver:17jigmi"><text>daengrun route id</text></link>
  <copyright author="NAVER Corp."><license>https://map.naver.com/</license></copyright>
 </metadata>
 <trk>
  <name>중랑 봉현마을마당 루프 2.46km</name>
  <trkseg>
   <trkpt lat="37.5994912" lon="127.0880375"></trkpt>
   <trkpt lat="37.5994579" lon="127.0880615"></trkpt>
   <trkpt lat="37.5994579" lon="127.0880615"></trkpt>
   <trkpt lat="37.5993815" lon="127.0878524"></trkpt>
   <trkpt lat="37.5993815" lon="127.0878524"></trkpt>
   <trkpt lat="37.6000813" lon="127.0877114"></trkpt>
   <trkpt lat="37.6001435" lon="127.0877032"></trkpt>
   <trkpt lat="37.6004723" lon="127.0876504"></trkpt>
   <trkpt lat="37.6007271" lon="127.0875878"></trkpt>
   <trkpt lat="37.6010757" lon="127.0875258"></trkpt>
   <trkpt lat="37.6012361" lon="127.0875034"></trkpt>
   <trkpt lat="37.6013406" lon="127.0874904"></trkpt>
   <trkpt lat="37.6015866" lon="127.0874573"></trkpt>
   <trkpt lat="37.6018145" lon="127.0874175"></trkpt>
   <trkpt lat="37.6018442" lon="127.0874128"></trkpt>
   <trkpt lat="37.6018442" lon="127.0874128"></trkpt>
   <trkpt lat="37.6018353" lon="127.0874355"></trkpt>
   <trkpt lat="37.6017582" lon="127.0875708"></trkpt>
   <trkpt lat="37.6016832" lon="127.087757"></trkpt>
   <trkpt lat="37.6016832" lon="127.087757"></trkpt>
   <trkpt lat="37.6017338" lon="127.0878145"></trkpt>
   <trkpt lat="37.6017542" lon="127.0879673"></trkpt>
   <trkpt lat="37.6017542" lon="127.0879673"></trkpt>
   <trkpt lat="37.6017338" lon="127.0878145"></trkpt>
   <trkpt lat="37.6016832" lon="127.087757"></trkpt>
   <trkpt lat="37.6016832" lon="127.087757"></trkpt>
   <trkpt lat="37.6015969" lon="127.0878379"></trkpt>
   <trkpt lat="37.6014747" lon="127.0879496"></trkpt>
   <trkpt lat="37.6014747" lon="127.0879496"></trkpt>
   <trkpt lat="37.6017079" lon="127.0883992"></trkpt>
   <trkpt lat="37.6017841" lon="127.0885426"></trkpt>
   <trkpt lat="37.6018077" lon="127.0885867"></trkpt>
   <trkpt lat="37.601864" lon="127.0886906"></trkpt>
   <trkpt lat="37.601991" lon="127.0889244"></trkpt>
   <trkpt lat="37.6020881" lon="127.089104"></trkpt>
   <trkpt lat="37.6021634" lon="127.0892441"></trkpt>
   <trkpt lat="37.6022287" lon="127.0893717"></trkpt>
   <trkpt lat="37.6022585" lon="127.0893761"></trkpt>
   <trkpt lat="37.6023072" lon="127.0893951"></trkpt>
   <trkpt lat="37.6023371" lon="127.0894323"></trkpt>
   <trkpt lat="37.6023371" lon="127.0894323"></trkpt>
   <trkpt lat="37.6022894" lon="127.0894756"></trkpt>
   <trkpt lat="37.6022598" lon="127.0895064"></trkpt>
   <trkpt lat="37.6022598" lon="127.0895064"></trkpt>
   <trkpt lat="37.6025064" lon="127.0899128"></trkpt>
   <trkpt lat="37.602568" lon="127.0900179"></trkpt>
   <trkpt lat="37.6026098" lon="127.090089"></trkpt>
   <trkpt lat="37.6026098" lon="127.090089"></trkpt>
   <trkpt lat="37.6023024" lon="127.0903569"></trkpt>
   <trkpt lat="37.6023024" lon="127.0903569"></trkpt>
   <trkpt lat="37.6022422" lon="127.0904094"></trkpt>
   <trkpt lat="37.602182" lon="127.0904584"></trkpt>
   <trkpt lat="37.6021164" lon="127.090512"></trkpt>
   <trkpt lat="37.6018495" lon="127.0907616"></trkpt>
   <trkpt lat="37.6016743" lon="127.0909245"></trkpt>
   <trkpt lat="37.6016079" lon="127.0909872"></trkpt>
   <trkpt lat="37.6014494" lon="127.0910368"></trkpt>
   <trkpt lat="37.6013152" lon="127.0910523"></trkpt>
   <trkpt lat="37.6011241" lon="127.0910748"></trkpt>
   <trkpt lat="37.6010701" lon="127.0910887"></trkpt>
   <trkpt lat="37.6010701" lon="127.0910887"></trkpt>
   <trkpt lat="37.6010996" lon="127.0912698"></trkpt>
   <trkpt lat="37.6010996" lon="127.0912698"></trkpt>
   <trkpt lat="37.6007609" lon="127.0913351"></trkpt>
   <trkpt lat="37.6004907" lon="127.0913978"></trkpt>
   <trkpt lat="37.6004907" lon="127.0913978"></trkpt>
   <trkpt lat="37.6005139" lon="127.0915812"></trkpt>
   <trkpt lat="37.6005139" lon="127.0915812"></trkpt>
   <trkpt lat="37.6003337" lon="127.091615"></trkpt>
   <trkpt lat="37.6003337" lon="127.091615"></trkpt>
   <trkpt lat="37.6003392" lon="127.091632"></trkpt>
   <trkpt lat="37.6003215" lon="127.0917295"></trkpt>
   <trkpt lat="37.6003325" lon="127.0917713"></trkpt>
   <trkpt lat="37.6003325" lon="127.0917713"></trkpt>
   <trkpt lat="37.6002064" lon="127.0918105"></trkpt>
   <trkpt lat="37.600049" lon="127.0919111"></trkpt>
   <trkpt lat="37.5993024" lon="127.0923423"></trkpt>
   <trkpt lat="37.599347" lon="127.092461"></trkpt>
   <trkpt lat="37.5991634" lon="127.092556"></trkpt>
   <trkpt lat="37.5990312" lon="127.0926247"></trkpt>
   <trkpt lat="37.5990312" lon="127.0926247"></trkpt>
   <trkpt lat="37.5989983" lon="127.0924991"></trkpt>
   <trkpt lat="37.5989811" lon="127.0924743"></trkpt>
   <trkpt lat="37.5989286" lon="127.0924213"></trkpt>
   <trkpt lat="37.5988635" lon="127.0923662"></trkpt>
   <trkpt lat="37.5988635" lon="127.0923662"></trkpt>
   <trkpt lat="37.5987851" lon="127.0923598"></trkpt>
   <trkpt lat="37.5987851" lon="127.0923598"></trkpt>
   <trkpt lat="37.5982748" lon="127.0925903"></trkpt>
   <trkpt lat="37.5982748" lon="127.0925903"></trkpt>
   <trkpt lat="37.5982556" lon="127.0925066"></trkpt>
   <trkpt lat="37.5978645" lon="127.0906951"></trkpt>
   <trkpt lat="37.5973948" lon="127.0885906"></trkpt>
   <trkpt lat="37.5973948" lon="127.0885906"></trkpt>
   <trkpt lat="37.5976343" lon="127.0885213"></trkpt>
   <trkpt lat="37.5976343" lon="127.0885213"></trkpt>
   <trkpt lat="37.5976563" lon="127.0883671"></trkpt>
   <trkpt lat="37.5976815" lon="127.0883726"></trkpt>
   <trkpt lat="37.597715" lon="127.0883974"></trkpt>
   <trkpt lat="37.597715" lon="127.0883974"></trkpt>
   <trkpt lat="37.5977774" lon="127.0884582"></trkpt>
   <trkpt lat="37.5978083" lon="127.0885475"></trkpt>
   <trkpt lat="37.5978083" lon="127.0885475"></trkpt>
   <trkpt lat="37.5977774" lon="127.0884582"></trkpt>
   <trkpt lat="37.597715" lon="127.0883974"></trkpt>
   <trkpt lat="37.5976815" lon="127.0883726"></trkpt>
   <trkpt lat="37.5976563" lon="127.0883671"></trkpt>
   <trkpt lat="37.5973564" lon="127.0884481"></trkpt>
   <trkpt lat="37.5973564" lon="127.0884481"></trkpt>
   <trkpt lat="37.5973191" lon="127.0883339"></trkpt>
   <trkpt lat="37.5972671" lon="127.0881823"></trkpt>
   <trkpt lat="37.5972671" lon="127.0881823"></trkpt>
   <trkpt lat="37.5972097" lon="127.0879799"></trkpt>
   <trkpt lat="37.5972097" lon="127.0879799"></trkpt>
   <trkpt lat="37.597175" lon="127.08786"></trkpt>
   <trkpt lat="37.596854" lon="127.0867992"></trkpt>
   <trkpt lat="37.5966733" lon="127.0861522"></trkpt>
   <trkpt lat="37.596665" lon="127.0861183"></trkpt>
   <trkpt lat="37.596665" lon="127.0861183"></trkpt>
   <trkpt lat="37.5967469" lon="127.0860827"></trkpt>
   <trkpt lat="37.5967396" lon="127.0860511"></trkpt>
   <trkpt lat="37.5967414" lon="127.086051"></trkpt>
   <trkpt lat="37.5970276" lon="127.0859339"></trkpt>
   <trkpt lat="37.5969738" lon="127.0857416"></trkpt>
   <trkpt lat="37.5971691" lon="127.0856726"></trkpt>
   <trkpt lat="37.5971727" lon="127.0856703"></trkpt>
   <trkpt lat="37.5973401" lon="127.0855957"></trkpt>
   <trkpt lat="37.5973237" lon="127.0855392"></trkpt>
   <trkpt lat="37.5973011" lon="127.0855314"></trkpt>
   <trkpt lat="37.5973011" lon="127.0855314"></trkpt>
   <trkpt lat="37.5973285" lon="127.0856117"></trkpt>
   <trkpt lat="37.5973385" lon="127.0856411"></trkpt>
   <trkpt lat="37.5973439" lon="127.0856569"></trkpt>
   <trkpt lat="37.5974478" lon="127.0859588"></trkpt>
   <trkpt lat="37.5974678" lon="127.0860176"></trkpt>
   <trkpt lat="37.5975251" lon="127.086169"></trkpt>
   <trkpt lat="37.5975724" lon="127.0862945"></trkpt>
   <trkpt lat="37.5976515" lon="127.0864731"></trkpt>
   <trkpt lat="37.5976705" lon="127.0865171"></trkpt>
   <trkpt lat="37.5978031" lon="127.0867917"></trkpt>
   <trkpt lat="37.5980217" lon="127.0871779"></trkpt>
   <trkpt lat="37.5981259" lon="127.0873291"></trkpt>
   <trkpt lat="37.5981847" lon="127.087407"></trkpt>
   <trkpt lat="37.5984164" lon="127.087664"></trkpt>
   <trkpt lat="37.5984688" lon="127.0877169"></trkpt>
   <trkpt lat="37.5984905" lon="127.0877383"></trkpt>
   <trkpt lat="37.5985086" lon="127.0877507"></trkpt>
   <trkpt lat="37.5985284" lon="127.0877517"></trkpt>
   <trkpt lat="37.5985618" lon="127.0877561"></trkpt>
   <trkpt lat="37.5985987" lon="127.0877502"></trkpt>
   <trkpt lat="37.5985987" lon="127.0877502"></trkpt>
   <trkpt lat="37.5986211" lon="127.0879721"></trkpt>
   <trkpt lat="37.5986211" lon="127.0879721"></trkpt>
   <trkpt lat="37.5987102" lon="127.0879172"></trkpt>
   <trkpt lat="37.5987273" lon="127.0879036"></trkpt>
   <trkpt lat="37.5987759" lon="127.0879022"></trkpt>
   <trkpt lat="37.598886" lon="127.0879276"></trkpt>
   <trkpt lat="37.5993815" lon="127.0878524"></trkpt>
   <trkpt lat="37.5993815" lon="127.0878524"></trkpt>
   <trkpt lat="37.5994579" lon="127.0880615"></trkpt>
   <trkpt lat="37.5994579" lon="127.0880615"></trkpt>
   <trkpt lat="37.5994912" lon="127.0880375"></trkpt>
  </trkseg>
 </trk>
</gpx>
