<?xml version="1.0" encoding="UTF-8"?>
<gpx creator="daengrun-naver-route" version="1.1" xmlns="http://www.topografix.com/GPX/1/1" xmlns:xsi="http://www.w3.org/2001/XMLSchema-instance" xsi:schemaLocation="http://www.topografix.com/GPX/1/1 http://www.topografix.com/GPX/1/1/gpx.xsd">
 <metadata>
  <name>중랑 봉현마을 신내 루프 1.91km</name>
  <desc>daengrun candidate geometry — measured 1.91km via Naver pedestrian router (o=flat, 계단회피). Elevation NOT available from this source. stairs=0 crosswalk=4 steppingstone=0 underpass=2 overpass=0</desc>
  <link href="naver:164jvfe"><text>daengrun route id</text></link>
  <copyright author="NAVER Corp."><license>https://map.naver.com/</license></copyright>
 </metadata>
 <trk>
  <name>중랑 봉현마을 신내 루프 1.91km</name>
  <trkseg>
   <trkpt lat="37.5994912" lon="127.0880375"></trkpt>
   <trkpt lat="37.5994579" lon="127.0880615"></trkpt>
   <trkpt lat="37.5994579" lon="127.0880615"></trkpt>
   <trkpt lat="37.5993815" lon="127.0878524"></trkpt>
   <trkpt lat="37.5993815" lon="127.0878524"></trkpt>
   <trkpt lat="37.6000813" lon="127.0877114"></trkpt>
   <trkpt lat="37.6001435" lon="127.0877032"></trkpt>
   <trkpt lat="37.6004723" lon="127.0876504"></trkpt>
   <trkpt lat="37.6004723" lon="127.0876504"></trkpt>
   <trkpt lat="37.6004637" lon="127.0875281"></trkpt>
   <trkpt lat="37.6004552" lon="127.0874058"></trkpt>
   <trkpt lat="37.6004552" lon="127.0874058"></trkpt>
   <trkpt lat="37.6003624" lon="127.0874187"></trkpt>
   <trkpt lat="37.6003574" lon="127.0870245"></trkpt>
   <trkpt lat="37.6003574" lon="127.0870245"></trkpt>
   <trkpt lat="37.6005079" lon="127.0870248"></trkpt>
   <trkpt lat="37.6005998" lon="127.0870119"></trkpt>
   <trkpt lat="37.6006745" lon="127.0869616"></trkpt>
   <trkpt lat="37.6009328" lon="127.0868491"></trkpt>
   <trkpt lat="37.600966" lon="127.086824"></trkpt>
   <trkpt lat="37.600983" lon="127.0867741"></trkpt>
   <trkpt lat="37.6009909" lon="127.0867118"></trkpt>
   <trkpt lat="37.6010074" lon="127.0865497"></trkpt>
   <trkpt lat="37.6010074" lon="127.0865497"></trkpt>
   <trkpt lat="37.6011886" lon="127.0865532"></trkpt>
   <trkpt lat="37.6011886" lon="127.0865532"></trkpt>
   <trkpt lat="37.6011893" lon="127.0864999"></trkpt>
   <trkpt lat="37.6011893" lon="127.0864999"></trkpt>
   <trkpt lat="37.6011886" lon="127.0865532"></trkpt>
   <trkpt lat="37.6011886" lon="127.0865532"></trkpt>
   <trkpt lat="37.6012733" lon="127.086555"></trkpt>
   <trkpt lat="37.6013806" lon="127.0865567"></trkpt>
   <trkpt lat="37.6015654" lon="127.0865602"></trkpt>
   <trkpt lat="37.6016492" lon="127.086562"></trkpt>
   <trkpt lat="37.6017907" lon="127.0865623"></trkpt>
   <trkpt lat="37.6018827" lon="127.0865618"></trkpt>
   <trkpt lat="37.6018827" lon="127.0865618"></trkpt>
   <trkpt lat="37.6019077" lon="127.0870114"></trkpt>
   <trkpt lat="37.6019156" lon="127.0872006"></trkpt>
   <trkpt lat="37.6019156" lon="127.0872006"></trkpt>
   <trkpt lat="37.6018858" lon="127.0872019"></trkpt>
   <trkpt lat="37.6018002" lon="127.0872137"></trkpt>
   <trkpt lat="37.6018002" lon="127.0872137"></trkpt>
   <trkpt lat="37.6018145" lon="127.0874175"></trkpt>
   <trkpt lat="37.6018145" lon="127.0874175"></trkpt>
   <trkpt lat="37.6018442" lon="127.0874128"></trkpt>
   <trkpt lat="37.601946" lon="127.0874066"></trkpt>
   <trkpt lat="37.601946" lon="127.0874066"></trkpt>
   <trkpt lat="37.6019824" lon="127.0874891"></trkpt>
   <trkpt lat="37.6019996" lon="127.0875241"></trkpt>
   <trkpt lat="37.6020876" lon="127.0876868"></trkpt>
   <trkpt lat="37.6021612" lon="127.0878529"></trkpt>
   <trkpt lat="37.6021612" lon="127.0878529"></trkpt>
   <trkpt lat="37.6020951" lon="127.0880164"></trkpt>
   <trkpt lat="37.6019852" lon="127.0880499"></trkpt>
   <trkpt lat="37.6019674" lon="127.0881066"></trkpt>
   <trkpt lat="37.6018784" lon="127.0881785"></trkpt>
   <trkpt lat="37.6018271" lon="127.0881923"></trkpt>
   <trkpt lat="37.6018067" lon="127.0882921"></trkpt>
   <trkpt lat="37.6017079" lon="127.0883992"></trkpt>
   <trkpt lat="37.6017079" lon="127.0883992"></trkpt>
   <trkpt lat="37.6017841" lon="127.0885426"></trkpt>
   <trkpt lat="37.6018077" lon="127.0885867"></trkpt>
   <trkpt lat="37.601864" lon="127.0886906"></trkpt>
   <trkpt lat="37.601991" lon="127.0889244"></trkpt>
   <trkpt lat="37.6020881" lon="127.089104"></trkpt>
   <trkpt lat="37.6021634" lon="127.0892441"></trkpt>
   <trkpt lat="37.6022287" lon="127.0893717"></trkpt>
   <trkpt lat="37.6022585" lon="127.0893761"></trkpt>
   <trkpt lat="37.6023072" lon="127.0893951"></trkpt>
   <trkpt lat="37.6023371" lon="127.0894323"></trkpt>
   <trkpt lat="37.6023371" lon="127.0894323"></trkpt>
   <trkpt lat="37.6022894" lon="127.0894756"></trkpt>
   <trkpt lat="37.6022598" lon="127.0895064"></trkpt>
   <trkpt lat="37.6022598" lon="127.0895064"></trkpt>
   <trkpt lat="37.6025064" lon="127.0899128"></trkpt>
   <trkpt lat="37.602568" lon="127.0900179"></trkpt>
   <trkpt lat="37.6026098" lon="127.090089"></trkpt>
   <trkpt lat="37.6026098" lon="127.090089"></trkpt>
   <trkpt lat="37.6022422" lon="127.0904094"></trkpt>
   <trkpt lat="37.6022408" lon="127.0905136"></trkpt>
   <trkpt lat="37.6022408" lon="127.0905136"></trkpt>
   <trkpt lat="37.6024196" lon="127.0903563"></trkpt>
   <trkpt lat="37.6024196" lon="127.0903563"></trkpt>
   <trkpt lat="37.6022408" lon="127.0905136"></trkpt>
   <trkpt lat="37.6022422" lon="127.0904094"></trkpt>
   <trkpt lat="37.602182" lon="127.0904584"></trkpt>
   <trkpt lat="37.6021164" lon="127.090512"></trkpt>
   <trkpt lat="37.6018495" lon="127.0907616"></trkpt>
   <trkpt lat="37.6016743" lon="127.0909245"></trkpt>
   <trkpt lat="37.6016079" lon="127.0909872"></trkpt>
   <trkpt lat="37.6014494" lon="127.0910368"></trkpt>
   <trkpt lat="37.6013152" lon="127.0910523"></trkpt>
   <trkpt lat="37.6011241" lon="127.0910748"></trkpt>
   <trkpt lat="37.6010701" lon="127.0910887"></trkpt>
   <trkpt lat="37.6010701" lon="127.0910887"></trkpt>
   <trkpt lat="37.6010996" lon="127.0912698"></trkpt>
   <trkpt lat="37.6010996" lon="127.0912698"></trkpt>
   <trkpt lat="37.6007609" lon="127.0913351"></trkpt>
   <trkpt lat="37.6004907" lon="127.0913978"></trkpt>
   <trkpt lat="37.6004907" lon="127.0913978"></trkpt>
   <trkpt lat="37.6005139" lon="127.0915812"></trkpt>
   <trkpt lat="37.6005139" lon="127.0915812"></trkpt>
   <trkpt lat="37.6003337" lon="127.091615"></trkpt>
   <trkpt lat="37.6003337" lon="127.091615"></trkpt>
   <trkpt lat="37.6003392" lon="127.091632"></trkpt>
   <trkpt lat="37.6003215" lon="127.0917295"></trkpt>
   <trkpt lat="37.6003325" lon="127.0917713"></trkpt>
   <trkpt lat="37.6003325" lon="127.0917713"></trkpt>
   <trkpt lat="37.6002064" lon="127.0918105"></trkpt>
   <trkpt lat="37.600049" lon="127.0919111"></trkpt>
   <trkpt lat="37.5998798" lon="127.091451"></trkpt>
   <trkpt lat="37.5998798" lon="127.091451"></trkpt>
   <trkpt lat="37.600049" lon="127.0919111"></trkpt>
   <trkpt lat="37.6002064" lon="127.0918105"></trkpt>
   <trkpt lat="37.6003325" lon="127.0917713"></trkpt>
   <trkpt lat="37.6003325" lon="127.0917713"></trkpt>
   <trkpt lat="37.6003215" lon="127.0917295"></trkpt>
   <trkpt lat="37.6002518" lon="127.0916472"></trkpt>
   <trkpt lat="37.6001635" lon="127.0913871"></trkpt>
   <trkpt lat="37.6001535" lon="127.0913566"></trkpt>
   <trkpt lat="37.599695" lon="127.0901582"></trkpt>
   <trkpt lat="37.5995632" lon="127.0898316"></trkpt>
   <trkpt lat="37.5995632" lon="127.0898316"></trkpt>
   <trkpt lat="37.5996433" lon="127.0897858"></trkpt>
   <trkpt lat="37.5996433" lon="127.0897858"></trkpt>
   <trkpt lat="37.5995778" lon="127.0896174"></trkpt>
   <trkpt lat="37.5992776" lon="127.0890809"></trkpt>
   <trkpt lat="37.5989126" lon="127.088572"></trkpt>
   <trkpt lat="37.5986381" lon="127.0881895"></trkpt>
   <trkpt lat="37.5985657" lon="127.0880857"></trkpt>
   <trkpt lat="37.5985574" lon="127.0880529"></trkpt>
   <trkpt lat="37.5985618" lon="127.0880155"></trkpt>
   <trkpt lat="37.5985618" lon="127.0880155"></trkpt>
   <trkpt lat="37.598578" lon="127.0879984"></trkpt>
   <trkpt lat="37.5986211" lon="127.0879721"></trkpt>
   <trkpt lat="37.5987102" lon="127.0879172"></trkpt>
   <trkpt lat="37.5987273" lon="127.0879036"></trkpt>
   <trkpt lat="37.5987759" lon="127.0879022"></trkpt>
   <trkpt lat="37.598886" lon="127.0879276"></trkpt>
   <trkpt lat="37.5993815" lon="127.0878524"></trkpt>
   <trkpt lat="37.5993815" lon="127.0878524"></trkpt>
   <trkpt lat="37.5994579" lon="127.0880615"></trkpt>
   <trkpt lat="37.5994579" lon="127.0880615"></trkpt>
   <trkpt lat="37.5994912" lon="127.0880375"></trkpt>
  </trkseg>
 </trk>
</gpx>
