<?xml version="1.0" encoding="UTF-8"?>
<gpx creator="daengrun-naver-route" version="1.1" xmlns="http://www.topografix.com/GPX/1/1" xmlns:xsi="http://www.w3.org/2001/XMLSchema-instance" xsi:schemaLocation="http://www.topografix.com/GPX/1/1 http://www.topografix.com/GPX/1/1/gpx.xsd">
 <metadata>
  <name>중랑 신내어울공원 루프 1.59km</name>
  <desc>daengrun candidate geometry — measured 1.59km via Naver pedestrian router (o=flat, 계단회피). Elevation NOT available from this source. stairs=0 crosswalk=8 steppingstone=0 underpass=2 overpass=0</desc>
  <link href="naver:d2sir8"><text>daengrun route id</text></link>
  <copyright author="NAVER Corp."><license>https://map.naver.com/</license></copyright>
 </metadata>
 <trk>
  <name>중랑 신내어울공원 루프 1.59km</name>
  <trkseg>
   <trkpt lat="37.6130508" lon="127.1002949"></trkpt>
   <trkpt lat="37.6130852" lon="127.1000908"></trkpt>
   <trkpt lat="37.6131022" lon="127.1000476"></trkpt>
   <trkpt lat="37.6131211" lon="127.1000328"></trkpt>
   <trkpt lat="37.6131445" lon="127.1000293"></trkpt>
   <trkpt lat="37.6131553" lon="127.1000292"></trkpt>
   <trkpt lat="37.6131553" lon="127.1000292"></trkpt>
   <trkpt lat="37.6131731" lon="127.0999623"></trkpt>
   <trkpt lat="37.6131847" lon="127.0999203"></trkpt>
   <trkpt lat="37.6131847" lon="127.0999203"></trkpt>
   <trkpt lat="37.6132299" lon="127.0999472"></trkpt>
   <trkpt lat="37.6132504" lon="127.0998995"></trkpt>
   <trkpt lat="37.6132738" lon="127.0998847"></trkpt>
   <trkpt lat="37.6133647" lon="127.0998513"></trkpt>
   <trkpt lat="37.6134538" lon="127.0997953"></trkpt>
   <trkpt lat="37.6135229" lon="127.0997224"></trkpt>
   <trkpt lat="37.6135848" lon="127.099619"></trkpt>
   <trkpt lat="37.6136734" lon="127.0994338"></trkpt>
   <trkpt lat="37.6137835" lon="127.0991998"></trkpt>
   <trkpt lat="37.6138758" lon="127.0990645"></trkpt>
   <trkpt lat="37.6139082" lon="127.0990292"></trkpt>
   <trkpt lat="37.6139082" lon="127.0990292"></trkpt>
   <trkpt lat="37.6138758" lon="127.0990645"></trkpt>
   <trkpt lat="37.6137835" lon="127.0991998"></trkpt>
   <trkpt lat="37.6136734" lon="127.0994338"></trkpt>
   <trkpt lat="37.6135848" lon="127.099619"></trkpt>
   <trkpt lat="37.6135229" lon="127.0997224"></trkpt>
   <trkpt lat="37.6134538" lon="127.0997953"></trkpt>
   <trkpt lat="37.6133647" lon="127.0998513"></trkpt>
   <trkpt lat="37.6132738" lon="127.0998847"></trkpt>
   <trkpt lat="37.6132504" lon="127.0998995"></trkpt>
   <trkpt lat="37.6132299" lon="127.0999472"></trkpt>
   <trkpt lat="37.6132299" lon="127.0999472"></trkpt>
   <trkpt lat="37.613973" lon="127.1003251"></trkpt>
   <trkpt lat="37.6139883" lon="127.1003239"></trkpt>
   <trkpt lat="37.6140027" lon="127.1003193"></trkpt>
   <trkpt lat="37.6140125" lon="127.1003045"></trkpt>
   <trkpt lat="37.6140242" lon="127.1002772"></trkpt>
   <trkpt lat="37.6140242" lon="127.1002772"></trkpt>
   <trkpt lat="37.6140684" lon="127.1002962"></trkpt>
   <trkpt lat="37.6141388" lon="127.1003276"></trkpt>
   <trkpt lat="37.6141388" lon="127.1003276"></trkpt>
   <trkpt lat="37.6141221" lon="127.1004444"></trkpt>
   <trkpt lat="37.6144319" lon="127.1006263"></trkpt>
   <trkpt lat="37.6145791" lon="127.100715"></trkpt>
   <trkpt lat="37.6146504" lon="127.1007554"></trkpt>
   <trkpt lat="37.61472" lon="127.1007947"></trkpt>
   <trkpt lat="37.6148409" lon="127.1008575"></trkpt>
   <trkpt lat="37.6150866" lon="127.1010103"></trkpt>
   <trkpt lat="37.6150984" lon="127.1010193"></trkpt>
   <trkpt lat="37.6151724" lon="127.1010563"></trkpt>
   <trkpt lat="37.6152139" lon="127.1010651"></trkpt>
   <trkpt lat="37.6152446" lon="127.101065"></trkpt>
   <trkpt lat="37.6153103" lon="127.1010499"></trkpt>
   <trkpt lat="37.6154391" lon="127.1010186"></trkpt>
   <trkpt lat="37.6157317" lon="127.1009366"></trkpt>
   <trkpt lat="37.6161415" lon="127.10082"></trkpt>
   <trkpt lat="37.6161901" lon="127.1008084"></trkpt>
   <trkpt lat="37.6161901" lon="127.1008084"></trkpt>
   <trkpt lat="37.6161415" lon="127.10082"></trkpt>
   <trkpt lat="37.6157317" lon="127.1009366"></trkpt>
   <trkpt lat="37.6154391" lon="127.1010186"></trkpt>
   <trkpt lat="37.6153103" lon="127.1010499"></trkpt>
   <trkpt lat="37.6152446" lon="127.101065"></trkpt>
   <trkpt lat="37.6152139" lon="127.1010651"></trkpt>
   <trkpt lat="37.6151724" lon="127.1010563"></trkpt>
   <trkpt lat="37.6150984" lon="127.1010193"></trkpt>
   <trkpt lat="37.6150866" lon="127.1010103"></trkpt>
   <trkpt lat="37.6150866" lon="127.1010103"></trkpt>
   <trkpt lat="37.6150455" lon="127.1011012"></trkpt>
   <trkpt lat="37.6150455" lon="127.1011012"></trkpt>
   <trkpt lat="37.6148955" lon="127.1010091"></trkpt>
   <trkpt lat="37.6147059" lon="127.1009126"></trkpt>
   <trkpt lat="37.6146861" lon="127.1009014"></trkpt>
   <trkpt lat="37.6146084" lon="127.1008554"></trkpt>
   <trkpt lat="37.6146084" lon="127.1008554"></trkpt>
   <trkpt lat="37.6144913" lon="127.101137"></trkpt>
   <trkpt lat="37.6144027" lon="127.1013244"></trkpt>
   <trkpt lat="37.6144027" lon="127.1013244"></trkpt>
   <trkpt lat="37.6140527" lon="127.1012538"></trkpt>
   <trkpt lat="37.6140527" lon="127.1012538"></trkpt>
   <trkpt lat="37.6140308" lon="127.1014476"></trkpt>
   <trkpt lat="37.6140214" lon="127.1016007"></trkpt>
   <trkpt lat="37.6139439" lon="127.1015965"></trkpt>
   <trkpt lat="37.6139169" lon="127.1015955"></trkpt>
   <trkpt lat="37.6137546" lon="127.1015794"></trkpt>
   <trkpt lat="37.6137257" lon="127.1015762"></trkpt>
   <trkpt lat="37.6137257" lon="127.1015762"></trkpt>
   <trkpt lat="37.6136833" lon="127.101573"></trkpt>
   <trkpt lat="37.6135391" lon="127.1015556"></trkpt>
   <trkpt lat="37.6133984" lon="127.1015326"></trkpt>
   <trkpt lat="37.6131703" lon="127.101518"></trkpt>
   <trkpt lat="37.613109" lon="127.1015194"></trkpt>
   <trkpt lat="37.6130595" lon="127.101531"></trkpt>
   <trkpt lat="37.6130595" lon="127.101531"></trkpt>
   <trkpt lat="37.6130308" lon="127.1015708"></trkpt>
   <trkpt lat="37.6130102" lon="127.1016095"></trkpt>
   <trkpt lat="37.6127123" lon="127.1025492"></trkpt>
   <trkpt lat="37.612607" lon="127.1028625"></trkpt>
   <trkpt lat="37.6124214" lon="127.1034232"></trkpt>
   <trkpt lat="37.6124" lon="127.1034902"></trkpt>
   <trkpt lat="37.6124" lon="127.1034902"></trkpt>
   <trkpt lat="37.6124622" lon="127.1034978"></trkpt>
   <trkpt lat="37.6124622" lon="127.1034978"></trkpt>
   <trkpt lat="37.6124" lon="127.1034902"></trkpt>
   <trkpt lat="37.6124" lon="127.1034902"></trkpt>
   <trkpt lat="37.6124214" lon="127.1034232"></trkpt>
   <trkpt lat="37.612607" lon="127.1028625"></trkpt>
   <trkpt lat="37.6127123" lon="127.1025492"></trkpt>
   <trkpt lat="37.6130102" lon="127.1016095"></trkpt>
   <trkpt lat="37.6130102" lon="127.1016095"></trkpt>
   <trkpt lat="37.6128236" lon="127.101607"></trkpt>
   <trkpt lat="37.6128297" lon="127.1015674"></trkpt>
   <trkpt lat="37.6128279" lon="127.1015515"></trkpt>
   <trkpt lat="37.6128197" lon="127.1015357"></trkpt>
   <trkpt lat="37.6128098" lon="127.1015244"></trkpt>
   <trkpt lat="37.6128481" lon="127.1011344"></trkpt>
   <trkpt lat="37.6128679" lon="127.1011321"></trkpt>
   <trkpt lat="37.6128841" lon="127.1011252"></trkpt>
   <trkpt lat="37.6128949" lon="127.1011138"></trkpt>
   <trkpt lat="37.6129057" lon="127.1011001"></trkpt>
   <trkpt lat="37.613031" lon="127.1010961"></trkpt>
   <trkpt lat="37.613031" lon="127.1010961"></trkpt>
   <trkpt lat="37.6130375" lon="127.1003731"></trkpt>
   <trkpt lat="37.6130508" lon="127.1002949"></trkpt>
  </trkseg>
 </trk>
</gpx>
