<?xml version="1.0" encoding="UTF-8"?>
<gpx creator="daengrun-naver-route" version="1.1" xmlns="http://www.topografix.com/GPX/1/1" xmlns:xsi="http://www.w3.org/2001/XMLSchema-instance" xsi:schemaLocation="http://www.topografix.com/GPX/1/1 http://www.topografix.com/GPX/1/1/gpx.xsd">
 <metadata>
  <name>중랑 소망공원·서울장미공원 루프 2.54km</name>
  <desc>daengrun candidate geometry — measured 2.54km via Naver pedestrian router (o=flat, 계단회피). Elevation NOT available from this source. stairs=0 crosswalk=8 steppingstone=0 underpass=0 overpass=0</desc>
  <link href="naver:11qdxot"><text>daengrun route id</text></link>
  <copyright author="NAVER Corp."><license>https://map.naver.com/</license></copyright>
 </metadata>
 <trk>
  <name>중랑 소망공원·서울장미공원 루프 2.54km</name>
  <trkseg>
   <trkpt lat="37.6124812" lon="127.0815835"></trkpt>
   <trkpt lat="37.6122304" lon="127.0815418"></trkpt>
   <trkpt lat="37.6122304" lon="127.0815418"></trkpt>
   <trkpt lat="37.6122336" lon="127.0814138"></trkpt>
   <trkpt lat="37.6121588" lon="127.0814074"></trkpt>
   <trkpt lat="37.6121553" lon="127.0811989"></trkpt>
   <trkpt lat="37.6121454" lon="127.0809542"></trkpt>
   <trkpt lat="37.6121424" lon="127.0808591"></trkpt>
   <trkpt lat="37.6121295" lon="127.080517"></trkpt>
   <trkpt lat="37.6121156" lon="127.080176"></trkpt>
   <trkpt lat="37.6121136" lon="127.0801228"></trkpt>
   <trkpt lat="37.6120975" lon="127.0798872"></trkpt>
   <trkpt lat="37.6120801" lon="127.0795689"></trkpt>
   <trkpt lat="37.612071" lon="127.079297"></trkpt>
   <trkpt lat="37.6120716" lon="127.0791973"></trkpt>
   <trkpt lat="37.6120671" lon="127.0789594"></trkpt>
   <trkpt lat="37.6120659" lon="127.078615"></trkpt>
   <trkpt lat="37.612129" lon="127.0786203"></trkpt>
   <trkpt lat="37.6121292" lon="127.0779223"></trkpt>
   <trkpt lat="37.6121815" lon="127.0779266"></trkpt>
   <trkpt lat="37.6121815" lon="127.0779266"></trkpt>
   <trkpt lat="37.612183" lon="127.0778303"></trkpt>
   <trkpt lat="37.6121854" lon="127.0777611"></trkpt>
   <trkpt lat="37.6121602" lon="127.0777533"></trkpt>
   <trkpt lat="37.6121349" lon="127.0777365"></trkpt>
   <trkpt lat="37.612123" lon="127.077698"></trkpt>
   <trkpt lat="37.6121256" lon="127.0776595"></trkpt>
   <trkpt lat="37.6121381" lon="127.0776266"></trkpt>
   <trkpt lat="37.6121597" lon="127.0776128"></trkpt>
   <trkpt lat="37.6122659" lon="127.0775839"></trkpt>
   <trkpt lat="37.6122255" lon="127.0773677"></trkpt>
   <trkpt lat="37.6122016" lon="127.0772466"></trkpt>
   <trkpt lat="37.6122016" lon="127.0772466"></trkpt>
   <trkpt lat="37.6121305" lon="127.0772686"></trkpt>
   <trkpt lat="37.612034" lon="127.0765088"></trkpt>
   <trkpt lat="37.6119624" lon="127.0758815"></trkpt>
   <trkpt lat="37.6119624" lon="127.0758815"></trkpt>
   <trkpt lat="37.6119419" lon="127.0756902"></trkpt>
   <trkpt lat="37.6119419" lon="127.0756902"></trkpt>
   <trkpt lat="37.6118734" lon="127.0757053"></trkpt>
   <trkpt lat="37.6118465" lon="127.0754958"></trkpt>
   <trkpt lat="37.611828" lon="127.0753487"></trkpt>
   <trkpt lat="37.611814" lon="127.0752332"></trkpt>
   <trkpt lat="37.6118094" lon="127.0751981"></trkpt>
   <trkpt lat="37.6117917" lon="127.0750543"></trkpt>
   <trkpt lat="37.6117797" lon="127.074958"></trkpt>
   <trkpt lat="37.6117797" lon="127.074958"></trkpt>
   <trkpt lat="37.6111527" lon="127.0750704"></trkpt>
   <trkpt lat="37.6111527" lon="127.0750704"></trkpt>
   <trkpt lat="37.6111416" lon="127.0749662"></trkpt>
   <trkpt lat="37.6111388" lon="127.0749594"></trkpt>
   <trkpt lat="37.6111316" lon="127.0749527"></trkpt>
   <trkpt lat="37.6111316" lon="127.0749527"></trkpt>
   <trkpt lat="37.6111388" lon="127.0749594"></trkpt>
   <trkpt lat="37.6111416" lon="127.0749662"></trkpt>
   <trkpt lat="37.6111527" lon="127.0750704"></trkpt>
   <trkpt lat="37.6111527" lon="127.0750704"></trkpt>
   <trkpt lat="37.6117797" lon="127.074958"></trkpt>
   <trkpt lat="37.6117797" lon="127.074958"></trkpt>
   <trkpt lat="37.6117917" lon="127.0750543"></trkpt>
   <trkpt lat="37.6118094" lon="127.0751981"></trkpt>
   <trkpt lat="37.611814" lon="127.0752332"></trkpt>
   <trkpt lat="37.611828" lon="127.0753487"></trkpt>
   <trkpt lat="37.6118465" lon="127.0754958"></trkpt>
   <trkpt lat="37.6118734" lon="127.0757053"></trkpt>
   <trkpt lat="37.6118734" lon="127.0757053"></trkpt>
   <trkpt lat="37.6119419" lon="127.0756902"></trkpt>
   <trkpt lat="37.612258" lon="127.0756306"></trkpt>
   <trkpt lat="37.6125057" lon="127.075585"></trkpt>
   <trkpt lat="37.6127471" lon="127.0755372"></trkpt>
   <trkpt lat="37.612911" lon="127.0755023"></trkpt>
   <trkpt lat="37.6129741" lon="127.0754894"></trkpt>
   <trkpt lat="37.6136622" lon="127.0753496"></trkpt>
   <trkpt lat="37.6137225" lon="127.0753379"></trkpt>
   <trkpt lat="37.6137937" lon="127.0753261"></trkpt>
   <trkpt lat="37.6142134" lon="127.0752274"></trkpt>
   <trkpt lat="37.6143485" lon="127.0752017"></trkpt>
   <trkpt lat="37.6145656" lon="127.0751846"></trkpt>
   <trkpt lat="37.6147099" lon="127.0751997"></trkpt>
   <trkpt lat="37.6148362" lon="127.0752386"></trkpt>
   <trkpt lat="37.6149284" lon="127.0752891"></trkpt>
   <trkpt lat="37.6150313" lon="127.0753463"></trkpt>
   <trkpt lat="37.6151289" lon="127.0754149"></trkpt>
   <trkpt lat="37.6151986" lon="127.0754915"></trkpt>
   <trkpt lat="37.6153435" lon="127.0756765"></trkpt>
   <trkpt lat="37.6154087" lon="127.075777"></trkpt>
   <trkpt lat="37.6155498" lon="127.076149"></trkpt>
   <trkpt lat="37.6155498" lon="127.076149"></trkpt>
   <trkpt lat="37.6155966" lon="127.0761351"></trkpt>
   <trkpt lat="37.6156731" lon="127.076112"></trkpt>
   <trkpt lat="37.6158821" lon="127.076061"></trkpt>
   <trkpt lat="37.6163924" lon="127.0758756"></trkpt>
   <trkpt lat="37.6164149" lon="127.0758551"></trkpt>
   <trkpt lat="37.6164184" lon="127.0758245"></trkpt>
   <trkpt lat="37.6164102" lon="127.0757928"></trkpt>
   <trkpt lat="37.6164102" lon="127.0757928"></trkpt>
   <trkpt lat="37.6165037" lon="127.0757447"></trkpt>
   <trkpt lat="37.6165721" lon="127.0757115"></trkpt>
   <trkpt lat="37.6165721" lon="127.0757115"></trkpt>
   <trkpt lat="37.6165822" lon="127.0757488"></trkpt>
   <trkpt lat="37.6165994" lon="127.0757782"></trkpt>
   <trkpt lat="37.6166247" lon="127.0757859"></trkpt>
   <trkpt lat="37.6166382" lon="127.0757836"></trkpt>
   <trkpt lat="37.61673" lon="127.0757514"></trkpt>
   <trkpt lat="37.61673" lon="127.0757514"></trkpt>
   <trkpt lat="37.6166588" lon="127.0755149"></trkpt>
   <trkpt lat="37.6166588" lon="127.0755149"></trkpt>
   <trkpt lat="37.6166886" lon="127.0755159"></trkpt>
   <trkpt lat="37.6167274" lon="127.0755349"></trkpt>
   <trkpt lat="37.6167654" lon="127.075571"></trkpt>
   <trkpt lat="37.6167654" lon="127.075571"></trkpt>
   <trkpt lat="37.6167274" lon="127.0755349"></trkpt>
   <trkpt lat="37.6166886" lon="127.0755159"></trkpt>
   <trkpt lat="37.6166588" lon="127.0755149"></trkpt>
   <trkpt lat="37.6166588" lon="127.0755149"></trkpt>
   <trkpt lat="37.61673" lon="127.0757514"></trkpt>
   <trkpt lat="37.61673" lon="127.0757514"></trkpt>
   <trkpt lat="37.6166382" lon="127.0757836"></trkpt>
   <trkpt lat="37.6166247" lon="127.0757859"></trkpt>
   <trkpt lat="37.6165994" lon="127.0757782"></trkpt>
   <trkpt lat="37.6165822" lon="127.0757488"></trkpt>
   <trkpt lat="37.6165721" lon="127.0757115"></trkpt>
   <trkpt lat="37.6165721" lon="127.0757115"></trkpt>
   <trkpt lat="37.6165037" lon="127.0757447"></trkpt>
   <trkpt lat="37.6164102" lon="127.0757928"></trkpt>
   <trkpt lat="37.6164102" lon="127.0757928"></trkpt>
   <trkpt lat="37.6164184" lon="127.0758245"></trkpt>
   <trkpt lat="37.6164149" lon="127.0758551"></trkpt>
   <trkpt lat="37.6163924" lon="127.0758756"></trkpt>
   <trkpt lat="37.6158821" lon="127.076061"></trkpt>
   <trkpt lat="37.6156731" lon="127.076112"></trkpt>
   <trkpt lat="37.6155966" lon="127.0761351"></trkpt>
   <trkpt lat="37.6155498" lon="127.076149"></trkpt>
   <trkpt lat="37.6155498" lon="127.076149"></trkpt>
   <trkpt lat="37.615475" lon="127.0761709"></trkpt>
   <trkpt lat="37.6153904" lon="127.0761952"></trkpt>
   <trkpt lat="37.6153904" lon="127.0761952"></trkpt>
   <trkpt lat="37.615367" lon="127.0762033"></trkpt>
   <trkpt lat="37.615331" lon="127.0762137"></trkpt>
   <trkpt lat="37.6143146" lon="127.076565"></trkpt>
   <trkpt lat="37.6142003" lon="127.0766053"></trkpt>
   <trkpt lat="37.6139626" lon="127.076686"></trkpt>
   <trkpt lat="37.6138834" lon="127.0767102"></trkpt>
   <trkpt lat="37.6134648" lon="127.0768486"></trkpt>
   <trkpt lat="37.6130974" lon="127.0769651"></trkpt>
   <trkpt lat="37.6123448" lon="127.0772062"></trkpt>
   <trkpt lat="37.6122016" lon="127.0772466"></trkpt>
   <trkpt lat="37.6122016" lon="127.0772466"></trkpt>
   <trkpt lat="37.6122255" lon="127.0773677"></trkpt>
   <trkpt lat="37.6122659" lon="127.0775839"></trkpt>
   <trkpt lat="37.6122659" lon="127.0775839"></trkpt>
   <trkpt lat="37.6121597" lon="127.0776128"></trkpt>
   <trkpt lat="37.6121381" lon="127.0776266"></trkpt>
   <trkpt lat="37.6121256" lon="127.0776595"></trkpt>
   <trkpt lat="37.612123" lon="127.077698"></trkpt>
   <trkpt lat="37.6121349" lon="127.0777365"></trkpt>
   <trkpt lat="37.6121602" lon="127.0777533"></trkpt>
   <trkpt lat="37.6121854" lon="127.0777611"></trkpt>
   <trkpt lat="37.6121854" lon="127.0777611"></trkpt>
   <trkpt lat="37.612183" lon="127.0778303"></trkpt>
   <trkpt lat="37.6121815" lon="127.0779266"></trkpt>
   <trkpt lat="37.6121815" lon="127.0779266"></trkpt>
   <trkpt lat="37.6121292" lon="127.0779223"></trkpt>
   <trkpt lat="37.612129" lon="127.0786203"></trkpt>
   <trkpt lat="37.6120659" lon="127.078615"></trkpt>
   <trkpt lat="37.6120671" lon="127.0789594"></trkpt>
   <trkpt lat="37.6120716" lon="127.0791973"></trkpt>
   <trkpt lat="37.612071" lon="127.079297"></trkpt>
   <trkpt lat="37.6120801" lon="127.0795689"></trkpt>
   <trkpt lat="37.6120975" lon="127.0798872"></trkpt>
   <trkpt lat="37.6121136" lon="127.0801228"></trkpt>
   <trkpt lat="37.6121156" lon="127.080176"></trkpt>
   <trkpt lat="37.6121295" lon="127.080517"></trkpt>
   <trkpt lat="37.6121424" lon="127.0808591"></trkpt>
   <trkpt lat="37.6121454" lon="127.0809542"></trkpt>
   <trkpt lat="37.6121553" lon="127.0811989"></trkpt>
   <trkpt lat="37.6121588" lon="127.0814074"></trkpt>
   <trkpt lat="37.6122336" lon="127.0814138"></trkpt>
   <trkpt lat="37.6122304" lon="127.0815418"></trkpt>
   <trkpt lat="37.6122304" lon="127.0815418"></trkpt>
   <trkpt lat="37.6124812" lon="127.0815835"></trkpt>
  </trkseg>
 </trk>
</gpx>
