<?xml version="1.0" encoding="UTF-8"?>
<gpx version="1.1" creator="daengrun gen-route-gpx.mjs" xmlns="http://www.topografix.com/GPX/1/1" xmlns:xsi="http://www.w3.org/2001/XMLSchema-instance" xsi:schemaLocation="http://www.topografix.com/GPX/1/1 http://www.topografix.com/GPX/1/1/gpx.xsd">
  <metadata>
    <name>반포한강 그랜드 루프</name>
    <desc>Seed course geometry (source=algo) for daengrun route d6cc545f-2f58-47c2-923a-e42ef5e9e043. Not a measured GPS trace: the course is synthesised, but every point lies on a mapped OpenStreetMap footpath. Shape: loop. Target 5 km, measured 4.960 km.</desc>
    <copyright author="OpenStreetMap contributors"><license>https://opendatacommons.org/licenses/odbl/1-0/</license></copyright>
    <keywords>daengrun,seed,algo,candidate,osm</keywords>
  </metadata>
  <trk>
    <name>반포한강 그랜드 루프</name>
    <trkseg>
      <trkpt lat="37.511774" lon="126.995294"/>
      <trkpt lat="37.511997" lon="126.995276"/>
      <trkpt lat="37.512075" lon="126.995012"/>
      <trkpt lat="37.512264" lon="126.994895"/>
      <trkpt lat="37.512447" lon="126.994941"/>
      <trkpt lat="37.512575" lon="126.995140"/>
      <trkpt lat="37.512545" lon="126.995438"/>
      <trkpt lat="37.512468" lon="126.995632"/>
      <trkpt lat="37.512240" lon="126.995651"/>
      <trkpt lat="37.512238" lon="126.995942"/>
      <trkpt lat="37.512356" lon="126.996192"/>
      <trkpt lat="37.512297" lon="126.996482"/>
      <trkpt lat="37.512242" lon="126.996774"/>
      <trkpt lat="37.512192" lon="126.997067"/>
      <trkpt lat="37.512078" lon="126.997180"/>
      <trkpt lat="37.511847" lon="126.997123"/>
      <trkpt lat="37.511610" lon="126.997099"/>
      <trkpt lat="37.511413" lon="126.996940"/>
      <trkpt lat="37.511348" lon="126.996683"/>
      <trkpt lat="37.511220" lon="126.996446"/>
      <trkpt lat="37.511010" lon="126.996305"/>
      <trkpt lat="37.510847" lon="126.996095"/>
      <trkpt lat="37.510798" lon="126.995805"/>
      <trkpt lat="37.510680" lon="126.995558"/>
      <trkpt lat="37.510529" lon="126.995354"/>
      <trkpt lat="37.510304" lon="126.995258"/>
      <trkpt lat="37.510125" lon="126.995071"/>
      <trkpt lat="37.510081" lon="126.994778"/>
      <trkpt lat="37.509999" lon="126.994502"/>
      <trkpt lat="37.509857" lon="126.994262"/>
      <trkpt lat="37.509687" lon="126.994053"/>
      <trkpt lat="37.509515" lon="126.993845"/>
      <trkpt lat="37.509333" lon="126.993654"/>
      <trkpt lat="37.509145" lon="126.993470"/>
      <trkpt lat="37.508960" lon="126.993282"/>
      <trkpt lat="37.508821" lon="126.993046"/>
      <trkpt lat="37.508683" lon="126.992806"/>
      <trkpt lat="37.508507" lon="126.992604"/>
      <trkpt lat="37.508312" lon="126.992434"/>
      <trkpt lat="37.508106" lon="126.992283"/>
      <trkpt lat="37.507894" lon="126.992149"/>
      <trkpt lat="37.507708" lon="126.992221"/>
      <trkpt lat="37.507518" lon="126.992400"/>
      <trkpt lat="37.507314" lon="126.992555"/>
      <trkpt lat="37.507111" lon="126.992709"/>
      <trkpt lat="37.506964" lon="126.992584"/>
      <trkpt lat="37.506982" lon="126.992806"/>
      <trkpt lat="37.506773" lon="126.992948"/>
      <trkpt lat="37.506554" lon="126.993026"/>
      <trkpt lat="37.506343" lon="126.993164"/>
      <trkpt lat="37.506134" lon="126.993307"/>
      <trkpt lat="37.505925" lon="126.993450"/>
      <trkpt lat="37.505718" lon="126.993596"/>
      <trkpt lat="37.505511" lon="126.993743"/>
      <trkpt lat="37.505695" lon="126.993665"/>
      <trkpt lat="37.505903" lon="126.993520"/>
      <trkpt lat="37.506048" lon="126.993650"/>
      <trkpt lat="37.506045" lon="126.993882"/>
      <trkpt lat="37.506160" lon="126.994145"/>
      <trkpt lat="37.506141" lon="126.994101"/>
      <trkpt lat="37.506026" lon="126.993838"/>
      <trkpt lat="37.506028" lon="126.993606"/>
      <trkpt lat="37.505868" lon="126.993544"/>
      <trkpt lat="37.505660" lon="126.993689"/>
      <trkpt lat="37.505438" lon="126.993790"/>
      <trkpt lat="37.505225" lon="126.993924"/>
      <trkpt lat="37.505013" lon="126.994058"/>
      <trkpt lat="37.504823" lon="126.994232"/>
      <trkpt lat="37.504614" lon="126.994376"/>
      <trkpt lat="37.504406" lon="126.994520"/>
      <trkpt lat="37.504330" lon="126.994710"/>
      <trkpt lat="37.504137" lon="126.994711"/>
      <trkpt lat="37.503924" lon="126.994843"/>
      <trkpt lat="37.503710" lon="126.994975"/>
      <trkpt lat="37.503499" lon="126.995111"/>
      <trkpt lat="37.503416" lon="126.995316"/>
      <trkpt lat="37.503496" lon="126.995598"/>
      <trkpt lat="37.503577" lon="126.995880"/>
      <trkpt lat="37.503657" lon="126.996162"/>
      <trkpt lat="37.503735" lon="126.996445"/>
      <trkpt lat="37.503813" lon="126.996728"/>
      <trkpt lat="37.503892" lon="126.997011"/>
      <trkpt lat="37.503970" lon="126.997294"/>
      <trkpt lat="37.504048" lon="126.997577"/>
      <trkpt lat="37.504138" lon="126.997854"/>
      <trkpt lat="37.504252" lon="126.998116"/>
      <trkpt lat="37.504346" lon="126.998391"/>
      <trkpt lat="37.504431" lon="126.998671"/>
      <trkpt lat="37.504515" lon="126.998951"/>
      <trkpt lat="37.504599" lon="126.999231"/>
      <trkpt lat="37.504683" lon="126.999512"/>
      <trkpt lat="37.504767" lon="126.999792"/>
      <trkpt lat="37.504848" lon="127.000074"/>
      <trkpt lat="37.504929" lon="127.000355"/>
      <trkpt lat="37.505021" lon="127.000626"/>
      <trkpt lat="37.505101" lon="127.000656"/>
      <trkpt lat="37.505222" lon="127.000399"/>
      <trkpt lat="37.505341" lon="127.000140"/>
      <trkpt lat="37.505315" lon="126.999915"/>
      <trkpt lat="37.505269" lon="126.999622"/>
      <trkpt lat="37.505221" lon="126.999328"/>
      <trkpt lat="37.505147" lon="126.999043"/>
      <trkpt lat="37.505074" lon="126.998758"/>
      <trkpt lat="37.504998" lon="126.998474"/>
      <trkpt lat="37.504917" lon="126.998193"/>
      <trkpt lat="37.504836" lon="126.997911"/>
      <trkpt lat="37.504695" lon="126.997830"/>
      <trkpt lat="37.504486" lon="126.997974"/>
      <trkpt lat="37.504304" lon="126.998151"/>
      <trkpt lat="37.504187" lon="126.997971"/>
      <trkpt lat="37.504016" lon="126.997901"/>
      <trkpt lat="37.503836" lon="126.997884"/>
      <trkpt lat="37.503749" lon="126.997606"/>
      <trkpt lat="37.503667" lon="126.997325"/>
      <trkpt lat="37.503585" lon="126.997044"/>
      <trkpt lat="37.503503" lon="126.996762"/>
      <trkpt lat="37.503421" lon="126.996481"/>
      <trkpt lat="37.503339" lon="126.996200"/>
      <trkpt lat="37.503258" lon="126.995918"/>
      <trkpt lat="37.503178" lon="126.995636"/>
      <trkpt lat="37.503058" lon="126.995393"/>
      <trkpt lat="37.502979" lon="126.995114"/>
      <trkpt lat="37.503198" lon="126.995005"/>
      <trkpt lat="37.503415" lon="126.994948"/>
      <trkpt lat="37.503631" lon="126.994846"/>
      <trkpt lat="37.503844" lon="126.994714"/>
      <trkpt lat="37.504057" lon="126.994582"/>
      <trkpt lat="37.504271" lon="126.994451"/>
      <trkpt lat="37.504481" lon="126.994310"/>
      <trkpt lat="37.504691" lon="126.994170"/>
      <trkpt lat="37.504883" lon="126.993997"/>
      <trkpt lat="37.505079" lon="126.993832"/>
      <trkpt lat="37.505287" lon="126.993687"/>
      <trkpt lat="37.505498" lon="126.993549"/>
      <trkpt lat="37.505714" lon="126.993425"/>
      <trkpt lat="37.505926" lon="126.993288"/>
      <trkpt lat="37.506131" lon="126.993137"/>
      <trkpt lat="37.506337" lon="126.992988"/>
      <trkpt lat="37.506545" lon="126.992843"/>
      <trkpt lat="37.506743" lon="126.992683"/>
      <trkpt lat="37.506873" lon="126.992880"/>
      <trkpt lat="37.507066" lon="126.992811"/>
      <trkpt lat="37.507183" lon="126.993072"/>
      <trkpt lat="37.507220" lon="126.993045"/>
      <trkpt lat="37.507108" lon="126.992781"/>
      <trkpt lat="37.507249" lon="126.992604"/>
      <trkpt lat="37.507452" lon="126.992450"/>
      <trkpt lat="37.507651" lon="126.992286"/>
      <trkpt lat="37.507834" lon="126.992168"/>
      <trkpt lat="37.508045" lon="126.992308"/>
      <trkpt lat="37.508251" lon="126.992456"/>
      <trkpt lat="37.508445" lon="126.992627"/>
      <trkpt lat="37.508623" lon="126.992825"/>
      <trkpt lat="37.508773" lon="126.993056"/>
      <trkpt lat="37.508852" lon="126.993336"/>
      <trkpt lat="37.508837" lon="126.993633"/>
      <trkpt lat="37.508804" lon="126.993929"/>
      <trkpt lat="37.508816" lon="126.994227"/>
      <trkpt lat="37.508885" lon="126.994513"/>
      <trkpt lat="37.509008" lon="126.994768"/>
      <trkpt lat="37.509179" lon="126.994974"/>
      <trkpt lat="37.509391" lon="126.995106"/>
      <trkpt lat="37.509622" lon="126.995179"/>
      <trkpt lat="37.509845" lon="126.995281"/>
      <trkpt lat="37.510048" lon="126.995437"/>
      <trkpt lat="37.510219" lon="126.995644"/>
      <trkpt lat="37.510351" lon="126.995892"/>
      <trkpt lat="37.510441" lon="126.996169"/>
      <trkpt lat="37.510474" lon="126.996464"/>
      <trkpt lat="37.510447" lon="126.996762"/>
      <trkpt lat="37.510407" lon="126.997057"/>
      <trkpt lat="37.510421" lon="126.997356"/>
      <trkpt lat="37.510489" lon="126.997640"/>
      <trkpt lat="37.510620" lon="126.997889"/>
      <trkpt lat="37.510711" lon="126.997728"/>
      <trkpt lat="37.510709" lon="126.997428"/>
      <trkpt lat="37.510805" lon="126.997187"/>
      <trkpt lat="37.511011" lon="126.997056"/>
      <trkpt lat="37.511244" lon="126.997000"/>
      <trkpt lat="37.511402" lon="126.996928"/>
      <trkpt lat="37.511597" lon="126.997092"/>
      <trkpt lat="37.511832" lon="126.997123"/>
      <trkpt lat="37.512064" lon="126.997173"/>
      <trkpt lat="37.512189" lon="126.997085"/>
      <trkpt lat="37.512239" lon="126.996792"/>
      <trkpt lat="37.512293" lon="126.996501"/>
      <trkpt lat="37.512352" lon="126.996210"/>
      <trkpt lat="37.512540" lon="126.996313"/>
      <trkpt lat="37.512721" lon="126.996198"/>
      <trkpt lat="37.512687" lon="126.995904"/>
      <trkpt lat="37.512533" lon="126.995677"/>
      <trkpt lat="37.512549" lon="126.995394"/>
      <trkpt lat="37.512580" lon="126.995097"/>
      <trkpt lat="37.512650" lon="126.994826"/>
      <trkpt lat="37.512528" lon="126.994601"/>
      <trkpt lat="37.512402" lon="126.994740"/>
      <trkpt lat="37.512264" lon="126.994895"/>
      <trkpt lat="37.512075" lon="126.995012"/>
      <trkpt lat="37.511997" lon="126.995276"/>
      <trkpt lat="37.511774" lon="126.995294"/>
    </trkseg>
  </trk>
</gpx>
