<?xml version="1.0" encoding="UTF-8"?>
<gpx version="1.1" creator="daengrun gen-route-gpx.mjs" xmlns="http://www.topografix.com/GPX/1/1" xmlns:xsi="http://www.w3.org/2001/XMLSchema-instance" xsi:schemaLocation="http://www.topografix.com/GPX/1/1 http://www.topografix.com/GPX/1/1/gpx.xsd">
  <metadata>
    <name>동작 노을 3km</name>
    <desc>Seed course geometry (source=algo) for daengrun route 2fafc3f0-a6b6-488f-b662-e49394c9078e. Not a measured GPS trace: the course is synthesised, but every point lies on a mapped OpenStreetMap footpath. Shape: out-and-back. Target 3 km, measured 3.017 km.</desc>
    <copyright author="OpenStreetMap contributors"><license>https://opendatacommons.org/licenses/odbl/1-0/</license></copyright>
    <keywords>daengrun,seed,algo,candidate,osm</keywords>
  </metadata>
  <trk>
    <name>동작 노을 3km</name>
    <trkseg>
      <trkpt lat="37.505406" lon="126.988545"/>
      <trkpt lat="37.505600" lon="126.988500"/>
      <trkpt lat="37.505795" lon="126.988454"/>
      <trkpt lat="37.505989" lon="126.988408"/>
      <trkpt lat="37.506184" lon="126.988362"/>
      <trkpt lat="37.506346" lon="126.988379"/>
      <trkpt lat="37.506390" lon="126.988622"/>
      <trkpt lat="37.506428" lon="126.988866"/>
      <trkpt lat="37.506467" lon="126.989111"/>
      <trkpt lat="37.506582" lon="126.989302"/>
      <trkpt lat="37.506623" lon="126.989533"/>
      <trkpt lat="37.506675" lon="126.989773"/>
      <trkpt lat="37.506757" lon="126.990000"/>
      <trkpt lat="37.506841" lon="126.990225"/>
      <trkpt lat="37.506926" lon="126.990450"/>
      <trkpt lat="37.507011" lon="126.990676"/>
      <trkpt lat="37.507096" lon="126.990901"/>
      <trkpt lat="37.507182" lon="126.991126"/>
      <trkpt lat="37.507268" lon="126.991350"/>
      <trkpt lat="37.507358" lon="126.991572"/>
      <trkpt lat="37.507466" lon="126.991781"/>
      <trkpt lat="37.507604" lon="126.991958"/>
      <trkpt lat="37.507759" lon="126.992112"/>
      <trkpt lat="37.507932" lon="126.992233"/>
      <trkpt lat="37.508107" lon="126.992349"/>
      <trkpt lat="37.508277" lon="126.992476"/>
      <trkpt lat="37.508438" lon="126.992619"/>
      <trkpt lat="37.508587" lon="126.992784"/>
      <trkpt lat="37.508724" lon="126.992963"/>
      <trkpt lat="37.508820" lon="126.993180"/>
      <trkpt lat="37.508857" lon="126.993423"/>
      <trkpt lat="37.508830" lon="126.993669"/>
      <trkpt lat="37.508805" lon="126.993916"/>
      <trkpt lat="37.508806" lon="126.994165"/>
      <trkpt lat="37.508851" lon="126.994407"/>
      <trkpt lat="37.508935" lon="126.994633"/>
      <trkpt lat="37.509051" lon="126.994834"/>
      <trkpt lat="37.509202" lon="126.994993"/>
      <trkpt lat="37.509380" lon="126.995101"/>
      <trkpt lat="37.509571" lon="126.995165"/>
      <trkpt lat="37.509760" lon="126.995239"/>
      <trkpt lat="37.509937" lon="126.995349"/>
      <trkpt lat="37.510099" lon="126.995490"/>
      <trkpt lat="37.510236" lon="126.995669"/>
      <trkpt lat="37.510345" lon="126.995878"/>
      <trkpt lat="37.510425" lon="126.996105"/>
      <trkpt lat="37.510467" lon="126.996348"/>
      <trkpt lat="37.510466" lon="126.996596"/>
      <trkpt lat="37.510438" lon="126.996843"/>
      <trkpt lat="37.510408" lon="126.997089"/>
      <trkpt lat="37.510419" lon="126.997338"/>
      <trkpt lat="37.510465" lon="126.997578"/>
      <trkpt lat="37.510566" lon="126.997793"/>
      <trkpt lat="37.510693" lon="126.997982"/>
      <trkpt lat="37.510834" lon="126.998157"/>
      <trkpt lat="37.510928" lon="126.998358"/>
      <trkpt lat="37.510990" lon="126.998595"/>
      <trkpt lat="37.511066" lon="126.998825"/>
      <trkpt lat="37.511163" lon="126.999042"/>
      <trkpt lat="37.511283" lon="126.999240"/>
      <trkpt lat="37.511416" lon="126.999425"/>
      <trkpt lat="37.511547" lon="126.999611"/>
      <trkpt lat="37.511660" lon="126.999814"/>
      <trkpt lat="37.511760" lon="127.000029"/>
      <trkpt lat="37.511863" lon="127.000242"/>
      <trkpt lat="37.511948" lon="127.000467"/>
      <trkpt lat="37.512011" lon="127.000703"/>
      <trkpt lat="37.512060" lon="127.000945"/>
      <trkpt lat="37.512116" lon="127.001184"/>
      <trkpt lat="37.512199" lon="127.001410"/>
      <trkpt lat="37.512199" lon="127.001410"/>
      <trkpt lat="37.512116" lon="127.001184"/>
      <trkpt lat="37.512060" lon="127.000945"/>
      <trkpt lat="37.512011" lon="127.000703"/>
      <trkpt lat="37.511948" lon="127.000467"/>
      <trkpt lat="37.511863" lon="127.000242"/>
      <trkpt lat="37.511760" lon="127.000029"/>
      <trkpt lat="37.511660" lon="126.999814"/>
      <trkpt lat="37.511547" lon="126.999611"/>
      <trkpt lat="37.511416" lon="126.999425"/>
      <trkpt lat="37.511283" lon="126.999240"/>
      <trkpt lat="37.511163" lon="126.999042"/>
      <trkpt lat="37.511066" lon="126.998825"/>
      <trkpt lat="37.510990" lon="126.998595"/>
      <trkpt lat="37.510928" lon="126.998358"/>
      <trkpt lat="37.510834" lon="126.998157"/>
      <trkpt lat="37.510693" lon="126.997982"/>
      <trkpt lat="37.510566" lon="126.997793"/>
      <trkpt lat="37.510465" lon="126.997578"/>
      <trkpt lat="37.510419" lon="126.997338"/>
      <trkpt lat="37.510408" lon="126.997089"/>
      <trkpt lat="37.510438" lon="126.996843"/>
      <trkpt lat="37.510466" lon="126.996596"/>
      <trkpt lat="37.510467" lon="126.996348"/>
      <trkpt lat="37.510425" lon="126.996105"/>
      <trkpt lat="37.510345" lon="126.995878"/>
      <trkpt lat="37.510236" lon="126.995669"/>
      <trkpt lat="37.510099" lon="126.995490"/>
      <trkpt lat="37.509937" lon="126.995349"/>
      <trkpt lat="37.509760" lon="126.995239"/>
      <trkpt lat="37.509571" lon="126.995165"/>
      <trkpt lat="37.509380" lon="126.995101"/>
      <trkpt lat="37.509202" lon="126.994993"/>
      <trkpt lat="37.509051" lon="126.994834"/>
      <trkpt lat="37.508935" lon="126.994633"/>
      <trkpt lat="37.508851" lon="126.994407"/>
      <trkpt lat="37.508806" lon="126.994165"/>
      <trkpt lat="37.508805" lon="126.993916"/>
      <trkpt lat="37.508830" lon="126.993669"/>
      <trkpt lat="37.508857" lon="126.993423"/>
      <trkpt lat="37.508820" lon="126.993180"/>
      <trkpt lat="37.508724" lon="126.992963"/>
      <trkpt lat="37.508587" lon="126.992784"/>
      <trkpt lat="37.508438" lon="126.992619"/>
      <trkpt lat="37.508277" lon="126.992476"/>
      <trkpt lat="37.508107" lon="126.992349"/>
      <trkpt lat="37.507932" lon="126.992233"/>
      <trkpt lat="37.507759" lon="126.992112"/>
      <trkpt lat="37.507604" lon="126.991958"/>
      <trkpt lat="37.507466" lon="126.991781"/>
      <trkpt lat="37.507358" lon="126.991572"/>
      <trkpt lat="37.507268" lon="126.991350"/>
      <trkpt lat="37.507182" lon="126.991126"/>
      <trkpt lat="37.507096" lon="126.990901"/>
      <trkpt lat="37.507011" lon="126.990676"/>
      <trkpt lat="37.506926" lon="126.990450"/>
      <trkpt lat="37.506841" lon="126.990225"/>
      <trkpt lat="37.506757" lon="126.990000"/>
      <trkpt lat="37.506675" lon="126.989773"/>
      <trkpt lat="37.506623" lon="126.989533"/>
      <trkpt lat="37.506582" lon="126.989302"/>
      <trkpt lat="37.506467" lon="126.989111"/>
      <trkpt lat="37.506428" lon="126.988866"/>
      <trkpt lat="37.506390" lon="126.988622"/>
      <trkpt lat="37.506346" lon="126.988379"/>
      <trkpt lat="37.506184" lon="126.988362"/>
      <trkpt lat="37.505989" lon="126.988408"/>
      <trkpt lat="37.505795" lon="126.988454"/>
      <trkpt lat="37.505600" lon="126.988500"/>
      <trkpt lat="37.505406" lon="126.988545"/>
    </trkseg>
  </trk>
</gpx>
