<?xml version="1.0" encoding="UTF-8"?>
<gpx version="1.1" creator="daengrun gen-route-gpx.mjs" xmlns="http://www.topografix.com/GPX/1/1" xmlns:xsi="http://www.w3.org/2001/XMLSchema-instance" xsi:schemaLocation="http://www.topografix.com/GPX/1/1 http://www.topografix.com/GPX/1/1/gpx.xsd">
  <metadata>
    <name>한강 반포–잠원 7km</name>
    <desc>Seed course geometry (source=algo) for daengrun route 1d035857-af49-4f0e-a076-79339243e6b4. Not a measured GPS trace: the course is synthesised, but every point lies on a mapped OpenStreetMap footpath. Shape: out-and-back. Target 7 km, measured 7.065 km.</desc>
    <copyright author="OpenStreetMap contributors"><license>https://opendatacommons.org/licenses/odbl/1-0/</license></copyright>
    <keywords>daengrun,seed,algo,candidate,osm</keywords>
  </metadata>
  <trk>
    <name>한강 반포–잠원 7km</name>
    <trkseg>
      <trkpt lat="37.511774" lon="126.995294"/>
      <trkpt lat="37.511473" lon="126.995307"/>
      <trkpt lat="37.511181" lon="126.995498"/>
      <trkpt lat="37.510885" lon="126.995626"/>
      <trkpt lat="37.510797" lon="126.995785"/>
      <trkpt lat="37.510887" lon="126.996175"/>
      <trkpt lat="37.511156" lon="126.996409"/>
      <trkpt lat="37.511352" lon="126.996708"/>
      <trkpt lat="37.511191" lon="126.997013"/>
      <trkpt lat="37.510877" lon="126.997114"/>
      <trkpt lat="37.510709" lon="126.997428"/>
      <trkpt lat="37.510711" lon="126.997842"/>
      <trkpt lat="37.510813" lon="126.998132"/>
      <trkpt lat="37.510960" lon="126.998480"/>
      <trkpt lat="37.511081" lon="126.998866"/>
      <trkpt lat="37.511264" lon="126.999209"/>
      <trkpt lat="37.511484" lon="126.999518"/>
      <trkpt lat="37.511696" lon="126.999834"/>
      <trkpt lat="37.511869" lon="127.000187"/>
      <trkpt lat="37.512009" lon="127.000562"/>
      <trkpt lat="37.512092" lon="127.000963"/>
      <trkpt lat="37.512209" lon="127.001349"/>
      <trkpt lat="37.512471" lon="127.001314"/>
      <trkpt lat="37.512755" lon="127.001105"/>
      <trkpt lat="37.513008" lon="127.001011"/>
      <trkpt lat="37.513162" lon="127.001376"/>
      <trkpt lat="37.513373" lon="127.001693"/>
      <trkpt lat="37.513620" lon="127.001968"/>
      <trkpt lat="37.513824" lon="127.002290"/>
      <trkpt lat="37.513988" lon="127.002651"/>
      <trkpt lat="37.514118" lon="127.003031"/>
      <trkpt lat="37.514271" lon="127.003399"/>
      <trkpt lat="37.514462" lon="127.003734"/>
      <trkpt lat="37.514684" lon="127.004041"/>
      <trkpt lat="37.514932" lon="127.004313"/>
      <trkpt lat="37.515204" lon="127.004546"/>
      <trkpt lat="37.515498" lon="127.004729"/>
      <trkpt lat="37.515809" lon="127.004864"/>
      <trkpt lat="37.516129" lon="127.004956"/>
      <trkpt lat="37.516456" lon="127.005001"/>
      <trkpt lat="37.516785" lon="127.004998"/>
      <trkpt lat="37.517098" lon="127.005106"/>
      <trkpt lat="37.517314" lon="127.005412"/>
      <trkpt lat="37.517421" lon="127.005800"/>
      <trkpt lat="37.517446" lon="127.006213"/>
      <trkpt lat="37.517565" lon="127.006598"/>
      <trkpt lat="37.517780" lon="127.006908"/>
      <trkpt lat="37.518017" lon="127.007196"/>
      <trkpt lat="37.518251" lon="127.007488"/>
      <trkpt lat="37.518468" lon="127.007791"/>
      <trkpt lat="37.518610" lon="127.008166"/>
      <trkpt lat="37.518772" lon="127.008453"/>
      <trkpt lat="37.519060" lon="127.008608"/>
      <trkpt lat="37.519360" lon="127.008727"/>
      <trkpt lat="37.519604" lon="127.009006"/>
      <trkpt lat="37.519848" lon="127.009284"/>
      <trkpt lat="37.520092" lon="127.009563"/>
      <trkpt lat="37.520336" lon="127.009841"/>
      <trkpt lat="37.520581" lon="127.010118"/>
      <trkpt lat="37.520828" lon="127.010392"/>
      <trkpt lat="37.521071" lon="127.010671"/>
      <trkpt lat="37.521314" lon="127.010951"/>
      <trkpt lat="37.521557" lon="127.011231"/>
      <trkpt lat="37.521800" lon="127.011511"/>
      <trkpt lat="37.522043" lon="127.011792"/>
      <trkpt lat="37.522287" lon="127.012070"/>
      <trkpt lat="37.522532" lon="127.012346"/>
      <trkpt lat="37.522777" lon="127.012623"/>
      <trkpt lat="37.523022" lon="127.012900"/>
      <trkpt lat="37.523268" lon="127.013177"/>
      <trkpt lat="37.523507" lon="127.013461"/>
      <trkpt lat="37.523752" lon="127.013739"/>
      <trkpt lat="37.523996" lon="127.014016"/>
      <trkpt lat="37.524241" lon="127.014294"/>
      <trkpt lat="37.524484" lon="127.014573"/>
      <trkpt lat="37.524724" lon="127.014857"/>
      <trkpt lat="37.524961" lon="127.015145"/>
      <trkpt lat="37.525199" lon="127.015431"/>
      <trkpt lat="37.525439" lon="127.015716"/>
      <trkpt lat="37.525677" lon="127.016003"/>
      <trkpt lat="37.525914" lon="127.016290"/>
      <trkpt lat="37.526151" lon="127.016577"/>
      <trkpt lat="37.526387" lon="127.016867"/>
      <trkpt lat="37.526623" lon="127.017157"/>
      <trkpt lat="37.526862" lon="127.017441"/>
      <trkpt lat="37.527102" lon="127.017726"/>
      <trkpt lat="37.527338" lon="127.018015"/>
      <trkpt lat="37.527574" lon="127.018303"/>
      <trkpt lat="37.527813" lon="127.018588"/>
      <trkpt lat="37.528049" lon="127.018878"/>
      <trkpt lat="37.528285" lon="127.019167"/>
      <trkpt lat="37.528527" lon="127.019448"/>
      <trkpt lat="37.528708" lon="127.019790"/>
      <trkpt lat="37.528853" lon="127.020163"/>
      <trkpt lat="37.529133" lon="127.020375"/>
      <trkpt lat="37.529428" lon="127.020557"/>
      <trkpt lat="37.529674" lon="127.020830"/>
      <trkpt lat="37.529913" lon="127.021116"/>
      <trkpt lat="37.530068" lon="127.021411"/>
      <trkpt lat="37.529849" lon="127.021508"/>
      <trkpt lat="37.529849" lon="127.021508"/>
      <trkpt lat="37.530068" lon="127.021411"/>
      <trkpt lat="37.529913" lon="127.021116"/>
      <trkpt lat="37.529674" lon="127.020830"/>
      <trkpt lat="37.529428" lon="127.020557"/>
      <trkpt lat="37.529133" lon="127.020375"/>
      <trkpt lat="37.528853" lon="127.020163"/>
      <trkpt lat="37.528708" lon="127.019790"/>
      <trkpt lat="37.528527" lon="127.019448"/>
      <trkpt lat="37.528285" lon="127.019167"/>
      <trkpt lat="37.528049" lon="127.018878"/>
      <trkpt lat="37.527813" lon="127.018588"/>
      <trkpt lat="37.527574" lon="127.018303"/>
      <trkpt lat="37.527338" lon="127.018015"/>
      <trkpt lat="37.527102" lon="127.017726"/>
      <trkpt lat="37.526862" lon="127.017441"/>
      <trkpt lat="37.526623" lon="127.017157"/>
      <trkpt lat="37.526387" lon="127.016867"/>
      <trkpt lat="37.526151" lon="127.016577"/>
      <trkpt lat="37.525914" lon="127.016290"/>
      <trkpt lat="37.525677" lon="127.016003"/>
      <trkpt lat="37.525439" lon="127.015716"/>
      <trkpt lat="37.525199" lon="127.015431"/>
      <trkpt lat="37.524961" lon="127.015145"/>
      <trkpt lat="37.524724" lon="127.014857"/>
      <trkpt lat="37.524484" lon="127.014573"/>
      <trkpt lat="37.524241" lon="127.014294"/>
      <trkpt lat="37.523996" lon="127.014016"/>
      <trkpt lat="37.523752" lon="127.013739"/>
      <trkpt lat="37.523507" lon="127.013461"/>
      <trkpt lat="37.523268" lon="127.013177"/>
      <trkpt lat="37.523022" lon="127.012900"/>
      <trkpt lat="37.522777" lon="127.012623"/>
      <trkpt lat="37.522532" lon="127.012346"/>
      <trkpt lat="37.522287" lon="127.012070"/>
      <trkpt lat="37.522043" lon="127.011792"/>
      <trkpt lat="37.521800" lon="127.011511"/>
      <trkpt lat="37.521557" lon="127.011231"/>
      <trkpt lat="37.521314" lon="127.010951"/>
      <trkpt lat="37.521071" lon="127.010671"/>
      <trkpt lat="37.520828" lon="127.010392"/>
      <trkpt lat="37.520581" lon="127.010118"/>
      <trkpt lat="37.520336" lon="127.009841"/>
      <trkpt lat="37.520092" lon="127.009563"/>
      <trkpt lat="37.519848" lon="127.009284"/>
      <trkpt lat="37.519604" lon="127.009006"/>
      <trkpt lat="37.519360" lon="127.008727"/>
      <trkpt lat="37.519060" lon="127.008608"/>
      <trkpt lat="37.518772" lon="127.008453"/>
      <trkpt lat="37.518610" lon="127.008166"/>
      <trkpt lat="37.518468" lon="127.007791"/>
      <trkpt lat="37.518251" lon="127.007488"/>
      <trkpt lat="37.518017" lon="127.007196"/>
      <trkpt lat="37.517780" lon="127.006908"/>
      <trkpt lat="37.517565" lon="127.006598"/>
      <trkpt lat="37.517446" lon="127.006213"/>
      <trkpt lat="37.517421" lon="127.005800"/>
      <trkpt lat="37.517314" lon="127.005412"/>
      <trkpt lat="37.517098" lon="127.005106"/>
      <trkpt lat="37.516785" lon="127.004998"/>
      <trkpt lat="37.516456" lon="127.005001"/>
      <trkpt lat="37.516129" lon="127.004956"/>
      <trkpt lat="37.515809" lon="127.004864"/>
      <trkpt lat="37.515498" lon="127.004729"/>
      <trkpt lat="37.515204" lon="127.004546"/>
      <trkpt lat="37.514932" lon="127.004313"/>
      <trkpt lat="37.514684" lon="127.004041"/>
      <trkpt lat="37.514462" lon="127.003734"/>
      <trkpt lat="37.514271" lon="127.003399"/>
      <trkpt lat="37.514118" lon="127.003031"/>
      <trkpt lat="37.513988" lon="127.002651"/>
      <trkpt lat="37.513824" lon="127.002290"/>
      <trkpt lat="37.513620" lon="127.001968"/>
      <trkpt lat="37.513373" lon="127.001693"/>
      <trkpt lat="37.513162" lon="127.001376"/>
      <trkpt lat="37.513008" lon="127.001011"/>
      <trkpt lat="37.512755" lon="127.001105"/>
      <trkpt lat="37.512471" lon="127.001314"/>
      <trkpt lat="37.512209" lon="127.001349"/>
      <trkpt lat="37.512092" lon="127.000963"/>
      <trkpt lat="37.512009" lon="127.000562"/>
      <trkpt lat="37.511869" lon="127.000187"/>
      <trkpt lat="37.511696" lon="126.999834"/>
      <trkpt lat="37.511484" lon="126.999518"/>
      <trkpt lat="37.511264" lon="126.999209"/>
      <trkpt lat="37.511081" lon="126.998866"/>
      <trkpt lat="37.510960" lon="126.998480"/>
      <trkpt lat="37.510813" lon="126.998132"/>
      <trkpt lat="37.510711" lon="126.997842"/>
      <trkpt lat="37.510709" lon="126.997428"/>
      <trkpt lat="37.510877" lon="126.997114"/>
      <trkpt lat="37.511191" lon="126.997013"/>
      <trkpt lat="37.511352" lon="126.996708"/>
      <trkpt lat="37.511156" lon="126.996409"/>
      <trkpt lat="37.510887" lon="126.996175"/>
      <trkpt lat="37.510797" lon="126.995785"/>
      <trkpt lat="37.510885" lon="126.995626"/>
      <trkpt lat="37.511181" lon="126.995498"/>
      <trkpt lat="37.511473" lon="126.995307"/>
      <trkpt lat="37.511774" lon="126.995294"/>
    </trkseg>
  </trk>
</gpx>
