<?xml version="1.0" encoding="UTF-8"?>
<gpx version="1.1" creator="daengrun gen-route-gpx.mjs" xmlns="http://www.topografix.com/GPX/1/1" xmlns:xsi="http://www.w3.org/2001/XMLSchema-instance" xsi:schemaLocation="http://www.topografix.com/GPX/1/1 http://www.topografix.com/GPX/1/1/gpx.xsd">
  <metadata>
    <name>잠수교 강바람 3km</name>
    <desc>Seed course geometry (source=algo) for daengrun route 720f99bc-1578-455c-a4a7-473cc290c31d. Not a measured GPS trace: the course is synthesised, but every point lies on a mapped OpenStreetMap footpath. Shape: lollipop. Target 3 km, measured 2.985 km.</desc>
    <copyright author="OpenStreetMap contributors"><license>https://opendatacommons.org/licenses/odbl/1-0/</license></copyright>
    <keywords>daengrun,seed,algo,candidate,osm</keywords>
  </metadata>
  <trk>
    <name>잠수교 강바람 3km</name>
    <trkseg>
      <trkpt lat="37.511774" lon="126.995294"/>
      <trkpt lat="37.511590" lon="126.995230"/>
      <trkpt lat="37.511415" lon="126.995345"/>
      <trkpt lat="37.511239" lon="126.995460"/>
      <trkpt lat="37.511064" lon="126.995574"/>
      <trkpt lat="37.510885" lon="126.995626"/>
      <trkpt lat="37.510700" lon="126.995652"/>
      <trkpt lat="37.510513" lon="126.995732"/>
      <trkpt lat="37.510360" lon="126.995828"/>
      <trkpt lat="37.510445" lon="126.996052"/>
      <trkpt lat="37.510489" lon="126.996294"/>
      <trkpt lat="37.510499" lon="126.996542"/>
      <trkpt lat="37.510478" lon="126.996790"/>
      <trkpt lat="37.510450" lon="126.997036"/>
      <trkpt lat="37.510441" lon="126.997284"/>
      <trkpt lat="37.510472" lon="126.997529"/>
      <trkpt lat="37.510566" lon="126.997747"/>
      <trkpt lat="37.510672" lon="126.997956"/>
      <trkpt lat="37.510812" lon="126.998131"/>
      <trkpt lat="37.510919" lon="126.998321"/>
      <trkpt lat="37.510981" lon="126.998558"/>
      <trkpt lat="37.510958" lon="126.998746"/>
      <trkpt lat="37.510796" lon="126.998745"/>
      <trkpt lat="37.510629" lon="126.998614"/>
      <trkpt lat="37.510445" lon="126.998528"/>
      <trkpt lat="37.510261" lon="126.998609"/>
      <trkpt lat="37.510077" lon="126.998700"/>
      <trkpt lat="37.509893" lon="126.998791"/>
      <trkpt lat="37.509709" lon="126.998882"/>
      <trkpt lat="37.509526" lon="126.998973"/>
      <trkpt lat="37.509342" lon="126.999065"/>
      <trkpt lat="37.509158" lon="126.999156"/>
      <trkpt lat="37.508974" lon="126.999246"/>
      <trkpt lat="37.508791" lon="126.999340"/>
      <trkpt lat="37.508626" lon="126.999450"/>
      <trkpt lat="37.508612" lon="126.999638"/>
      <trkpt lat="37.508427" lon="126.999723"/>
      <trkpt lat="37.508241" lon="126.999808"/>
      <trkpt lat="37.508055" lon="126.999893"/>
      <trkpt lat="37.507869" lon="126.999978"/>
      <trkpt lat="37.507684" lon="127.000062"/>
      <trkpt lat="37.507498" lon="127.000147"/>
      <trkpt lat="37.507312" lon="127.000230"/>
      <trkpt lat="37.507125" lon="127.000311"/>
      <trkpt lat="37.506939" lon="127.000394"/>
      <trkpt lat="37.506761" lon="127.000500"/>
      <trkpt lat="37.506575" lon="127.000581"/>
      <trkpt lat="37.506388" lon="127.000663"/>
      <trkpt lat="37.506201" lon="127.000744"/>
      <trkpt lat="37.506019" lon="127.000838"/>
      <trkpt lat="37.505837" lon="127.000935"/>
      <trkpt lat="37.505655" lon="127.001032"/>
      <trkpt lat="37.505472" lon="127.001128"/>
      <trkpt lat="37.505330" lon="127.001300"/>
      <trkpt lat="37.505357" lon="127.001539"/>
      <trkpt lat="37.505437" lon="127.001766"/>
      <trkpt lat="37.505509" lon="127.001998"/>
      <trkpt lat="37.505581" lon="127.002230"/>
      <trkpt lat="37.505652" lon="127.002462"/>
      <trkpt lat="37.505724" lon="127.002694"/>
      <trkpt lat="37.505795" lon="127.002927"/>
      <trkpt lat="37.505864" lon="127.003160"/>
      <trkpt lat="37.505932" lon="127.003394"/>
      <trkpt lat="37.506001" lon="127.003627"/>
      <trkpt lat="37.506069" lon="127.003861"/>
      <trkpt lat="37.506137" lon="127.004094"/>
      <trkpt lat="37.506024" lon="127.004258"/>
      <trkpt lat="37.505859" lon="127.004366"/>
      <trkpt lat="37.505813" lon="127.004291"/>
      <trkpt lat="37.505747" lon="127.004058"/>
      <trkpt lat="37.505672" lon="127.003828"/>
      <trkpt lat="37.505593" lon="127.003599"/>
      <trkpt lat="37.505493" lon="127.003387"/>
      <trkpt lat="37.505343" lon="127.003226"/>
      <trkpt lat="37.505259" lon="127.003004"/>
      <trkpt lat="37.505207" lon="127.002764"/>
      <trkpt lat="37.505237" lon="127.002568"/>
      <trkpt lat="37.505200" lon="127.002331"/>
      <trkpt lat="37.505129" lon="127.002099"/>
      <trkpt lat="37.505060" lon="127.001865"/>
      <trkpt lat="37.505004" lon="127.001633"/>
      <trkpt lat="37.504824" lon="127.001528"/>
      <trkpt lat="37.504899" lon="127.001362"/>
      <trkpt lat="37.505086" lon="127.001295"/>
      <trkpt lat="37.505195" lon="127.001190"/>
      <trkpt lat="37.505110" lon="127.000965"/>
      <trkpt lat="37.505067" lon="127.000739"/>
      <trkpt lat="37.505230" lon="127.000637"/>
      <trkpt lat="37.505415" lon="127.000549"/>
      <trkpt lat="37.505599" lon="127.000460"/>
      <trkpt lat="37.505784" lon="127.000372"/>
      <trkpt lat="37.505969" lon="127.000286"/>
      <trkpt lat="37.506154" lon="127.000199"/>
      <trkpt lat="37.506340" lon="127.000113"/>
      <trkpt lat="37.506525" lon="127.000026"/>
      <trkpt lat="37.506710" lon="126.999939"/>
      <trkpt lat="37.506895" lon="126.999851"/>
      <trkpt lat="37.507080" lon="126.999764"/>
      <trkpt lat="37.507266" lon="126.999681"/>
      <trkpt lat="37.507452" lon="126.999599"/>
      <trkpt lat="37.507639" lon="126.999516"/>
      <trkpt lat="37.507825" lon="126.999433"/>
      <trkpt lat="37.508011" lon="126.999349"/>
      <trkpt lat="37.508149" lon="126.999399"/>
      <trkpt lat="37.508237" lon="126.999603"/>
      <trkpt lat="37.508424" lon="126.999522"/>
      <trkpt lat="37.508611" lon="126.999441"/>
      <trkpt lat="37.508791" lon="126.999340"/>
      <trkpt lat="37.508974" lon="126.999246"/>
      <trkpt lat="37.509158" lon="126.999156"/>
      <trkpt lat="37.509342" lon="126.999065"/>
      <trkpt lat="37.509526" lon="126.998973"/>
      <trkpt lat="37.509709" lon="126.998882"/>
      <trkpt lat="37.509893" lon="126.998791"/>
      <trkpt lat="37.510077" lon="126.998700"/>
      <trkpt lat="37.510261" lon="126.998609"/>
      <trkpt lat="37.510445" lon="126.998528"/>
      <trkpt lat="37.510629" lon="126.998614"/>
      <trkpt lat="37.510796" lon="126.998745"/>
      <trkpt lat="37.510958" lon="126.998746"/>
      <trkpt lat="37.510981" lon="126.998558"/>
      <trkpt lat="37.510919" lon="126.998321"/>
      <trkpt lat="37.510812" lon="126.998131"/>
      <trkpt lat="37.510672" lon="126.997956"/>
      <trkpt lat="37.510566" lon="126.997747"/>
      <trkpt lat="37.510472" lon="126.997529"/>
      <trkpt lat="37.510441" lon="126.997284"/>
      <trkpt lat="37.510450" lon="126.997036"/>
      <trkpt lat="37.510478" lon="126.996790"/>
      <trkpt lat="37.510499" lon="126.996542"/>
      <trkpt lat="37.510489" lon="126.996294"/>
      <trkpt lat="37.510445" lon="126.996052"/>
      <trkpt lat="37.510360" lon="126.995828"/>
      <trkpt lat="37.510513" lon="126.995732"/>
      <trkpt lat="37.510700" lon="126.995652"/>
      <trkpt lat="37.510885" lon="126.995626"/>
      <trkpt lat="37.511064" lon="126.995574"/>
      <trkpt lat="37.511239" lon="126.995460"/>
      <trkpt lat="37.511415" lon="126.995345"/>
      <trkpt lat="37.511590" lon="126.995230"/>
      <trkpt lat="37.511774" lon="126.995294"/>
    </trkseg>
  </trk>
</gpx>
