<?xml version="1.0" encoding="UTF-8"?>
<gpx version="1.1" creator="daengrun gen-route-gpx.mjs" xmlns="http://www.topografix.com/GPX/1/1" xmlns:xsi="http://www.w3.org/2001/XMLSchema-instance" xsi:schemaLocation="http://www.topografix.com/GPX/1/1 http://www.topografix.com/GPX/1/1/gpx.xsd">
  <metadata>
    <name>서리풀–몽마르뜨 종주 5km</name>
    <desc>Seed course geometry (source=algo) for daengrun route 436ee1d2-5794-4e7f-a917-1c3d9d873122. Not a measured GPS trace: the course is synthesised, but every point lies on a mapped OpenStreetMap footpath. Shape: figure-8. Target 5 km, measured 4.959 km.</desc>
    <copyright author="OpenStreetMap contributors"><license>https://opendatacommons.org/licenses/odbl/1-0/</license></copyright>
    <keywords>daengrun,seed,algo,candidate,osm</keywords>
  </metadata>
  <trk>
    <name>서리풀–몽마르뜨 종주 5km</name>
    <trkseg>
      <trkpt lat="37.496427" lon="127.005053"/>
      <trkpt lat="37.496272" lon="127.004825"/>
      <trkpt lat="37.496059" lon="127.004690"/>
      <trkpt lat="37.495829" lon="127.004609"/>
      <trkpt lat="37.495597" lon="127.004604"/>
      <trkpt lat="37.495371" lon="127.004693"/>
      <trkpt lat="37.495185" lon="127.004725"/>
      <trkpt lat="37.495070" lon="127.004480"/>
      <trkpt lat="37.494852" lon="127.004358"/>
      <trkpt lat="37.494644" lon="127.004228"/>
      <trkpt lat="37.494671" lon="127.003929"/>
      <trkpt lat="37.494647" lon="127.003631"/>
      <trkpt lat="37.494500" lon="127.003428"/>
      <trkpt lat="37.494291" lon="127.003283"/>
      <trkpt lat="37.494082" lon="127.003138"/>
      <trkpt lat="37.493894" lon="127.002953"/>
      <trkpt lat="37.493731" lon="127.002733"/>
      <trkpt lat="37.493551" lon="127.002542"/>
      <trkpt lat="37.493345" lon="127.002466"/>
      <trkpt lat="37.493147" lon="127.002306"/>
      <trkpt lat="37.493000" lon="127.002078"/>
      <trkpt lat="37.492965" lon="127.001815"/>
      <trkpt lat="37.493058" lon="127.001562"/>
      <trkpt lat="37.492866" lon="127.001388"/>
      <trkpt lat="37.492854" lon="127.001155"/>
      <trkpt lat="37.492748" lon="127.000949"/>
      <trkpt lat="37.492663" lon="127.000668"/>
      <trkpt lat="37.492499" lon="127.000470"/>
      <trkpt lat="37.492391" lon="127.000231"/>
      <trkpt lat="37.492229" lon="127.000015"/>
      <trkpt lat="37.492020" lon="126.999875"/>
      <trkpt lat="37.491994" lon="126.999655"/>
      <trkpt lat="37.492066" lon="126.999371"/>
      <trkpt lat="37.491999" lon="126.999105"/>
      <trkpt lat="37.491801" lon="126.999099"/>
      <trkpt lat="37.491590" lon="126.999176"/>
      <trkpt lat="37.491378" lon="126.999037"/>
      <trkpt lat="37.491184" lon="126.998865"/>
      <trkpt lat="37.491012" lon="126.998656"/>
      <trkpt lat="37.490778" lon="126.998623"/>
      <trkpt lat="37.490642" lon="126.998867"/>
      <trkpt lat="37.490491" lon="126.999100"/>
      <trkpt lat="37.490326" lon="126.999312"/>
      <trkpt lat="37.490136" lon="126.999466"/>
      <trkpt lat="37.490337" lon="126.999303"/>
      <trkpt lat="37.490500" lon="126.999088"/>
      <trkpt lat="37.490649" lon="126.998853"/>
      <trkpt lat="37.490833" lon="126.998818"/>
      <trkpt lat="37.490961" lon="126.999050"/>
      <trkpt lat="37.491101" lon="126.999292"/>
      <trkpt lat="37.491293" lon="126.999440"/>
      <trkpt lat="37.491522" lon="126.999520"/>
      <trkpt lat="37.491694" lon="126.999720"/>
      <trkpt lat="37.491918" lon="126.999825"/>
      <trkpt lat="37.492141" lon="126.999934"/>
      <trkpt lat="37.492331" lon="127.000116"/>
      <trkpt lat="37.492422" lon="127.000388"/>
      <trkpt lat="37.492611" lon="127.000546"/>
      <trkpt lat="37.492661" lon="127.000827"/>
      <trkpt lat="37.492647" lon="127.001127"/>
      <trkpt lat="37.492602" lon="127.001423"/>
      <trkpt lat="37.492542" lon="127.001715"/>
      <trkpt lat="37.492493" lon="127.002010"/>
      <trkpt lat="37.492537" lon="127.002232"/>
      <trkpt lat="37.492768" lon="127.002161"/>
      <trkpt lat="37.492996" lon="127.002159"/>
      <trkpt lat="37.493181" lon="127.002344"/>
      <trkpt lat="37.493389" lon="127.002473"/>
      <trkpt lat="37.493592" lon="127.002567"/>
      <trkpt lat="37.493762" lon="127.002775"/>
      <trkpt lat="37.493928" lon="127.002991"/>
      <trkpt lat="37.494121" lon="127.003165"/>
      <trkpt lat="37.494331" lon="127.003310"/>
      <trkpt lat="37.494540" lon="127.003456"/>
      <trkpt lat="37.494673" lon="127.003654"/>
      <trkpt lat="37.494853" lon="127.003686"/>
      <trkpt lat="37.494891" lon="127.003983"/>
      <trkpt lat="37.495054" lon="127.004131"/>
      <trkpt lat="37.495281" lon="127.004082"/>
      <trkpt lat="37.495514" lon="127.004144"/>
      <trkpt lat="37.495751" lon="127.004174"/>
      <trkpt lat="37.495989" lon="127.004164"/>
      <trkpt lat="37.496201" lon="127.004265"/>
      <trkpt lat="37.496375" lon="127.004454"/>
      <trkpt lat="37.496184" lon="127.004441"/>
      <trkpt lat="37.495947" lon="127.004398"/>
      <trkpt lat="37.495711" lon="127.004355"/>
      <trkpt lat="37.495473" lon="127.004321"/>
      <trkpt lat="37.495235" lon="127.004296"/>
      <trkpt lat="37.494997" lon="127.004274"/>
      <trkpt lat="37.494759" lon="127.004252"/>
      <trkpt lat="37.494755" lon="127.004304"/>
      <trkpt lat="37.494974" lon="127.004426"/>
      <trkpt lat="37.495149" lon="127.004599"/>
      <trkpt lat="37.495275" lon="127.004749"/>
      <trkpt lat="37.495494" lon="127.004632"/>
      <trkpt lat="37.495728" lon="127.004573"/>
      <trkpt lat="37.495958" lon="127.004654"/>
      <trkpt lat="37.496180" lon="127.004760"/>
      <trkpt lat="37.496360" lon="127.004951"/>
      <trkpt lat="37.496343" lon="127.004923"/>
      <trkpt lat="37.496155" lon="127.004745"/>
      <trkpt lat="37.495931" lon="127.004645"/>
      <trkpt lat="37.495701" lon="127.004575"/>
      <trkpt lat="37.495467" lon="127.004640"/>
      <trkpt lat="37.495249" lon="127.004763"/>
      <trkpt lat="37.495139" lon="127.004567"/>
      <trkpt lat="37.494948" lon="127.004412"/>
      <trkpt lat="37.494730" lon="127.004290"/>
      <trkpt lat="37.494658" lon="127.004061"/>
      <trkpt lat="37.494664" lon="127.003762"/>
      <trkpt lat="37.494793" lon="127.003611"/>
      <trkpt lat="37.494981" lon="127.003492"/>
      <trkpt lat="37.495192" lon="127.003610"/>
      <trkpt lat="37.495424" lon="127.003677"/>
      <trkpt lat="37.495662" lon="127.003675"/>
      <trkpt lat="37.495896" lon="127.003621"/>
      <trkpt lat="37.495961" lon="127.003503"/>
      <trkpt lat="37.495750" lon="127.003411"/>
      <trkpt lat="37.495512" lon="127.003394"/>
      <trkpt lat="37.495273" lon="127.003376"/>
      <trkpt lat="37.495035" lon="127.003358"/>
      <trkpt lat="37.494796" lon="127.003340"/>
      <trkpt lat="37.494628" lon="127.003518"/>
      <trkpt lat="37.494420" lon="127.003372"/>
      <trkpt lat="37.494210" lon="127.003227"/>
      <trkpt lat="37.494004" lon="127.003075"/>
      <trkpt lat="37.493830" lon="127.002869"/>
      <trkpt lat="37.493669" lon="127.002647"/>
      <trkpt lat="37.493469" lon="127.002490"/>
      <trkpt lat="37.493260" lon="127.002424"/>
      <trkpt lat="37.493079" lon="127.002228"/>
      <trkpt lat="37.492967" lon="127.001969"/>
      <trkpt lat="37.493037" lon="127.001745"/>
      <trkpt lat="37.492986" lon="127.001493"/>
      <trkpt lat="37.492790" lon="127.001321"/>
      <trkpt lat="37.492863" lon="127.001061"/>
      <trkpt lat="37.492716" lon="127.000840"/>
      <trkpt lat="37.492619" lon="127.000565"/>
      <trkpt lat="37.492425" lon="127.000409"/>
      <trkpt lat="37.492341" lon="127.000133"/>
      <trkpt lat="37.492156" lon="126.999943"/>
      <trkpt lat="37.491935" lon="126.999839"/>
      <trkpt lat="37.491767" lon="127.000041"/>
      <trkpt lat="37.491666" lon="127.000298"/>
      <trkpt lat="37.491668" lon="127.000481"/>
      <trkpt lat="37.491700" lon="127.000760"/>
      <trkpt lat="37.491749" lon="127.000541"/>
      <trkpt lat="37.491709" lon="127.000245"/>
      <trkpt lat="37.491798" lon="126.999978"/>
      <trkpt lat="37.491990" lon="126.999859"/>
      <trkpt lat="37.492203" lon="126.999989"/>
      <trkpt lat="37.492373" lon="127.000196"/>
      <trkpt lat="37.492470" lon="127.000451"/>
      <trkpt lat="37.492647" lon="127.000631"/>
      <trkpt lat="37.492655" lon="127.000923"/>
      <trkpt lat="37.492635" lon="127.001223"/>
      <trkpt lat="37.492583" lon="127.001516"/>
      <trkpt lat="37.492527" lon="127.001809"/>
      <trkpt lat="37.492474" lon="127.002103"/>
      <trkpt lat="37.492612" lon="127.002219"/>
      <trkpt lat="37.492840" lon="127.002129"/>
      <trkpt lat="37.493060" lon="127.002207"/>
      <trkpt lat="37.493239" lon="127.002407"/>
      <trkpt lat="37.493448" lon="127.002473"/>
      <trkpt lat="37.493652" lon="127.002624"/>
      <trkpt lat="37.493814" lon="127.002846"/>
      <trkpt lat="37.493986" lon="127.003055"/>
      <trkpt lat="37.494188" lon="127.003211"/>
      <trkpt lat="37.494398" lon="127.003357"/>
      <trkpt lat="37.494607" lon="127.003503"/>
      <trkpt lat="37.494738" lon="127.003608"/>
      <trkpt lat="37.494926" lon="127.003509"/>
      <trkpt lat="37.495144" lon="127.003570"/>
      <trkpt lat="37.495367" lon="127.003666"/>
      <trkpt lat="37.495605" lon="127.003683"/>
      <trkpt lat="37.495839" lon="127.003627"/>
      <trkpt lat="37.495993" lon="127.003562"/>
      <trkpt lat="37.496041" lon="127.003458"/>
      <trkpt lat="37.496277" lon="127.003502"/>
      <trkpt lat="37.496358" lon="127.003706"/>
      <trkpt lat="37.496345" lon="127.004007"/>
      <trkpt lat="37.496332" lon="127.004308"/>
      <trkpt lat="37.496316" lon="127.004466"/>
      <trkpt lat="37.496079" lon="127.004422"/>
      <trkpt lat="37.495843" lon="127.004379"/>
      <trkpt lat="37.495606" lon="127.004335"/>
      <trkpt lat="37.495368" lon="127.004310"/>
      <trkpt lat="37.495130" lon="127.004286"/>
      <trkpt lat="37.494892" lon="127.004264"/>
      <trkpt lat="37.494653" lon="127.004242"/>
      <trkpt lat="37.494852" lon="127.004358"/>
      <trkpt lat="37.495070" lon="127.004480"/>
      <trkpt lat="37.495185" lon="127.004725"/>
      <trkpt lat="37.495371" lon="127.004693"/>
      <trkpt lat="37.495597" lon="127.004604"/>
      <trkpt lat="37.495829" lon="127.004609"/>
      <trkpt lat="37.496059" lon="127.004690"/>
      <trkpt lat="37.496272" lon="127.004825"/>
      <trkpt lat="37.496427" lon="127.005053"/>
    </trkseg>
  </trk>
</gpx>
