<?xml version="1.0" encoding="UTF-8"?>
<gpx version="1.1" creator="daengrun gen-route-gpx.mjs" xmlns="http://www.topografix.com/GPX/1/1" xmlns:xsi="http://www.w3.org/2001/XMLSchema-instance" xsi:schemaLocation="http://www.topografix.com/GPX/1/1 http://www.topografix.com/GPX/1/1/gpx.xsd">
  <metadata>
    <name>서리풀 숲길 3km</name>
    <desc>Seed course geometry (source=algo) for daengrun route 21da1ac6-a925-4eed-ac28-f42f6da3a285. Not a measured GPS trace: the course is synthesised, but every point lies on a mapped OpenStreetMap footpath. Shape: loop. Target 3 km, measured 2.998 km.</desc>
    <copyright author="OpenStreetMap contributors"><license>https://opendatacommons.org/licenses/odbl/1-0/</license></copyright>
    <keywords>daengrun,seed,algo,candidate,osm</keywords>
  </metadata>
  <trk>
    <name>서리풀 숲길 3km</name>
    <trkseg>
      <trkpt lat="37.496427" lon="127.005053"/>
      <trkpt lat="37.496300" lon="127.004863"/>
      <trkpt lat="37.496135" lon="127.004732"/>
      <trkpt lat="37.495949" lon="127.004651"/>
      <trkpt lat="37.495759" lon="127.004584"/>
      <trkpt lat="37.495567" lon="127.004612"/>
      <trkpt lat="37.495380" lon="127.004688"/>
      <trkpt lat="37.495202" lon="127.004786"/>
      <trkpt lat="37.495135" lon="127.004552"/>
      <trkpt lat="37.494975" lon="127.004427"/>
      <trkpt lat="37.494794" lon="127.004326"/>
      <trkpt lat="37.494646" lon="127.004201"/>
      <trkpt lat="37.494668" lon="127.003954"/>
      <trkpt lat="37.494658" lon="127.003707"/>
      <trkpt lat="37.494590" lon="127.003492"/>
      <trkpt lat="37.494418" lon="127.003370"/>
      <trkpt lat="37.494245" lon="127.003250"/>
      <trkpt lat="37.494072" lon="127.003131"/>
      <trkpt lat="37.493917" lon="127.002978"/>
      <trkpt lat="37.493780" lon="127.002799"/>
      <trkpt lat="37.493646" lon="127.002616"/>
      <trkpt lat="37.493476" lon="127.002494"/>
      <trkpt lat="37.493304" lon="127.002451"/>
      <trkpt lat="37.493146" lon="127.002305"/>
      <trkpt lat="37.493014" lon="127.002125"/>
      <trkpt lat="37.492944" lon="127.001893"/>
      <trkpt lat="37.493041" lon="127.001716"/>
      <trkpt lat="37.493001" lon="127.001506"/>
      <trkpt lat="37.492839" lon="127.001364"/>
      <trkpt lat="37.492851" lon="127.001165"/>
      <trkpt lat="37.492784" lon="127.000990"/>
      <trkpt lat="37.492697" lon="127.000775"/>
      <trkpt lat="37.492613" lon="127.000550"/>
      <trkpt lat="37.492442" lon="127.000432"/>
      <trkpt lat="37.492378" lon="127.000206"/>
      <trkpt lat="37.492243" lon="127.000029"/>
      <trkpt lat="37.492076" lon="126.999902"/>
      <trkpt lat="37.491958" lon="126.999774"/>
      <trkpt lat="37.492029" lon="126.999542"/>
      <trkpt lat="37.492064" lon="126.999302"/>
      <trkpt lat="37.491989" lon="126.999094"/>
      <trkpt lat="37.491826" lon="126.999082"/>
      <trkpt lat="37.491651" lon="126.999197"/>
      <trkpt lat="37.491476" lon="126.999102"/>
      <trkpt lat="37.491301" lon="126.998986"/>
      <trkpt lat="37.491152" lon="126.998826"/>
      <trkpt lat="37.491010" lon="126.998653"/>
      <trkpt lat="37.490816" lon="126.998627"/>
      <trkpt lat="37.490685" lon="126.998782"/>
      <trkpt lat="37.490570" lon="126.998984"/>
      <trkpt lat="37.490445" lon="126.999177"/>
      <trkpt lat="37.490297" lon="126.999335"/>
      <trkpt lat="37.490131" lon="126.999470"/>
      <trkpt lat="37.489949" lon="126.999381"/>
      <trkpt lat="37.489821" lon="126.999332"/>
      <trkpt lat="37.489702" lon="126.999506"/>
      <trkpt lat="37.489665" lon="126.999751"/>
      <trkpt lat="37.489628" lon="126.999996"/>
      <trkpt lat="37.489592" lon="127.000240"/>
      <trkpt lat="37.489457" lon="127.000381"/>
      <trkpt lat="37.489261" lon="127.000417"/>
      <trkpt lat="37.489064" lon="127.000428"/>
      <trkpt lat="37.488955" lon="127.000434"/>
      <trkpt lat="37.489152" lon="127.000423"/>
      <trkpt lat="37.489349" lon="127.000401"/>
      <trkpt lat="37.489539" lon="127.000349"/>
      <trkpt lat="37.489608" lon="127.000131"/>
      <trkpt lat="37.489645" lon="126.999886"/>
      <trkpt lat="37.489681" lon="126.999642"/>
      <trkpt lat="37.489730" lon="126.999407"/>
      <trkpt lat="37.489896" lon="126.999271"/>
      <trkpt lat="37.490028" lon="126.999425"/>
      <trkpt lat="37.490205" lon="126.999410"/>
      <trkpt lat="37.490371" lon="126.999275"/>
      <trkpt lat="37.490499" lon="126.999089"/>
      <trkpt lat="37.490626" lon="126.998898"/>
      <trkpt lat="37.490756" lon="126.998778"/>
      <trkpt lat="37.490913" lon="126.998913"/>
      <trkpt lat="37.491010" lon="126.999117"/>
      <trkpt lat="37.491116" lon="126.999326"/>
      <trkpt lat="37.491283" lon="126.999436"/>
      <trkpt lat="37.491472" lon="126.999506"/>
      <trkpt lat="37.491630" lon="126.999640"/>
      <trkpt lat="37.491791" lon="126.999765"/>
      <trkpt lat="37.491976" lon="126.999853"/>
      <trkpt lat="37.492159" lon="126.999946"/>
      <trkpt lat="37.492314" lon="127.000100"/>
      <trkpt lat="37.492411" lon="127.000310"/>
      <trkpt lat="37.492522" lon="127.000484"/>
      <trkpt lat="37.492655" lon="127.000650"/>
      <trkpt lat="37.492656" lon="127.000893"/>
      <trkpt lat="37.492645" lon="127.001141"/>
      <trkpt lat="37.492610" lon="127.001385"/>
      <trkpt lat="37.492560" lon="127.001626"/>
      <trkpt lat="37.492518" lon="127.001869"/>
      <trkpt lat="37.492473" lon="127.002112"/>
      <trkpt lat="37.492578" lon="127.002225"/>
      <trkpt lat="37.492769" lon="127.002161"/>
      <trkpt lat="37.492957" lon="127.002146"/>
      <trkpt lat="37.493120" lon="127.002275"/>
      <trkpt lat="37.493272" lon="127.002431"/>
      <trkpt lat="37.493445" lon="127.002471"/>
      <trkpt lat="37.493621" lon="127.002585"/>
      <trkpt lat="37.493756" lon="127.002766"/>
      <trkpt lat="37.493890" lon="127.002949"/>
      <trkpt lat="37.494041" lon="127.003109"/>
      <trkpt lat="37.494214" lon="127.003229"/>
      <trkpt lat="37.494387" lon="127.003349"/>
      <trkpt lat="37.494559" lon="127.003470"/>
      <trkpt lat="37.494698" lon="127.003403"/>
      <trkpt lat="37.494873" lon="127.003346"/>
      <trkpt lat="37.495070" lon="127.003361"/>
      <trkpt lat="37.495267" lon="127.003375"/>
      <trkpt lat="37.495464" lon="127.003390"/>
      <trkpt lat="37.495661" lon="127.003405"/>
      <trkpt lat="37.495858" lon="127.003424"/>
      <trkpt lat="37.495999" lon="127.003572"/>
      <trkpt lat="37.496013" lon="127.003809"/>
      <trkpt lat="37.496027" lon="127.003679"/>
      <trkpt lat="37.496160" lon="127.003660"/>
      <trkpt lat="37.496324" lon="127.003775"/>
      <trkpt lat="37.496270" lon="127.004012"/>
      <trkpt lat="37.496241" lon="127.004240"/>
      <trkpt lat="37.496361" lon="127.004434"/>
      <trkpt lat="37.496245" lon="127.004453"/>
      <trkpt lat="37.496050" lon="127.004417"/>
      <trkpt lat="37.495854" lon="127.004381"/>
      <trkpt lat="37.495659" lon="127.004345"/>
      <trkpt lat="37.495462" lon="127.004320"/>
      <trkpt lat="37.495266" lon="127.004298"/>
      <trkpt lat="37.495069" lon="127.004280"/>
      <trkpt lat="37.494872" lon="127.004262"/>
      <trkpt lat="37.494675" lon="127.004244"/>
      <trkpt lat="37.494794" lon="127.004326"/>
      <trkpt lat="37.494975" lon="127.004427"/>
      <trkpt lat="37.495135" lon="127.004552"/>
      <trkpt lat="37.495202" lon="127.004786"/>
      <trkpt lat="37.495380" lon="127.004688"/>
      <trkpt lat="37.495567" lon="127.004612"/>
      <trkpt lat="37.495759" lon="127.004584"/>
      <trkpt lat="37.495949" lon="127.004651"/>
      <trkpt lat="37.496135" lon="127.004732"/>
      <trkpt lat="37.496300" lon="127.004863"/>
      <trkpt lat="37.496427" lon="127.005053"/>
    </trkseg>
  </trk>
</gpx>
