<?xml version="1.0" encoding="UTF-8"?>
<gpx version="1.1" creator="daengrun gen-route-gpx.mjs" xmlns="http://www.topografix.com/GPX/1/1" xmlns:xsi="http://www.w3.org/2001/XMLSchema-instance" xsi:schemaLocation="http://www.topografix.com/GPX/1/1 http://www.topografix.com/GPX/1/1/gpx.xsd">
  <metadata>
    <name>서울숲 숲길 3km</name>
    <desc>Seed course geometry (source=algo) for daengrun route dd8bc2e2-70dc-4955-bad3-17c0ac6a360c. Not a measured GPS trace: the course is synthesised, but every point lies on a mapped OpenStreetMap footpath. Shape: lollipop. Target 3 km, measured 2.968 km.</desc>
    <copyright author="OpenStreetMap contributors"><license>https://opendatacommons.org/licenses/odbl/1-0/</license></copyright>
    <keywords>daengrun,seed,algo,candidate,osm</keywords>
  </metadata>
  <trk>
    <name>서울숲 숲길 3km</name>
    <trkseg>
      <trkpt lat="37.544431" lon="127.037473"/>
      <trkpt lat="37.544250" lon="127.037572"/>
      <trkpt lat="37.544100" lon="127.037735"/>
      <trkpt lat="37.543979" lon="127.037933"/>
      <trkpt lat="37.543874" lon="127.038145"/>
      <trkpt lat="37.543790" lon="127.038371"/>
      <trkpt lat="37.543742" lon="127.038613"/>
      <trkpt lat="37.543730" lon="127.038862"/>
      <trkpt lat="37.543758" lon="127.039106"/>
      <trkpt lat="37.543810" lon="127.039345"/>
      <trkpt lat="37.543767" lon="127.039583"/>
      <trkpt lat="37.543703" lon="127.039820"/>
      <trkpt lat="37.543639" lon="127.040057"/>
      <trkpt lat="37.543575" lon="127.040293"/>
      <trkpt lat="37.543533" lon="127.040530"/>
      <trkpt lat="37.543579" lon="127.040773"/>
      <trkpt lat="37.543593" lon="127.041014"/>
      <trkpt lat="37.543556" lon="127.041250"/>
      <trkpt lat="37.543745" lon="127.041327"/>
      <trkpt lat="37.543932" lon="127.041408"/>
      <trkpt lat="37.544120" lon="127.041489"/>
      <trkpt lat="37.544307" lon="127.041569"/>
      <trkpt lat="37.544390" lon="127.041714"/>
      <trkpt lat="37.544325" lon="127.041950"/>
      <trkpt lat="37.544407" lon="127.042110"/>
      <trkpt lat="37.544521" lon="127.042315"/>
      <trkpt lat="37.544633" lon="127.042500"/>
      <trkpt lat="37.544696" lon="127.042263"/>
      <trkpt lat="37.544759" lon="127.042026"/>
      <trkpt lat="37.544886" lon="127.041875"/>
      <trkpt lat="37.545048" lon="127.041889"/>
      <trkpt lat="37.545236" lon="127.041970"/>
      <trkpt lat="37.545408" lon="127.042012"/>
      <trkpt lat="37.545472" lon="127.041775"/>
      <trkpt lat="37.545535" lon="127.041538"/>
      <trkpt lat="37.545598" lon="127.041301"/>
      <trkpt lat="37.545662" lon="127.041065"/>
      <trkpt lat="37.545725" lon="127.040828"/>
      <trkpt lat="37.545789" lon="127.040591"/>
      <trkpt lat="37.545852" lon="127.040354"/>
      <trkpt lat="37.545915" lon="127.040117"/>
      <trkpt lat="37.545979" lon="127.039881"/>
      <trkpt lat="37.546042" lon="127.039644"/>
      <trkpt lat="37.546106" lon="127.039407"/>
      <trkpt lat="37.546161" lon="127.039167"/>
      <trkpt lat="37.546180" lon="127.038919"/>
      <trkpt lat="37.546174" lon="127.038669"/>
      <trkpt lat="37.546134" lon="127.038425"/>
      <trkpt lat="37.546051" lon="127.038199"/>
      <trkpt lat="37.545943" lon="127.037989"/>
      <trkpt lat="37.545815" lon="127.037799"/>
      <trkpt lat="37.545669" lon="127.037630"/>
      <trkpt lat="37.545503" lon="127.037495"/>
      <trkpt lat="37.545320" lon="127.037400"/>
      <trkpt lat="37.545127" lon="127.037343"/>
      <trkpt lat="37.544930" lon="127.037327"/>
      <trkpt lat="37.544733" lon="127.037351"/>
      <trkpt lat="37.544540" lon="127.037406"/>
      <trkpt lat="37.544360" lon="127.037511"/>
      <trkpt lat="37.544188" lon="127.037630"/>
      <trkpt lat="37.544051" lon="127.037811"/>
      <trkpt lat="37.543996" lon="127.037809"/>
      <trkpt lat="37.543969" lon="127.037563"/>
      <trkpt lat="37.543867" lon="127.037353"/>
      <trkpt lat="37.543721" lon="127.037188"/>
      <trkpt lat="37.543606" lon="127.036985"/>
      <trkpt lat="37.543484" lon="127.036788"/>
      <trkpt lat="37.543346" lon="127.036610"/>
      <trkpt lat="37.543183" lon="127.036473"/>
      <trkpt lat="37.542991" lon="127.036408"/>
      <trkpt lat="37.542799" lon="127.036347"/>
      <trkpt lat="37.542608" lon="127.036343"/>
      <trkpt lat="37.542447" lon="127.036264"/>
      <trkpt lat="37.542301" lon="127.036095"/>
      <trkpt lat="37.542108" lon="127.036052"/>
      <trkpt lat="37.541939" lon="127.036103"/>
      <trkpt lat="37.541818" lon="127.036301"/>
      <trkpt lat="37.541706" lon="127.036508"/>
      <trkpt lat="37.541595" lon="127.036714"/>
      <trkpt lat="37.541512" lon="127.036941"/>
      <trkpt lat="37.541431" lon="127.037169"/>
      <trkpt lat="37.541351" lon="127.037398"/>
      <trkpt lat="37.541279" lon="127.037630"/>
      <trkpt lat="37.541229" lon="127.037872"/>
      <trkpt lat="37.541179" lon="127.038114"/>
      <trkpt lat="37.541129" lon="127.038356"/>
      <trkpt lat="37.541115" lon="127.038602"/>
      <trkpt lat="37.541124" lon="127.038852"/>
      <trkpt lat="37.541133" lon="127.039102"/>
      <trkpt lat="37.541153" lon="127.039350"/>
      <trkpt lat="37.541184" lon="127.039596"/>
      <trkpt lat="37.541198" lon="127.039846"/>
      <trkpt lat="37.541213" lon="127.040095"/>
      <trkpt lat="37.541349" lon="127.040253"/>
      <trkpt lat="37.541530" lon="127.040353"/>
      <trkpt lat="37.541712" lon="127.040453"/>
      <trkpt lat="37.541899" lon="127.040535"/>
      <trkpt lat="37.542087" lon="127.040614"/>
      <trkpt lat="37.542275" lon="127.040694"/>
      <trkpt lat="37.542462" lon="127.040776"/>
      <trkpt lat="37.542649" lon="127.040858"/>
      <trkpt lat="37.542837" lon="127.040938"/>
      <trkpt lat="37.543025" lon="127.041017"/>
      <trkpt lat="37.543213" lon="127.041098"/>
      <trkpt lat="37.543400" lon="127.041178"/>
      <trkpt lat="37.543536" lon="127.041294"/>
      <trkpt lat="37.543616" lon="127.041510"/>
      <trkpt lat="37.543720" lon="127.041723"/>
      <trkpt lat="37.543875" lon="127.041855"/>
      <trkpt lat="37.544062" lon="127.041935"/>
      <trkpt lat="37.544250" lon="127.042015"/>
      <trkpt lat="37.544254" lon="127.042209"/>
      <trkpt lat="37.544353" lon="127.042345"/>
      <trkpt lat="37.544540" lon="127.042428"/>
      <trkpt lat="37.544521" lon="127.042315"/>
      <trkpt lat="37.544407" lon="127.042110"/>
      <trkpt lat="37.544325" lon="127.041950"/>
      <trkpt lat="37.544390" lon="127.041714"/>
      <trkpt lat="37.544307" lon="127.041569"/>
      <trkpt lat="37.544120" lon="127.041489"/>
      <trkpt lat="37.543932" lon="127.041408"/>
      <trkpt lat="37.543745" lon="127.041327"/>
      <trkpt lat="37.543556" lon="127.041250"/>
      <trkpt lat="37.543593" lon="127.041014"/>
      <trkpt lat="37.543579" lon="127.040773"/>
      <trkpt lat="37.543533" lon="127.040530"/>
      <trkpt lat="37.543575" lon="127.040293"/>
      <trkpt lat="37.543639" lon="127.040057"/>
      <trkpt lat="37.543703" lon="127.039820"/>
      <trkpt lat="37.543767" lon="127.039583"/>
      <trkpt lat="37.543810" lon="127.039345"/>
      <trkpt lat="37.543758" lon="127.039106"/>
      <trkpt lat="37.543730" lon="127.038862"/>
      <trkpt lat="37.543742" lon="127.038613"/>
      <trkpt lat="37.543790" lon="127.038371"/>
      <trkpt lat="37.543874" lon="127.038145"/>
      <trkpt lat="37.543979" lon="127.037933"/>
      <trkpt lat="37.544100" lon="127.037735"/>
      <trkpt lat="37.544250" lon="127.037572"/>
      <trkpt lat="37.544431" lon="127.037473"/>
    </trkseg>
  </trk>
</gpx>
