<?xml version="1.0" encoding="UTF-8"?>
<gpx version="1.1" creator="daengrun gen-route-gpx.mjs" xmlns="http://www.topografix.com/GPX/1/1" xmlns:xsi="http://www.w3.org/2001/XMLSchema-instance" xsi:schemaLocation="http://www.topografix.com/GPX/1/1 http://www.topografix.com/GPX/1/1/gpx.xsd">
  <metadata>
    <name>서울숲 순환 코스</name>
    <desc>Seed course geometry (source=algo) for daengrun route 55eaae1f-fb8d-463a-9138-ae3b77181f0f. Not a measured GPS trace: the course is synthesised, but every point lies on a mapped OpenStreetMap footpath. Shape: figure-8. Target 5 km, measured 5.037 km.</desc>
    <copyright author="OpenStreetMap contributors"><license>https://opendatacommons.org/licenses/odbl/1-0/</license></copyright>
    <keywords>daengrun,seed,algo,candidate,osm</keywords>
  </metadata>
  <trk>
    <name>서울숲 순환 코스</name>
    <trkseg>
      <trkpt lat="37.544431" lon="127.037473"/>
      <trkpt lat="37.544327" lon="127.037198"/>
      <trkpt lat="37.544222" lon="127.036925"/>
      <trkpt lat="37.544117" lon="127.036651"/>
      <trkpt lat="37.543994" lon="127.036408"/>
      <trkpt lat="37.543773" lon="127.036318"/>
      <trkpt lat="37.543821" lon="127.036025"/>
      <trkpt lat="37.543799" lon="127.035773"/>
      <trkpt lat="37.543616" lon="127.035588"/>
      <trkpt lat="37.543379" lon="127.035553"/>
      <trkpt lat="37.543153" lon="127.035448"/>
      <trkpt lat="37.542932" lon="127.035326"/>
      <trkpt lat="37.542703" lon="127.035239"/>
      <trkpt lat="37.542489" lon="127.035302"/>
      <trkpt lat="37.542323" lon="127.035522"/>
      <trkpt lat="37.542164" lon="127.035751"/>
      <trkpt lat="37.542013" lon="127.035987"/>
      <trkpt lat="37.541862" lon="127.036224"/>
      <trkpt lat="37.541725" lon="127.036474"/>
      <trkpt lat="37.541589" lon="127.036725"/>
      <trkpt lat="37.541420" lon="127.036942"/>
      <trkpt lat="37.541281" lon="127.037186"/>
      <trkpt lat="37.541131" lon="127.037420"/>
      <trkpt lat="37.540956" lon="127.037627"/>
      <trkpt lat="37.540813" lon="127.037870"/>
      <trkpt lat="37.540754" lon="127.038164"/>
      <trkpt lat="37.540729" lon="127.038466"/>
      <trkpt lat="37.540688" lon="127.038764"/>
      <trkpt lat="37.540615" lon="127.039054"/>
      <trkpt lat="37.540518" lon="127.039331"/>
      <trkpt lat="37.540401" lon="127.039596"/>
      <trkpt lat="37.540268" lon="127.039850"/>
      <trkpt lat="37.540143" lon="127.040110"/>
      <trkpt lat="37.539916" lon="127.040182"/>
      <trkpt lat="37.539717" lon="127.040351"/>
      <trkpt lat="37.539521" lon="127.040529"/>
      <trkpt lat="37.539350" lon="127.040733"/>
      <trkpt lat="37.539304" lon="127.041027"/>
      <trkpt lat="37.539233" lon="127.041314"/>
      <trkpt lat="37.539131" lon="127.041589"/>
      <trkpt lat="37.539029" lon="127.041864"/>
      <trkpt lat="37.538926" lon="127.042140"/>
      <trkpt lat="37.538780" lon="127.042268"/>
      <trkpt lat="37.538563" lon="127.042135"/>
      <trkpt lat="37.538346" lon="127.042003"/>
      <trkpt lat="37.538129" lon="127.041870"/>
      <trkpt lat="37.537913" lon="127.041737"/>
      <trkpt lat="37.537839" lon="127.041773"/>
      <trkpt lat="37.537887" lon="127.041496"/>
      <trkpt lat="37.537982" lon="127.041217"/>
      <trkpt lat="37.538082" lon="127.040940"/>
      <trkpt lat="37.538191" lon="127.040669"/>
      <trkpt lat="37.538299" lon="127.040397"/>
      <trkpt lat="37.538407" lon="127.040125"/>
      <trkpt lat="37.538511" lon="127.039851"/>
      <trkpt lat="37.538616" lon="127.039577"/>
      <trkpt lat="37.538720" lon="127.039304"/>
      <trkpt lat="37.538827" lon="127.039031"/>
      <trkpt lat="37.538936" lon="127.038760"/>
      <trkpt lat="37.539045" lon="127.038488"/>
      <trkpt lat="37.539143" lon="127.038211"/>
      <trkpt lat="37.539240" lon="127.037933"/>
      <trkpt lat="37.539337" lon="127.037654"/>
      <trkpt lat="37.539435" lon="127.037376"/>
      <trkpt lat="37.539531" lon="127.037098"/>
      <trkpt lat="37.539615" lon="127.036813"/>
      <trkpt lat="37.539701" lon="127.036529"/>
      <trkpt lat="37.539801" lon="127.036252"/>
      <trkpt lat="37.539912" lon="127.035982"/>
      <trkpt lat="37.540025" lon="127.035714"/>
      <trkpt lat="37.540143" lon="127.035450"/>
      <trkpt lat="37.540100" lon="127.035314"/>
      <trkpt lat="37.540261" lon="127.035402"/>
      <trkpt lat="37.540500" lon="127.035437"/>
      <trkpt lat="37.540740" lon="127.035472"/>
      <trkpt lat="37.540979" lon="127.035508"/>
      <trkpt lat="37.541218" lon="127.035545"/>
      <trkpt lat="37.541458" lon="127.035583"/>
      <trkpt lat="37.541697" lon="127.035621"/>
      <trkpt lat="37.541936" lon="127.035663"/>
      <trkpt lat="37.542174" lon="127.035704"/>
      <trkpt lat="37.542413" lon="127.035745"/>
      <trkpt lat="37.542652" lon="127.035787"/>
      <trkpt lat="37.542891" lon="127.035830"/>
      <trkpt lat="37.543130" lon="127.035862"/>
      <trkpt lat="37.543370" lon="127.035888"/>
      <trkpt lat="37.543611" lon="127.035912"/>
      <trkpt lat="37.543822" lon="127.035821"/>
      <trkpt lat="37.544007" lon="127.035968"/>
      <trkpt lat="37.544167" lon="127.036057"/>
      <trkpt lat="37.544056" lon="127.036327"/>
      <trkpt lat="37.544089" lon="127.036585"/>
      <trkpt lat="37.544196" lon="127.036857"/>
      <trkpt lat="37.544245" lon="127.037109"/>
      <trkpt lat="37.544106" lon="127.037348"/>
      <trkpt lat="37.544219" lon="127.037488"/>
      <trkpt lat="37.544419" lon="127.037441"/>
      <trkpt lat="37.544315" lon="127.037167"/>
      <trkpt lat="37.544443" lon="127.037045"/>
      <trkpt lat="37.544678" lon="127.037109"/>
      <trkpt lat="37.544917" lon="127.037088"/>
      <trkpt lat="37.545154" lon="127.037098"/>
      <trkpt lat="37.545346" lon="127.037156"/>
      <trkpt lat="37.545160" lon="127.037345"/>
      <trkpt lat="37.545383" lon="127.037427"/>
      <trkpt lat="37.545553" lon="127.037574"/>
      <trkpt lat="37.545366" lon="127.037617"/>
      <trkpt lat="37.545134" lon="127.037543"/>
      <trkpt lat="37.544893" lon="127.037520"/>
      <trkpt lat="37.544678" lon="127.037547"/>
      <trkpt lat="37.544586" lon="127.037757"/>
      <trkpt lat="37.544371" lon="127.037894"/>
      <trkpt lat="37.544157" lon="127.038033"/>
      <trkpt lat="37.543970" lon="127.038188"/>
      <trkpt lat="37.544008" lon="127.038408"/>
      <trkpt lat="37.543971" lon="127.038707"/>
      <trkpt lat="37.543887" lon="127.038963"/>
      <trkpt lat="37.543718" lon="127.039133"/>
      <trkpt lat="37.543619" lon="127.039411"/>
      <trkpt lat="37.543517" lon="127.039686"/>
      <trkpt lat="37.543391" lon="127.039944"/>
      <trkpt lat="37.543248" lon="127.040189"/>
      <trkpt lat="37.543127" lon="127.040449"/>
      <trkpt lat="37.542912" lon="127.040312"/>
      <trkpt lat="37.542697" lon="127.040176"/>
      <trkpt lat="37.542481" lon="127.040039"/>
      <trkpt lat="37.542397" lon="127.040314"/>
      <trkpt lat="37.542317" lon="127.040601"/>
      <trkpt lat="37.542140" lon="127.040637"/>
      <trkpt lat="37.541911" lon="127.040540"/>
      <trkpt lat="37.541684" lon="127.040438"/>
      <trkpt lat="37.541463" lon="127.040316"/>
      <trkpt lat="37.541249" lon="127.040183"/>
      <trkpt lat="37.541201" lon="127.039895"/>
      <trkpt lat="37.541184" lon="127.039592"/>
      <trkpt lat="37.540998" lon="127.039436"/>
      <trkpt lat="37.540778" lon="127.039310"/>
      <trkpt lat="37.540585" lon="127.039170"/>
      <trkpt lat="37.540654" lon="127.038908"/>
      <trkpt lat="37.540579" lon="127.039196"/>
      <trkpt lat="37.540799" lon="127.039322"/>
      <trkpt lat="37.541018" lon="127.039448"/>
      <trkpt lat="37.541170" lon="127.039465"/>
      <trkpt lat="37.541136" lon="127.039165"/>
      <trkpt lat="37.541125" lon="127.038861"/>
      <trkpt lat="37.541305" lon="127.038918"/>
      <trkpt lat="37.541523" lon="127.039047"/>
      <trkpt lat="37.541742" lon="127.039176"/>
      <trkpt lat="37.541664" lon="127.039440"/>
      <trkpt lat="37.541562" lon="127.039716"/>
      <trkpt lat="37.541460" lon="127.039991"/>
      <trkpt lat="37.541365" lon="127.040263"/>
      <trkpt lat="37.541586" lon="127.040384"/>
      <trkpt lat="37.541810" lon="127.040498"/>
      <trkpt lat="37.542038" lon="127.040594"/>
      <trkpt lat="37.542267" lon="127.040690"/>
      <trkpt lat="37.542220" lon="127.040959"/>
      <trkpt lat="37.542143" lon="127.041247"/>
      <trkpt lat="37.542065" lon="127.041535"/>
      <trkpt lat="37.542017" lon="127.041793"/>
      <trkpt lat="37.542160" lon="127.041549"/>
      <trkpt lat="37.542304" lon="127.041305"/>
      <trkpt lat="37.542447" lon="127.041060"/>
      <trkpt lat="37.542595" lon="127.040834"/>
      <trkpt lat="37.542731" lon="127.041012"/>
      <trkpt lat="37.542720" lon="127.041316"/>
      <trkpt lat="37.542708" lon="127.041620"/>
      <trkpt lat="37.542743" lon="127.041857"/>
      <trkpt lat="37.542823" lon="127.041570"/>
      <trkpt lat="37.542976" lon="127.041472"/>
      <trkpt lat="37.543110" lon="127.041313"/>
      <trkpt lat="37.543200" lon="127.041031"/>
      <trkpt lat="37.543354" lon="127.041008"/>
      <trkpt lat="37.543539" lon="127.041130"/>
      <trkpt lat="37.543747" lon="127.041169"/>
      <trkpt lat="37.543892" lon="127.040955"/>
      <trkpt lat="37.544108" lon="127.040819"/>
      <trkpt lat="37.544241" lon="127.040668"/>
      <trkpt lat="37.544403" lon="127.040636"/>
      <trkpt lat="37.544428" lon="127.040333"/>
      <trkpt lat="37.544383" lon="127.040042"/>
      <trkpt lat="37.544333" lon="127.039748"/>
      <trkpt lat="37.544271" lon="127.039456"/>
      <trkpt lat="37.544168" lon="127.039182"/>
      <trkpt lat="37.544346" lon="127.039182"/>
      <trkpt lat="37.544552" lon="127.039044"/>
      <trkpt lat="37.544728" lon="127.038865"/>
      <trkpt lat="37.544777" lon="127.038648"/>
      <trkpt lat="37.544667" lon="127.038378"/>
      <trkpt lat="37.544652" lon="127.038130"/>
      <trkpt lat="37.544545" lon="127.037858"/>
      <trkpt lat="37.544438" lon="127.037585"/>
      <trkpt lat="37.544331" lon="127.037313"/>
      <trkpt lat="37.544224" lon="127.037040"/>
      <trkpt lat="37.544131" lon="127.036763"/>
      <trkpt lat="37.544184" lon="127.036826"/>
      <trkpt lat="37.544270" lon="127.037091"/>
      <trkpt lat="37.544115" lon="127.037315"/>
      <trkpt lat="37.544191" lon="127.037483"/>
      <trkpt lat="37.544431" lon="127.037473"/>
    </trkseg>
  </trk>
</gpx>
