<?xml version="1.0" encoding="UTF-8"?>
<gpx version="1.1" creator="daengrun gen-route-gpx.mjs" xmlns="http://www.topografix.com/GPX/1/1" xmlns:xsi="http://www.w3.org/2001/XMLSchema-instance" xsi:schemaLocation="http://www.topografix.com/GPX/1/1 http://www.topografix.com/GPX/1/1/gpx.xsd">
  <metadata>
    <name>뚝섬 리버뷰 코스</name>
    <desc>Seed course geometry (source=algo) for daengrun route 74ec26da-efbc-422e-949c-45fcfab85c0e. Not a measured GPS trace: the course is synthesised, but every point lies on a mapped OpenStreetMap footpath. Shape: loop. Target 5 km, measured 4.943 km.</desc>
    <copyright author="OpenStreetMap contributors"><license>https://opendatacommons.org/licenses/odbl/1-0/</license></copyright>
    <keywords>daengrun,seed,algo,candidate,osm</keywords>
  </metadata>
  <trk>
    <name>뚝섬 리버뷰 코스</name>
    <trkseg>
      <trkpt lat="37.529769" lon="127.066185"/>
      <trkpt lat="37.529556" lon="127.066091"/>
      <trkpt lat="37.529391" lon="127.066136"/>
      <trkpt lat="37.529309" lon="127.066401"/>
      <trkpt lat="37.529228" lon="127.066667"/>
      <trkpt lat="37.529147" lon="127.066933"/>
      <trkpt lat="37.529065" lon="127.067199"/>
      <trkpt lat="37.528984" lon="127.067465"/>
      <trkpt lat="37.528903" lon="127.067730"/>
      <trkpt lat="37.528822" lon="127.067996"/>
      <trkpt lat="37.528728" lon="127.068255"/>
      <trkpt lat="37.528625" lon="127.068508"/>
      <trkpt lat="37.528546" lon="127.068775"/>
      <trkpt lat="37.528477" lon="127.069046"/>
      <trkpt lat="37.528409" lon="127.069318"/>
      <trkpt lat="37.528340" lon="127.069589"/>
      <trkpt lat="37.528275" lon="127.069862"/>
      <trkpt lat="37.528211" lon="127.070135"/>
      <trkpt lat="37.528148" lon="127.070408"/>
      <trkpt lat="37.528086" lon="127.070682"/>
      <trkpt lat="37.528026" lon="127.070957"/>
      <trkpt lat="37.527970" lon="127.071233"/>
      <trkpt lat="37.527913" lon="127.071509"/>
      <trkpt lat="37.527856" lon="127.071784"/>
      <trkpt lat="37.527797" lon="127.072059"/>
      <trkpt lat="37.527744" lon="127.072336"/>
      <trkpt lat="37.527690" lon="127.072613"/>
      <trkpt lat="37.527637" lon="127.072890"/>
      <trkpt lat="37.527583" lon="127.073166"/>
      <trkpt lat="37.527533" lon="127.073444"/>
      <trkpt lat="37.527483" lon="127.073722"/>
      <trkpt lat="37.527432" lon="127.074000"/>
      <trkpt lat="37.527382" lon="127.074277"/>
      <trkpt lat="37.527332" lon="127.074555"/>
      <trkpt lat="37.527282" lon="127.074833"/>
      <trkpt lat="37.527231" lon="127.075111"/>
      <trkpt lat="37.527182" lon="127.075389"/>
      <trkpt lat="37.527139" lon="127.075668"/>
      <trkpt lat="37.527113" lon="127.075951"/>
      <trkpt lat="37.527088" lon="127.076234"/>
      <trkpt lat="37.527063" lon="127.076517"/>
      <trkpt lat="37.527039" lon="127.076800"/>
      <trkpt lat="37.527009" lon="127.077083"/>
      <trkpt lat="37.526979" lon="127.077365"/>
      <trkpt lat="37.526945" lon="127.077647"/>
      <trkpt lat="37.526917" lon="127.077929"/>
      <trkpt lat="37.526892" lon="127.078213"/>
      <trkpt lat="37.526874" lon="127.078496"/>
      <trkpt lat="37.526853" lon="127.078780"/>
      <trkpt lat="37.526835" lon="127.079064"/>
      <trkpt lat="37.526821" lon="127.079348"/>
      <trkpt lat="37.526807" lon="127.079633"/>
      <trkpt lat="37.526799" lon="127.079917"/>
      <trkpt lat="37.526792" lon="127.080202"/>
      <trkpt lat="37.526796" lon="127.080487"/>
      <trkpt lat="37.526800" lon="127.080772"/>
      <trkpt lat="37.526805" lon="127.081056"/>
      <trkpt lat="37.526807" lon="127.081341"/>
      <trkpt lat="37.526813" lon="127.081626"/>
      <trkpt lat="37.526822" lon="127.081911"/>
      <trkpt lat="37.526835" lon="127.082195"/>
      <trkpt lat="37.526847" lon="127.082479"/>
      <trkpt lat="37.526856" lon="127.082764"/>
      <trkpt lat="37.526866" lon="127.083049"/>
      <trkpt lat="37.526878" lon="127.083333"/>
      <trkpt lat="37.526894" lon="127.083617"/>
      <trkpt lat="37.526907" lon="127.083902"/>
      <trkpt lat="37.526919" lon="127.084186"/>
      <trkpt lat="37.526931" lon="127.084471"/>
      <trkpt lat="37.526939" lon="127.084755"/>
      <trkpt lat="37.526946" lon="127.085040"/>
      <trkpt lat="37.526954" lon="127.085325"/>
      <trkpt lat="37.526961" lon="127.085609"/>
      <trkpt lat="37.526968" lon="127.085894"/>
      <trkpt lat="37.526994" lon="127.086177"/>
      <trkpt lat="37.527028" lon="127.086459"/>
      <trkpt lat="37.527076" lon="127.086737"/>
      <trkpt lat="37.527139" lon="127.087010"/>
      <trkpt lat="37.527227" lon="127.087272"/>
      <trkpt lat="37.527318" lon="127.087532"/>
      <trkpt lat="37.527436" lon="127.087775"/>
      <trkpt lat="37.527564" lon="127.088009"/>
      <trkpt lat="37.527677" lon="127.088256"/>
      <trkpt lat="37.527805" lon="127.088489"/>
      <trkpt lat="37.527938" lon="127.088719"/>
      <trkpt lat="37.528080" lon="127.088941"/>
      <trkpt lat="37.528275" lon="127.089057"/>
      <trkpt lat="37.528494" lon="127.089084"/>
      <trkpt lat="37.528648" lon="127.089288"/>
      <trkpt lat="37.528781" lon="127.089518"/>
      <trkpt lat="37.528918" lon="127.089744"/>
      <trkpt lat="37.529060" lon="127.089966"/>
      <trkpt lat="37.529034" lon="127.089925"/>
      <trkpt lat="37.528892" lon="127.089703"/>
      <trkpt lat="37.528756" lon="127.089476"/>
      <trkpt lat="37.528624" lon="127.089245"/>
      <trkpt lat="37.528458" lon="127.089058"/>
      <trkpt lat="37.528234" lon="127.089057"/>
      <trkpt lat="37.528052" lon="127.088902"/>
      <trkpt lat="37.527914" lon="127.088676"/>
      <trkpt lat="37.527779" lon="127.088448"/>
      <trkpt lat="37.527657" lon="127.088210"/>
      <trkpt lat="37.527540" lon="127.087966"/>
      <trkpt lat="37.527414" lon="127.087730"/>
      <trkpt lat="37.527296" lon="127.087487"/>
      <trkpt lat="37.527112" lon="127.087369"/>
      <trkpt lat="37.527043" lon="127.087098"/>
      <trkpt lat="37.526982" lon="127.086823"/>
      <trkpt lat="37.526927" lon="127.086547"/>
      <trkpt lat="37.526898" lon="127.086265"/>
      <trkpt lat="37.526869" lon="127.085982"/>
      <trkpt lat="37.526854" lon="127.085698"/>
      <trkpt lat="37.526846" lon="127.085414"/>
      <trkpt lat="37.526837" lon="127.085129"/>
      <trkpt lat="37.526828" lon="127.084844"/>
      <trkpt lat="37.526810" lon="127.084561"/>
      <trkpt lat="37.526797" lon="127.084276"/>
      <trkpt lat="37.526786" lon="127.083992"/>
      <trkpt lat="37.526776" lon="127.083707"/>
      <trkpt lat="37.526766" lon="127.083423"/>
      <trkpt lat="37.526756" lon="127.083138"/>
      <trkpt lat="37.526751" lon="127.082853"/>
      <trkpt lat="37.526746" lon="127.082568"/>
      <trkpt lat="37.526738" lon="127.082284"/>
      <trkpt lat="37.526729" lon="127.081999"/>
      <trkpt lat="37.526710" lon="127.081716"/>
      <trkpt lat="37.526706" lon="127.081431"/>
      <trkpt lat="37.526670" lon="127.081150"/>
      <trkpt lat="37.526631" lon="127.080870"/>
      <trkpt lat="37.526602" lon="127.080587"/>
      <trkpt lat="37.526581" lon="127.080304"/>
      <trkpt lat="37.526558" lon="127.080020"/>
      <trkpt lat="37.526540" lon="127.079737"/>
      <trkpt lat="37.526550" lon="127.079452"/>
      <trkpt lat="37.526562" lon="127.079168"/>
      <trkpt lat="37.526582" lon="127.078884"/>
      <trkpt lat="37.526603" lon="127.078601"/>
      <trkpt lat="37.526624" lon="127.078317"/>
      <trkpt lat="37.526647" lon="127.078034"/>
      <trkpt lat="37.526670" lon="127.077750"/>
      <trkpt lat="37.526699" lon="127.077468"/>
      <trkpt lat="37.526735" lon="127.077187"/>
      <trkpt lat="37.526773" lon="127.076906"/>
      <trkpt lat="37.526818" lon="127.076627"/>
      <trkpt lat="37.526864" lon="127.076348"/>
      <trkpt lat="37.526910" lon="127.076069"/>
      <trkpt lat="37.526962" lon="127.075792"/>
      <trkpt lat="37.527015" lon="127.075515"/>
      <trkpt lat="37.527067" lon="127.075238"/>
      <trkpt lat="37.527119" lon="127.074960"/>
      <trkpt lat="37.527170" lon="127.074683"/>
      <trkpt lat="37.527222" lon="127.074406"/>
      <trkpt lat="37.527272" lon="127.074128"/>
      <trkpt lat="37.527323" lon="127.073850"/>
      <trkpt lat="37.527374" lon="127.073573"/>
      <trkpt lat="37.527427" lon="127.073296"/>
      <trkpt lat="37.527479" lon="127.073019"/>
      <trkpt lat="37.527530" lon="127.072741"/>
      <trkpt lat="37.527579" lon="127.072463"/>
      <trkpt lat="37.527629" lon="127.072185"/>
      <trkpt lat="37.527678" lon="127.071907"/>
      <trkpt lat="37.527740" lon="127.071633"/>
      <trkpt lat="37.527802" lon="127.071359"/>
      <trkpt lat="37.527858" lon="127.071084"/>
      <trkpt lat="37.527914" lon="127.070808"/>
      <trkpt lat="37.527971" lon="127.070532"/>
      <trkpt lat="37.528026" lon="127.070255"/>
      <trkpt lat="37.528079" lon="127.069979"/>
      <trkpt lat="37.528134" lon="127.069702"/>
      <trkpt lat="37.528202" lon="127.069431"/>
      <trkpt lat="37.528271" lon="127.069159"/>
      <trkpt lat="37.528340" lon="127.068888"/>
      <trkpt lat="37.528417" lon="127.068620"/>
      <trkpt lat="37.528495" lon="127.068353"/>
      <trkpt lat="37.528571" lon="127.068085"/>
      <trkpt lat="37.528582" lon="127.068369"/>
      <trkpt lat="37.528630" lon="127.068581"/>
      <trkpt lat="37.528811" lon="127.068414"/>
      <trkpt lat="37.528983" lon="127.068230"/>
      <trkpt lat="37.529194" lon="127.068327"/>
      <trkpt lat="37.529406" lon="127.068428"/>
      <trkpt lat="37.529617" lon="127.068528"/>
      <trkpt lat="37.529829" lon="127.068626"/>
      <trkpt lat="37.529928" lon="127.068450"/>
      <trkpt lat="37.530002" lon="127.068181"/>
      <trkpt lat="37.530076" lon="127.067911"/>
      <trkpt lat="37.530150" lon="127.067642"/>
      <trkpt lat="37.530224" lon="127.067373"/>
      <trkpt lat="37.530301" lon="127.067106"/>
      <trkpt lat="37.530408" lon="127.066855"/>
      <trkpt lat="37.530477" lon="127.066585"/>
      <trkpt lat="37.530566" lon="127.066324"/>
      <trkpt lat="37.530686" lon="127.066092"/>
      <trkpt lat="37.530849" lon="127.065956"/>
      <trkpt lat="37.530661" lon="127.066112"/>
      <trkpt lat="37.530554" lon="127.066357"/>
      <trkpt lat="37.530409" lon="127.066468"/>
      <trkpt lat="37.530196" lon="127.066373"/>
      <trkpt lat="37.529982" lon="127.066279"/>
      <trkpt lat="37.529769" lon="127.066185"/>
    </trkseg>
  </trk>
</gpx>
