<?xml version="1.0" encoding="UTF-8"?>
<gpx version="1.1" creator="daengrun gen-route-gpx.mjs" xmlns="http://www.topografix.com/GPX/1/1" xmlns:xsi="http://www.w3.org/2001/XMLSchema-instance" xsi:schemaLocation="http://www.topografix.com/GPX/1/1 http://www.topografix.com/GPX/1/1/gpx.xsd">
  <metadata>
    <name>뚝섬–잠원 7km</name>
    <desc>Seed course geometry (source=algo) for daengrun route ecb4ac90-fd8b-46c1-97e5-b3dfab064fbb. Not a measured GPS trace: the course is synthesised, but every point lies on a mapped OpenStreetMap footpath. Shape: out-and-back. Target 7 km, measured 6.921 km.</desc>
    <copyright author="OpenStreetMap contributors"><license>https://opendatacommons.org/licenses/odbl/1-0/</license></copyright>
    <keywords>daengrun,seed,algo,candidate,osm</keywords>
  </metadata>
  <trk>
    <name>뚝섬–잠원 7km</name>
    <trkseg>
      <trkpt lat="37.529769" lon="127.066185"/>
      <trkpt lat="37.529471" lon="127.066054"/>
      <trkpt lat="37.529538" lon="127.065726"/>
      <trkpt lat="37.529674" lon="127.065366"/>
      <trkpt lat="37.529821" lon="127.065012"/>
      <trkpt lat="37.529964" lon="127.064657"/>
      <trkpt lat="37.530098" lon="127.064296"/>
      <trkpt lat="37.530239" lon="127.063941"/>
      <trkpt lat="37.530404" lon="127.063600"/>
      <trkpt lat="37.530557" lon="127.063252"/>
      <trkpt lat="37.530717" lon="127.062907"/>
      <trkpt lat="37.530873" lon="127.062560"/>
      <trkpt lat="37.531022" lon="127.062208"/>
      <trkpt lat="37.531167" lon="127.061854"/>
      <trkpt lat="37.531320" lon="127.061505"/>
      <trkpt lat="37.531490" lon="127.061169"/>
      <trkpt lat="37.531668" lon="127.060839"/>
      <trkpt lat="37.531852" lon="127.060515"/>
      <trkpt lat="37.532034" lon="127.060189"/>
      <trkpt lat="37.532190" lon="127.059863"/>
      <trkpt lat="37.532367" lon="127.059534"/>
      <trkpt lat="37.532543" lon="127.059202"/>
      <trkpt lat="37.532718" lon="127.058870"/>
      <trkpt lat="37.532894" lon="127.058538"/>
      <trkpt lat="37.533069" lon="127.058206"/>
      <trkpt lat="37.533245" lon="127.057874"/>
      <trkpt lat="37.533420" lon="127.057542"/>
      <trkpt lat="37.533595" lon="127.057210"/>
      <trkpt lat="37.533771" lon="127.056878"/>
      <trkpt lat="37.533909" lon="127.056522"/>
      <trkpt lat="37.534021" lon="127.056148"/>
      <trkpt lat="37.534123" lon="127.055771"/>
      <trkpt lat="37.534224" lon="127.055393"/>
      <trkpt lat="37.534298" lon="127.055005"/>
      <trkpt lat="37.534402" lon="127.054629"/>
      <trkpt lat="37.534506" lon="127.054252"/>
      <trkpt lat="37.534606" lon="127.053874"/>
      <trkpt lat="37.534704" lon="127.053494"/>
      <trkpt lat="37.534802" lon="127.053115"/>
      <trkpt lat="37.534908" lon="127.052739"/>
      <trkpt lat="37.535014" lon="127.052363"/>
      <trkpt lat="37.535120" lon="127.051987"/>
      <trkpt lat="37.535225" lon="127.051611"/>
      <trkpt lat="37.535329" lon="127.051235"/>
      <trkpt lat="37.535433" lon="127.050858"/>
      <trkpt lat="37.535537" lon="127.050481"/>
      <trkpt lat="37.535641" lon="127.050104"/>
      <trkpt lat="37.535745" lon="127.049728"/>
      <trkpt lat="37.535850" lon="127.049351"/>
      <trkpt lat="37.535955" lon="127.048975"/>
      <trkpt lat="37.536060" lon="127.048599"/>
      <trkpt lat="37.536165" lon="127.048222"/>
      <trkpt lat="37.536270" lon="127.047846"/>
      <trkpt lat="37.536376" lon="127.047470"/>
      <trkpt lat="37.536481" lon="127.047094"/>
      <trkpt lat="37.536587" lon="127.046718"/>
      <trkpt lat="37.536693" lon="127.046342"/>
      <trkpt lat="37.536798" lon="127.045966"/>
      <trkpt lat="37.536904" lon="127.045590"/>
      <trkpt lat="37.536997" lon="127.045209"/>
      <trkpt lat="37.537080" lon="127.044824"/>
      <trkpt lat="37.537151" lon="127.044436"/>
      <trkpt lat="37.537223" lon="127.044047"/>
      <trkpt lat="37.537306" lon="127.043662"/>
      <trkpt lat="37.537388" lon="127.043277"/>
      <trkpt lat="37.537489" lon="127.042899"/>
      <trkpt lat="37.537592" lon="127.042522"/>
      <trkpt lat="37.537694" lon="127.042144"/>
      <trkpt lat="37.537800" lon="127.041768"/>
      <trkpt lat="37.537918" lon="127.041398"/>
      <trkpt lat="37.538048" lon="127.041034"/>
      <trkpt lat="37.538188" lon="127.040677"/>
      <trkpt lat="37.538330" lon="127.040320"/>
      <trkpt lat="37.538469" lon="127.039962"/>
      <trkpt lat="37.538606" lon="127.039603"/>
      <trkpt lat="37.538743" lon="127.039243"/>
      <trkpt lat="37.538885" lon="127.038887"/>
      <trkpt lat="37.539028" lon="127.038531"/>
      <trkpt lat="37.539158" lon="127.038167"/>
      <trkpt lat="37.539286" lon="127.037802"/>
      <trkpt lat="37.539413" lon="127.037437"/>
      <trkpt lat="37.539539" lon="127.037071"/>
      <trkpt lat="37.539649" lon="127.036697"/>
      <trkpt lat="37.539769" lon="127.036328"/>
      <trkpt lat="37.539915" lon="127.035974"/>
      <trkpt lat="37.539951" lon="127.035627"/>
      <trkpt lat="37.540009" lon="127.035235"/>
      <trkpt lat="37.540315" lon="127.035170"/>
      <trkpt lat="37.540628" lon="127.035106"/>
      <trkpt lat="37.540940" lon="127.035042"/>
      <trkpt lat="37.541241" lon="127.034949"/>
      <trkpt lat="37.541476" lon="127.034682"/>
      <trkpt lat="37.541763" lon="127.034571"/>
      <trkpt lat="37.542057" lon="127.034715"/>
      <trkpt lat="37.542326" lon="127.034912"/>
      <trkpt lat="37.542467" lon="127.035269"/>
      <trkpt lat="37.542734" lon="127.035246"/>
      <trkpt lat="37.543028" lon="127.035385"/>
      <trkpt lat="37.543323" lon="127.035527"/>
      <trkpt lat="37.543631" lon="127.035597"/>
      <trkpt lat="37.543631" lon="127.035597"/>
      <trkpt lat="37.543323" lon="127.035527"/>
      <trkpt lat="37.543028" lon="127.035385"/>
      <trkpt lat="37.542734" lon="127.035246"/>
      <trkpt lat="37.542467" lon="127.035269"/>
      <trkpt lat="37.542326" lon="127.034912"/>
      <trkpt lat="37.542057" lon="127.034715"/>
      <trkpt lat="37.541763" lon="127.034571"/>
      <trkpt lat="37.541476" lon="127.034682"/>
      <trkpt lat="37.541241" lon="127.034949"/>
      <trkpt lat="37.540940" lon="127.035042"/>
      <trkpt lat="37.540628" lon="127.035106"/>
      <trkpt lat="37.540315" lon="127.035170"/>
      <trkpt lat="37.540009" lon="127.035235"/>
      <trkpt lat="37.539951" lon="127.035627"/>
      <trkpt lat="37.539915" lon="127.035974"/>
      <trkpt lat="37.539769" lon="127.036328"/>
      <trkpt lat="37.539649" lon="127.036697"/>
      <trkpt lat="37.539539" lon="127.037071"/>
      <trkpt lat="37.539413" lon="127.037437"/>
      <trkpt lat="37.539286" lon="127.037802"/>
      <trkpt lat="37.539158" lon="127.038167"/>
      <trkpt lat="37.539028" lon="127.038531"/>
      <trkpt lat="37.538885" lon="127.038887"/>
      <trkpt lat="37.538743" lon="127.039243"/>
      <trkpt lat="37.538606" lon="127.039603"/>
      <trkpt lat="37.538469" lon="127.039962"/>
      <trkpt lat="37.538330" lon="127.040320"/>
      <trkpt lat="37.538188" lon="127.040677"/>
      <trkpt lat="37.538048" lon="127.041034"/>
      <trkpt lat="37.537918" lon="127.041398"/>
      <trkpt lat="37.537800" lon="127.041768"/>
      <trkpt lat="37.537694" lon="127.042144"/>
      <trkpt lat="37.537592" lon="127.042522"/>
      <trkpt lat="37.537489" lon="127.042899"/>
      <trkpt lat="37.537388" lon="127.043277"/>
      <trkpt lat="37.537306" lon="127.043662"/>
      <trkpt lat="37.537223" lon="127.044047"/>
      <trkpt lat="37.537151" lon="127.044436"/>
      <trkpt lat="37.537080" lon="127.044824"/>
      <trkpt lat="37.536997" lon="127.045209"/>
      <trkpt lat="37.536904" lon="127.045590"/>
      <trkpt lat="37.536798" lon="127.045966"/>
      <trkpt lat="37.536693" lon="127.046342"/>
      <trkpt lat="37.536587" lon="127.046718"/>
      <trkpt lat="37.536481" lon="127.047094"/>
      <trkpt lat="37.536376" lon="127.047470"/>
      <trkpt lat="37.536270" lon="127.047846"/>
      <trkpt lat="37.536165" lon="127.048222"/>
      <trkpt lat="37.536060" lon="127.048599"/>
      <trkpt lat="37.535955" lon="127.048975"/>
      <trkpt lat="37.535850" lon="127.049351"/>
      <trkpt lat="37.535745" lon="127.049728"/>
      <trkpt lat="37.535641" lon="127.050104"/>
      <trkpt lat="37.535537" lon="127.050481"/>
      <trkpt lat="37.535433" lon="127.050858"/>
      <trkpt lat="37.535329" lon="127.051235"/>
      <trkpt lat="37.535225" lon="127.051611"/>
      <trkpt lat="37.535120" lon="127.051987"/>
      <trkpt lat="37.535014" lon="127.052363"/>
      <trkpt lat="37.534908" lon="127.052739"/>
      <trkpt lat="37.534802" lon="127.053115"/>
      <trkpt lat="37.534704" lon="127.053494"/>
      <trkpt lat="37.534606" lon="127.053874"/>
      <trkpt lat="37.534506" lon="127.054252"/>
      <trkpt lat="37.534402" lon="127.054629"/>
      <trkpt lat="37.534298" lon="127.055005"/>
      <trkpt lat="37.534224" lon="127.055393"/>
      <trkpt lat="37.534123" lon="127.055771"/>
      <trkpt lat="37.534021" lon="127.056148"/>
      <trkpt lat="37.533909" lon="127.056522"/>
      <trkpt lat="37.533771" lon="127.056878"/>
      <trkpt lat="37.533595" lon="127.057210"/>
      <trkpt lat="37.533420" lon="127.057542"/>
      <trkpt lat="37.533245" lon="127.057874"/>
      <trkpt lat="37.533069" lon="127.058206"/>
      <trkpt lat="37.532894" lon="127.058538"/>
      <trkpt lat="37.532718" lon="127.058870"/>
      <trkpt lat="37.532543" lon="127.059202"/>
      <trkpt lat="37.532367" lon="127.059534"/>
      <trkpt lat="37.532190" lon="127.059863"/>
      <trkpt lat="37.532034" lon="127.060189"/>
      <trkpt lat="37.531852" lon="127.060515"/>
      <trkpt lat="37.531668" lon="127.060839"/>
      <trkpt lat="37.531490" lon="127.061169"/>
      <trkpt lat="37.531320" lon="127.061505"/>
      <trkpt lat="37.531167" lon="127.061854"/>
      <trkpt lat="37.531022" lon="127.062208"/>
      <trkpt lat="37.530873" lon="127.062560"/>
      <trkpt lat="37.530717" lon="127.062907"/>
      <trkpt lat="37.530557" lon="127.063252"/>
      <trkpt lat="37.530404" lon="127.063600"/>
      <trkpt lat="37.530239" lon="127.063941"/>
      <trkpt lat="37.530098" lon="127.064296"/>
      <trkpt lat="37.529964" lon="127.064657"/>
      <trkpt lat="37.529821" lon="127.065012"/>
      <trkpt lat="37.529674" lon="127.065366"/>
      <trkpt lat="37.529538" lon="127.065726"/>
      <trkpt lat="37.529471" lon="127.066054"/>
      <trkpt lat="37.529769" lon="127.066185"/>
    </trkseg>
  </trk>
</gpx>
